{"type":"FeatureCollection","source":"OCHA COD-AB Thailand (HDX, CC BY-IGO) — tha_admin3","features":[{"type":"Feature","properties":{"code":"TH600112","name":"พระนอน","name_en":"Phra Non","district":"เมืองนครสวรรค์","area_km2":122.6,"in_existing":false},"geometry":{"type":"Polygon","coordinates":[[[100.19094,15.69957],[100.24742,15.69823],[100.27053,15.69704],[100.28029,15.69598],[100.28896,15.69429],[100.28946,15.68716],[100.2895,15.68293],[100.2883,15.67838],[100.28822,15.67692],[100.28901,15.67673],[100.28979,15.67224],[100.28949,15.66503],[100.28702,15.65772],[100.28677,15.65605],[100.28688,15.65588],[100.29539,15.65534],[100.29496,15.65321],[100.29454,15.64553],[100.2947,15.64492],[100.29682,15.64498],[100.29644,15.64291],[100.29745,15.64258],[100.29637,15.63677],[100.29635,15.63418],[100.30746,15.63355],[100.30885,15.6329],[100.33849,15.59839],[100.33417,15.59526],[100.3329,15.59219],[100.33047,15.58917],[100.33003,15.58827],[100.32947,15.58835],[100.32918,15.58693],[100.32871,15.58627],[100.32426,15.58188],[100.32164,15.58098],[100.32011,15.58074],[100.31842,15.57821],[100.31645,15.57606],[100.31589,15.57472],[100.31451,15.57438],[100.31413,15.57349],[100.3121,15.57286],[100.30936,15.57359],[100.30906,15.57199],[100.30926,15.56953],[100.31007,15.56816],[100.31086,15.56794],[100.31051,15.56726],[100.30999,15.56689],[100.30884,15.56668],[100.30832,15.56679],[100.30668,15.56618],[100.30506,15.56488],[100.30407,15.56498],[100.30308,15.5648],[100.29977,15.56257],[100.2979,15.56097],[100.29679,15.56045],[100.29603,15.56049],[100.29461,15.56122],[100.2919,15.56353],[100.29075,15.56513],[100.28965,15.57123],[100.29039,15.57392],[100.29018,15.57543],[100.27612,15.57436],[100.27552,15.57439],[100.27512,15.5747],[100.27465,15.58133],[100.27216,15.58634],[100.27172,15.58772],[100.27111,15.59143],[100.2711,15.59377],[100.27182,15.5999],[100.27188,15.60008],[100.27278,15.60008],[100.27237,15.6015],[100.27244,15.60732],[100.27204,15.61347],[100.27158,15.61487],[100.27065,15.61582],[100.27007,15.61681],[100.2698,15.62051],[100.26839,15.6265],[100.26813,15.62697],[100.26766,15.62714],[100.25708,15.62914],[100.25448,15.63104],[100.25042,15.63327],[100.25109,15.6343],[100.25151,15.63436],[100.25189,15.63479],[100.25227,15.63591],[100.24744,15.63594],[100.24491,15.63531],[100.24324,15.63566],[100.23989,15.6371],[100.23832,15.63648],[100.23733,15.63664],[100.23492,15.63556],[100.23339,15.63598],[100.2336,15.63472],[100.23206,15.63327],[100.23099,15.63343],[100.23007,15.63319],[100.22942,15.63339],[100.22891,15.63307],[100.22811,15.6331],[100.22769,15.63236],[100.22698,15.63226],[100.22655,15.63249],[100.22619,15.63201],[100.22658,15.63177],[100.22615,15.63153],[100.22584,15.63169],[100.22512,15.63132],[100.22393,15.63179],[100.22315,15.63175],[100.22257,15.63199],[100.22049,15.63153],[100.21915,15.63187],[100.21907,15.63129],[100.2182,15.63106],[100.21758,15.63013],[100.21682,15.62986],[100.21567,15.62892],[100.2156,15.62822],[100.21463,15.62696],[100.21484,15.62635],[100.21448,15.62596],[100.21436,15.62527],[100.21405,15.62521],[100.21343,15.62437],[100.21241,15.62447],[100.21255,15.62423],[100.21204,15.62352],[100.21153,15.62363],[100.21001,15.62294],[100.20932,15.62074],[100.20929,15.61998],[100.20851,15.61996],[100.20784,15.61942],[100.2075,15.61943],[100.20737,15.61904],[100.20718,15.61909],[100.20716,15.6194],[100.20637,15.61942],[100.20573,15.61993],[100.20526,15.62],[100.20462,15.61959],[100.20441,15.62017],[100.20407,15.62006],[100.20399,15.61972],[100.20339,15.61954],[100.20318,15.61902],[100.20245,15.61913],[100.20211,15.62187],[100.2024,15.6236],[100.2009,15.62402],[100.19688,15.62463],[100.19716,15.62754],[100.19758,15.62784],[100.1981,15.62901],[100.19852,15.63253],[100.19913,15.63277],[100.1987,15.63621],[100.19871,15.63831],[100.19769,15.64064],[100.19775,15.64229],[100.19727,15.64729],[100.19767,15.64981],[100.19095,15.65174],[100.19192,15.65547],[100.17461,15.69941],[100.17533,15.69947],[100.1759,15.70192],[100.17696,15.70243],[100.17942,15.7011],[100.1802,15.70137],[100.18063,15.70072],[100.1809,15.70066],[100.18106,15.70065],[100.181,15.70138],[100.18156,15.7014],[100.18236,15.70205],[100.18398,15.70203],[100.18819,15.69978],[100.19094,15.69957]]]}},{"type":"Feature","properties":{"code":"TH600302","name":"ทับกฤช","name_en":"Thap Krit","district":"ชุมแสง","area_km2":112.6,"in_existing":false},"geometry":{"type":"Polygon","coordinates":[[[100.34286,15.78072],[100.33971,15.77777],[100.33827,15.77679],[100.3318,15.774],[100.32732,15.7732],[100.318,15.77223],[100.31488,15.77143],[100.31354,15.77031],[100.31316,15.76915],[100.31344,15.76632],[100.31433,15.76371],[100.31525,15.76201],[100.31605,15.7609],[100.31801,15.75891],[100.32006,15.75723],[100.32389,15.75471],[100.32506,15.75356],[100.32759,15.75019],[100.32812,15.74804],[100.3285,15.743],[100.32839,15.74209],[100.3221,15.72919],[100.32005,15.72547],[100.31872,15.72373],[100.31573,15.72158],[100.3144,15.71702],[100.31075,15.70815],[100.31096,15.70723],[100.30244,15.70355],[100.3008,15.7002],[100.29957,15.69868],[100.30057,15.69354],[100.2982,15.69299],[100.2963,15.6929],[100.28386,15.69538],[100.2746,15.69663],[100.27053,15.69704],[100.24742,15.69823],[100.2427,15.70784],[100.23982,15.71227],[100.23588,15.71707],[100.22848,15.72141],[100.22275,15.72924],[100.22406,15.73089],[100.22519,15.73428],[100.22756,15.73829],[100.2286,15.73962],[100.23056,15.74074],[100.23571,15.74245],[100.23764,15.74279],[100.242,15.7429],[100.24401,15.74351],[100.24615,15.74482],[100.24711,15.74612],[100.24664,15.75168],[100.24688,15.7528],[100.24737,15.75332],[100.2485,15.75394],[100.24947,15.7541],[100.25045,15.75393],[100.2536,15.75272],[100.25441,15.75277],[100.25506,15.75333],[100.25524,15.75469],[100.25401,15.76047],[100.2539,15.76172],[100.25411,15.76362],[100.25466,15.76505],[100.25754,15.76969],[100.25774,15.77099],[100.25766,15.7745],[100.25738,15.77652],[100.2555,15.78332],[100.25487,15.78651],[100.25513,15.78766],[100.25661,15.79043],[100.25672,15.7913],[100.2566,15.79181],[100.25602,15.79226],[100.25415,15.79233],[100.253,15.79277],[100.25275,15.79309],[100.25266,15.79385],[100.25495,15.80126],[100.25501,15.8023],[100.25468,15.80298],[100.2556,15.80348],[100.25655,15.80304],[100.25696,15.80309],[100.25805,15.80456],[100.2591,15.80513],[100.2592,15.8063],[100.25864,15.80741],[100.25921,15.80819],[100.26222,15.80796],[100.26259,15.80858],[100.26255,15.80911],[100.26131,15.81009],[100.26123,15.8107],[100.26209,15.81143],[100.26396,15.81147],[100.26454,15.81175],[100.26465,15.81256],[100.26412,15.81472],[100.26476,15.81577],[100.2662,15.81564],[100.26746,15.81589],[100.27044,15.8159],[100.27148,15.81411],[100.27244,15.81369],[100.27402,15.81373],[100.27609,15.81446],[100.27862,15.81481],[100.27957,15.8144],[100.28038,15.8144],[100.28116,15.81491],[100.28164,15.81644],[100.28161,15.81764],[100.28216,15.81818],[100.28281,15.81841],[100.28787,15.81864],[100.28974,15.8192],[100.29075,15.81982],[100.29077,15.82103],[100.29183,15.82163],[100.29363,15.82185],[100.29523,15.82169],[100.29815,15.82063],[100.30023,15.81948],[100.30191,15.81994],[100.3025,15.82102],[100.30289,15.82127],[100.30512,15.82147],[100.30594,15.8211],[100.30664,15.81997],[100.30766,15.81922],[100.30979,15.81915],[100.31036,15.8193],[100.31116,15.82031],[100.31268,15.82058],[100.31301,15.8211],[100.3131,15.82216],[100.31356,15.82259],[100.32119,15.81843],[100.3301,15.81055],[100.33307,15.80885],[100.34115,15.80888],[100.34169,15.80561],[100.34186,15.80303],[100.34184,15.80126],[100.34133,15.79772],[100.34218,15.79161],[100.34179,15.78726],[100.34286,15.78072]]]}},{"type":"Feature","properties":{"code":"TH600310","name":"ไผ่สิงห์","name_en":"Phai Sing","district":"ชุมแสง","area_km2":55.4,"in_existing":true},"geometry":{"type":"Polygon","coordinates":[[[100.4033,15.84522],[100.40297,15.84446],[100.40312,15.84385],[100.40286,15.84148],[100.40299,15.84041],[100.40354,15.83933],[100.40336,15.83727],[100.40443,15.83333],[100.40623,15.8243],[100.40706,15.82308],[100.40702,15.82271],[100.40626,15.82256],[100.4047,15.82132],[100.40362,15.82113],[100.40219,15.82032],[100.40086,15.81817],[100.40029,15.81763],[100.39779,15.81746],[100.39083,15.81296],[100.38201,15.80607],[100.38099,15.80496],[100.37713,15.80171],[100.37492,15.79927],[100.37389,15.7992],[100.37235,15.79962],[100.36936,15.79964],[100.36655,15.79929],[100.36168,15.79764],[100.35467,15.79083],[100.34841,15.78617],[100.34286,15.78072],[100.34179,15.78726],[100.34218,15.79161],[100.34133,15.79772],[100.34184,15.80126],[100.34186,15.80303],[100.34169,15.80561],[100.34115,15.80888],[100.33307,15.80885],[100.3301,15.81055],[100.32119,15.81843],[100.31356,15.82259],[100.31434,15.83075],[100.31612,15.83933],[100.31629,15.85669],[100.31916,15.8559],[100.32115,15.85593],[100.32158,15.85607],[100.32247,15.85708],[100.32364,15.85744],[100.32576,15.85681],[100.3284,15.85674],[100.32958,15.8565],[100.33031,15.85705],[100.33066,15.85767],[100.33183,15.85828],[100.33213,15.85882],[100.33182,15.85951],[100.33206,15.85999],[100.33252,15.86027],[100.33305,15.86129],[100.33318,15.86466],[100.33339,15.86509],[100.33428,15.86485],[100.33539,15.86511],[100.33656,15.86569],[100.3382,15.86598],[100.34021,15.86597],[100.34522,15.86531],[100.34845,15.86478],[100.36026,15.86117],[100.36057,15.8621],[100.36343,15.86137],[100.36376,15.86288],[100.36693,15.86225],[100.36819,15.86227],[100.36983,15.85966],[100.37307,15.85565],[100.37348,15.85421],[100.37348,15.85321],[100.37426,15.85349],[100.37752,15.85329],[100.37769,15.85379],[100.38043,15.85295],[100.38138,15.8534],[100.3831,15.85311],[100.38328,15.85278],[100.38564,15.8527],[100.38853,15.8516],[100.38959,15.8515],[100.38947,15.85046],[100.39235,15.85028],[100.4029,15.84561],[100.4033,15.84522]]]}},{"type":"Feature","properties":{"code":"TH600801","name":"ท่าตะโก","name_en":"Tha Tako","district":"ท่าตะโก","area_km2":46.4,"in_existing":false},"geometry":{"type":"Polygon","coordinates":[[[100.49488,15.63739],[100.49539,15.6371],[100.49592,15.63622],[100.49695,15.63578],[100.49728,15.63513],[100.49831,15.63406],[100.49837,15.63335],[100.49973,15.63296],[100.50013,15.63218],[100.50072,15.6318],[100.50258,15.63174],[100.50311,15.63146],[100.50297,15.62942],[100.50172,15.62473],[100.50284,15.62398],[100.50422,15.62348],[100.50361,15.62136],[100.50013,15.61585],[100.4983,15.61339],[100.49759,15.61101],[100.49726,15.60886],[100.49466,15.60773],[100.49237,15.60755],[100.48534,15.60631],[100.4807,15.60642],[100.47551,15.60607],[100.47315,15.6064],[100.46564,15.60883],[100.46182,15.60969],[100.46106,15.60881],[100.46066,15.60881],[100.45891,15.60726],[100.45635,15.60576],[100.45503,15.60451],[100.45387,15.6044],[100.45225,15.60351],[100.45112,15.6038],[100.45013,15.60459],[100.44979,15.60526],[100.44675,15.6061],[100.44693,15.60764],[100.44622,15.61008],[100.44492,15.61147],[100.44369,15.61207],[100.4438,15.61329],[100.44421,15.61402],[100.44498,15.61745],[100.4418,15.61796],[100.44139,15.61853],[100.44063,15.6206],[100.43995,15.62106],[100.43933,15.62242],[100.4375,15.62335],[100.43676,15.62302],[100.43508,15.62294],[100.43356,15.62405],[100.43246,15.62652],[100.43055,15.62929],[100.4306,15.6299],[100.43007,15.63105],[100.43026,15.63194],[100.43001,15.63533],[100.42479,15.63957],[100.42072,15.64167],[100.41783,15.64243],[100.41745,15.64338],[100.41662,15.64417],[100.4172,15.64492],[100.41689,15.64795],[100.41749,15.65397],[100.41866,15.65724],[100.41643,15.65806],[100.41171,15.66553],[100.41162,15.6659],[100.41234,15.66749],[100.41068,15.6678],[100.41036,15.66729],[100.40807,15.66736],[100.40799,15.67553],[100.41507,15.6746],[100.41487,15.67337],[100.41818,15.67282],[100.41829,15.6733],[100.42162,15.67294],[100.42137,15.67166],[100.42408,15.67128],[100.42624,15.66988],[100.42732,15.66965],[100.43575,15.66656],[100.44446,15.66055],[100.44516,15.6604],[100.44535,15.66329],[100.44645,15.66359],[100.44713,15.66467],[100.4478,15.66486],[100.4483,15.66437],[100.45007,15.66483],[100.45059,15.66464],[100.45079,15.66425],[100.45137,15.66407],[100.45245,15.66461],[100.45316,15.66455],[100.45378,15.66413],[100.45456,15.66301],[100.45609,15.66249],[100.45845,15.66125],[100.46259,15.66024],[100.4641,15.66001],[100.46528,15.66013],[100.46592,15.65903],[100.46705,15.65922],[100.46744,15.66141],[100.46748,15.66304],[100.46706,15.66435],[100.46759,15.66703],[100.46724,15.67317],[100.46811,15.67452],[100.46969,15.6747],[100.46949,15.67555],[100.4698,15.67569],[100.47401,15.66035],[100.47566,15.65539],[100.47666,15.65547],[100.47855,15.65687],[100.47933,15.65702],[100.47978,15.65667],[100.48083,15.6549],[100.48495,15.65327],[100.48726,15.65043],[100.48767,15.65034],[100.4896,15.65093],[100.491,15.65008],[100.49191,15.65021],[100.49255,15.65],[100.49289,15.64949],[100.49299,15.64736],[100.49391,15.64247],[100.49363,15.64142],[100.49369,15.64049],[100.49434,15.64032],[100.49403,15.63836],[100.49488,15.63739]]]}},{"type":"Feature","properties":{"code":"TH600802","name":"พนมรอก","name_en":"Phanom Rok","district":"ท่าตะโก","area_km2":99.7,"in_existing":false},"geometry":{"type":"Polygon","coordinates":[[[100.47416,15.73789],[100.48347,15.74173],[100.48977,15.74385],[100.49048,15.7439],[100.49034,15.73936],[100.49703,15.73539],[100.49847,15.73433],[100.49926,15.73341],[100.50115,15.73251],[100.50137,15.73185],[100.50129,15.73064],[100.5018,15.72984],[100.50334,15.73058],[100.50889,15.73184],[100.51371,15.73341],[100.51394,15.73244],[100.5163,15.73244],[100.51653,15.72953],[100.51937,15.7285],[100.51978,15.72807],[100.51936,15.72765],[100.51857,15.72757],[100.51798,15.72709],[100.51793,15.72622],[100.5168,15.72657],[100.51678,15.72598],[100.51713,15.72549],[100.51672,15.72511],[100.51668,15.72467],[100.51622,15.72462],[100.51592,15.72377],[100.51434,15.724],[100.51371,15.72459],[100.51339,15.72413],[100.51259,15.72406],[100.51237,15.72456],[100.51198,15.72459],[100.51181,15.72434],[100.51206,15.72372],[100.51165,15.72344],[100.51178,15.72278],[100.51151,15.72275],[100.51113,15.7231],[100.51102,15.72275],[100.51042,15.72246],[100.51054,15.72185],[100.50957,15.72196],[100.50948,15.72147],[100.51003,15.72105],[100.50933,15.7208],[100.50907,15.72039],[100.50859,15.72019],[100.50833,15.72072],[100.50806,15.72069],[100.50814,15.71996],[100.50882,15.71992],[100.50892,15.7197],[100.50858,15.71938],[100.50789,15.71977],[100.50773,15.7193],[100.50833,15.71907],[100.50884,15.71855],[100.50808,15.71825],[100.50792,15.71736],[100.50713,15.71749],[100.50779,15.71648],[100.50748,15.71643],[100.5071,15.71686],[100.50682,15.71689],[100.50699,15.71598],[100.5063,15.71614],[100.50589,15.71584],[100.50599,15.71446],[100.50538,15.71455],[100.50511,15.714],[100.50465,15.71405],[100.50407,15.71374],[100.50425,15.71274],[100.50466,15.71284],[100.50477,15.71262],[100.50474,15.71238],[100.50433,15.71224],[100.50437,15.71183],[100.50393,15.7116],[100.50415,15.71079],[100.50362,15.7107],[100.50341,15.71019],[100.50236,15.70938],[100.50121,15.70673],[100.50086,15.70666],[100.50041,15.70692],[100.49937,15.70662],[100.49927,15.70632],[100.49887,15.7062],[100.49893,15.70573],[100.49849,15.70524],[100.49767,15.70493],[100.49745,15.70439],[100.49645,15.70404],[100.49586,15.70426],[100.49553,15.70486],[100.49503,15.7048],[100.49472,15.70523],[100.49374,15.70472],[100.49335,15.70537],[100.49235,15.70551],[100.49138,15.70602],[100.49118,15.70641],[100.49071,15.70638],[100.49045,15.70669],[100.48901,15.70673],[100.48841,15.70637],[100.48847,15.70524],[100.48744,15.70485],[100.48754,15.7041],[100.48717,15.70263],[100.48714,15.70108],[100.48659,15.69959],[100.48702,15.6975],[100.48687,15.69342],[100.48726,15.68468],[100.48686,15.68168],[100.48726,15.67822],[100.48498,15.67768],[100.48302,15.67692],[100.48147,15.67725],[100.47924,15.67685],[100.47701,15.6768],[100.46948,15.67713],[100.46985,15.67578],[100.46949,15.67555],[100.46969,15.6747],[100.46811,15.67452],[100.46724,15.67317],[100.46759,15.66703],[100.46706,15.66435],[100.46748,15.66304],[100.46744,15.66141],[100.46694,15.65914],[100.46592,15.65903],[100.46528,15.66013],[100.4641,15.66001],[100.46259,15.66024],[100.45784,15.66147],[100.45609,15.66249],[100.45456,15.66301],[100.45378,15.66413],[100.45316,15.66455],[100.45245,15.66461],[100.45137,15.66407],[100.45079,15.66425],[100.45059,15.66464],[100.45007,15.66483],[100.4483,15.66437],[100.4478,15.66486],[100.44713,15.66467],[100.44645,15.66359],[100.44535,15.66329],[100.44516,15.6604],[100.44446,15.66055],[100.43575,15.66656],[100.42732,15.66965],[100.42624,15.66988],[100.42408,15.67128],[100.42137,15.67166],[100.42162,15.67294],[100.41829,15.6733],[100.41818,15.67282],[100.41487,15.67337],[100.41507,15.6746],[100.4081,15.67559],[100.40795,15.67531],[100.40465,15.67564],[100.40482,15.67738],[100.40375,15.6784],[100.40193,15.67892],[100.40223,15.68147],[100.39225,15.6823],[100.38877,15.68184],[100.38632,15.68216],[100.38625,15.68276],[100.38554,15.68296],[100.38528,15.68429],[100.38335,15.68431],[100.38341,15.6868],[100.38186,15.68717],[100.38096,15.68705],[100.37967,15.68865],[100.37804,15.69012],[100.37766,15.68997],[100.37747,15.68952],[100.37813,15.68816],[100.37796,15.68732],[100.37597,15.68683],[100.37501,15.68574],[100.37409,15.68592],[100.37345,15.68558],[100.37439,15.70417],[100.37551,15.70413],[100.37617,15.71177],[100.37607,15.71322],[100.37429,15.71978],[100.3736,15.72376],[100.37041,15.7336],[100.36754,15.73893],[100.36329,15.74386],[100.37196,15.74188],[100.37471,15.74182],[100.37745,15.74106],[100.37814,15.74313],[100.38167,15.74252],[100.38213,15.74283],[100.38567,15.74225],[100.38635,15.74418],[100.38801,15.74365],[100.3896,15.74354],[100.3901,15.74386],[100.39463,15.74328],[100.39682,15.74276],[100.39671,15.74227],[100.39703,15.74221],[100.40075,15.74204],[100.40104,15.74227],[100.40183,15.7422],[100.40196,15.74281],[100.40287,15.74283],[100.40308,15.74327],[100.40489,15.74319],[100.40502,15.74204],[100.40799,15.74209],[100.41046,15.74261],[100.41099,15.74205],[100.41188,15.7418],[100.41196,15.73999],[100.41166,15.73839],[100.41379,15.73818],[100.41563,15.73714],[100.41713,15.73783],[100.41804,15.73869],[100.4198,15.73888],[100.4199,15.73979],[100.42182,15.7409],[100.4235,15.74091],[100.42421,15.74205],[100.42519,15.74171],[100.42605,15.7422],[100.42662,15.74213],[100.42739,15.74304],[100.42796,15.74303],[100.42887,15.74224],[100.43255,15.74252],[100.43793,15.74463],[100.44219,15.74585],[100.44957,15.74596],[100.45055,15.74584],[100.45287,15.74405],[100.45699,15.73903],[100.46295,15.73323],[100.46517,15.73465],[100.46823,15.73559],[100.47416,15.73789]]]}},{"type":"Feature","properties":{"code":"TH600803","name":"หัวถนน","name_en":"Hua Thanon","district":"ท่าตะโก","area_km2":100.9,"in_existing":false},"geometry":{"type":"Polygon","coordinates":[[[100.4249,15.63532],[100.43001,15.63533],[100.43026,15.63194],[100.43007,15.63105],[100.4306,15.6299],[100.43055,15.62929],[100.43246,15.62652],[100.43356,15.62405],[100.43508,15.62294],[100.43676,15.62302],[100.4375,15.62335],[100.43933,15.62242],[100.43995,15.62106],[100.44063,15.6206],[100.44139,15.61853],[100.4418,15.61796],[100.44498,15.61745],[100.44421,15.61402],[100.4438,15.61329],[100.44369,15.61207],[100.44492,15.61147],[100.44622,15.61008],[100.44693,15.60764],[100.44675,15.6061],[100.44979,15.60526],[100.45013,15.60459],[100.45112,15.6038],[100.45225,15.60351],[100.45387,15.6044],[100.45503,15.60451],[100.45635,15.60576],[100.45891,15.60726],[100.46066,15.60881],[100.46106,15.60881],[100.46182,15.60969],[100.46564,15.60883],[100.47315,15.6064],[100.47551,15.60607],[100.4807,15.60642],[100.48534,15.60631],[100.49237,15.60755],[100.49466,15.60773],[100.49726,15.60886],[100.49749,15.60343],[100.5003,15.603],[100.50048,15.60269],[100.50046,15.60166],[100.49962,15.60022],[100.50114,15.60028],[100.50122,15.59812],[100.50386,15.59027],[100.50112,15.58813],[100.49967,15.58658],[100.49925,15.58457],[100.49844,15.58273],[100.4924,15.57689],[100.49195,15.57683],[100.4915,15.57644],[100.49038,15.57379],[100.49004,15.57096],[100.48951,15.57005],[100.488,15.56476],[100.48719,15.56288],[100.48006,15.56593],[100.47865,15.56358],[100.47754,15.56399],[100.47714,15.56275],[100.47593,15.56184],[100.4754,15.56034],[100.47478,15.56005],[100.47418,15.56037],[100.47333,15.56021],[100.47287,15.55952],[100.47183,15.55921],[100.47134,15.55849],[100.47075,15.55816],[100.47021,15.55817],[100.46972,15.5572],[100.46871,15.5564],[100.46843,15.5552],[100.46722,15.55468],[100.46667,15.55476],[100.46656,15.55371],[100.46589,15.55274],[100.46619,15.5494],[100.46663,15.54782],[100.46643,15.54607],[100.46562,15.54503],[100.46491,15.54456],[100.46432,15.54458],[100.46306,15.54268],[100.4621,15.53953],[100.462,15.53716],[100.46149,15.5364],[100.46058,15.53594],[100.46043,15.53523],[100.45942,15.53439],[100.45888,15.53413],[100.45836,15.53435],[100.45727,15.53431],[100.45452,15.53267],[100.45447,15.53211],[100.45406,15.53184],[100.45394,15.53081],[100.45361,15.53029],[100.44888,15.53017],[100.44868,15.52982],[100.44836,15.52978],[100.43873,15.52971],[100.43726,15.52756],[100.43589,15.52857],[100.43416,15.52828],[100.43172,15.5284],[100.43058,15.52801],[100.42822,15.52964],[100.42641,15.52919],[100.42533,15.53016],[100.42481,15.5303],[100.42446,15.53082],[100.42413,15.53084],[100.42439,15.53132],[100.4242,15.53275],[100.42346,15.53386],[100.42292,15.534],[100.42243,15.53384],[100.42198,15.53429],[100.42133,15.53636],[100.42003,15.53632],[100.41939,15.53713],[100.41869,15.53737],[100.41754,15.53734],[100.41701,15.53686],[100.41589,15.53763],[100.41444,15.53788],[100.41361,15.53779],[100.41215,15.53825],[100.41001,15.5383],[100.40699,15.54148],[100.40273,15.54733],[100.40129,15.54839],[100.39454,15.55768],[100.39057,15.56351],[100.38697,15.56945],[100.38542,15.57178],[100.38439,15.57295],[100.38411,15.5738],[100.38396,15.57591],[100.3829,15.57733],[100.38285,15.57772],[100.38347,15.57952],[100.38344,15.58039],[100.38177,15.58341],[100.38146,15.58479],[100.38174,15.58713],[100.38216,15.58761],[100.38266,15.58965],[100.38231,15.59174],[100.38366,15.59382],[100.35005,15.58738],[100.34908,15.58739],[100.34759,15.58801],[100.34305,15.59315],[100.35211,15.59566],[100.35149,15.59744],[100.35573,15.59862],[100.35518,15.59977],[100.36073,15.60562],[100.37055,15.61716],[100.37181,15.6158],[100.37384,15.61432],[100.3748,15.61384],[100.37611,15.61361],[100.37772,15.61251],[100.37872,15.6128],[100.37949,15.61389],[100.37971,15.61477],[100.38303,15.6145],[100.38607,15.61398],[100.38661,15.61441],[100.38859,15.61312],[100.39483,15.61083],[100.39547,15.61046],[100.39568,15.60996],[100.39765,15.60932],[100.3977,15.6089],[100.39847,15.60864],[100.40083,15.60792],[100.40253,15.60774],[100.40401,15.60828],[100.4054,15.60821],[100.40611,15.62197],[100.40774,15.63008],[100.4085,15.62992],[100.40988,15.62912],[100.41075,15.63197],[100.41164,15.63333],[100.4123,15.63327],[100.41318,15.63503],[100.41921,15.63487],[100.42281,15.63537],[100.4249,15.63532]]]}},{"type":"Feature","properties":{"code":"TH600804","name":"สายลำโพง","name_en":"Sai Lamphong","district":"ท่าตะโก","area_km2":89.9,"in_existing":false},"geometry":{"type":"Polygon","coordinates":[[[100.47876,15.81564],[100.4846,15.81425],[100.48527,15.8121],[100.4864,15.80592],[100.48679,15.79555],[100.48798,15.79335],[100.48858,15.79266],[100.49082,15.79122],[100.49655,15.78608],[100.50035,15.78676],[100.50352,15.78648],[100.50472,15.78573],[100.50785,15.78093],[100.51158,15.77382],[100.5135,15.77157],[100.51701,15.76817],[100.51824,15.76367],[100.52227,15.75898],[100.52347,15.75621],[100.52523,15.75459],[100.52853,15.75311],[100.53025,15.75015],[100.53152,15.74925],[100.53349,15.74857],[100.53705,15.74808],[100.53994,15.7473],[100.54004,15.74673],[100.54023,15.74666],[100.54052,15.74733],[100.54086,15.74719],[100.54103,15.74747],[100.54128,15.74726],[100.54155,15.74733],[100.54131,15.74802],[100.5415,15.74839],[100.54171,15.74802],[100.54232,15.74801],[100.54229,15.74852],[100.54342,15.74877],[100.54372,15.74947],[100.54411,15.74965],[100.54432,15.74967],[100.54437,15.7493],[100.54479,15.74904],[100.54506,15.74936],[100.54527,15.74931],[100.54549,15.74858],[100.54571,15.74889],[100.54649,15.74885],[100.54673,15.74932],[100.54705,15.74902],[100.54755,15.74922],[100.5475,15.7498],[100.54807,15.74946],[100.54836,15.74979],[100.54903,15.74955],[100.54896,15.75008],[100.54915,15.75019],[100.54966,15.75002],[100.55024,15.75026],[100.55078,15.75009],[100.55075,15.75092],[100.55041,15.75141],[100.55074,15.75132],[100.55123,15.75156],[100.55185,15.75129],[100.55203,15.75185],[100.55237,15.75164],[100.55262,15.75202],[100.55283,15.75162],[100.55332,15.75163],[100.55348,15.75195],[100.55402,15.75223],[100.55441,15.75211],[100.55453,15.75148],[100.55541,15.7509],[100.55608,15.75154],[100.55646,15.75134],[100.55684,15.7516],[100.55763,15.75123],[100.55756,15.7518],[100.55772,15.75195],[100.55885,15.75131],[100.55971,15.75171],[100.56068,15.75155],[100.56212,15.75084],[100.56219,15.75024],[100.56258,15.75054],[100.56278,15.75],[100.56322,15.7503],[100.56402,15.74988],[100.5662,15.75191],[100.56661,15.75351],[100.56816,15.75387],[100.56804,15.75501],[100.5689,15.75518],[100.56951,15.75504],[100.57006,15.75553],[100.56981,15.75631],[100.56991,15.75676],[100.57074,15.75651],[100.57296,15.75776],[100.57553,15.75784],[100.5768,15.75717],[100.57787,15.75736],[100.57807,15.75701],[100.57917,15.75658],[100.58042,15.75672],[100.58076,15.75636],[100.58117,15.75635],[100.58381,15.75707],[100.58622,15.75802],[100.58655,15.75845],[100.58665,15.7593],[100.58713,15.76024],[100.58822,15.76048],[100.59215,15.75957],[100.59356,15.75863],[100.59292,15.75644],[100.59165,15.75654],[100.59065,15.75636],[100.59122,15.75586],[100.59129,15.75527],[100.5903,15.75446],[100.58984,15.75298],[100.5901,15.75265],[100.59024,15.75138],[100.58958,15.75148],[100.58949,15.7509],[100.5891,15.75043],[100.58914,15.74999],[100.58894,15.7498],[100.58833,15.74982],[100.58819,15.74935],[100.58785,15.74939],[100.58783,15.74963],[100.58703,15.74968],[100.5875,15.74925],[100.58678,15.74916],[100.58659,15.74845],[100.58539,15.74809],[100.58446,15.74849],[100.58398,15.74808],[100.58342,15.74828],[100.58319,15.74806],[100.58334,15.74773],[100.58284,15.74753],[100.58286,15.7471],[100.58257,15.74755],[100.58215,15.74745],[100.58215,15.74692],[100.58183,15.74673],[100.58142,15.7469],[100.58092,15.74633],[100.57999,15.74656],[100.57933,15.74745],[100.57889,15.74724],[100.57832,15.74752],[100.5779,15.74746],[100.57795,15.74672],[100.57772,15.74639],[100.57724,15.74652],[100.5772,15.74696],[100.57687,15.74728],[100.57615,15.74579],[100.57588,15.74568],[100.57606,15.74541],[100.57473,15.74527],[100.57457,15.74476],[100.57415,15.74459],[100.57453,15.74391],[100.5745,15.74347],[100.57426,15.74347],[100.57333,15.74443],[100.57292,15.74387],[100.57305,15.74347],[100.57264,15.7431],[100.57265,15.74273],[100.57187,15.74235],[100.57204,15.74134],[100.57151,15.74128],[100.57144,15.74103],[100.57281,15.74043],[100.57256,15.7396],[100.57232,15.73958],[100.57195,15.74024],[100.57138,15.74013],[100.57146,15.73917],[100.5712,15.73903],[100.57096,15.73918],[100.57023,15.73834],[100.56974,15.73953],[100.56896,15.73897],[100.56923,15.73846],[100.56907,15.7383],[100.56852,15.73818],[100.56846,15.73884],[100.5682,15.73891],[100.56813,15.73837],[100.56771,15.73815],[100.56782,15.73769],[100.56757,15.73712],[100.56719,15.73767],[100.56689,15.73773],[100.56686,15.73701],[100.56598,15.73709],[100.56563,15.7365],[100.56523,15.73649],[100.5651,15.737],[100.56456,15.73689],[100.56425,15.7376],[100.56305,15.73791],[100.56292,15.73768],[100.56313,15.73702],[100.56281,15.73676],[100.56284,15.73632],[100.56232,15.73662],[100.56179,15.73586],[100.56128,15.7365],[100.56103,15.73645],[100.5611,15.73592],[100.56081,15.73552],[100.56103,15.73475],[100.56046,15.73421],[100.5606,15.73367],[100.56017,15.73302],[100.55936,15.73268],[100.55964,15.73221],[100.55787,15.73227],[100.55758,15.73085],[100.55701,15.73102],[100.55632,15.73038],[100.55659,15.72966],[100.55604,15.72952],[100.55574,15.73001],[100.55517,15.72981],[100.55513,15.7301],[100.55465,15.73012],[100.55454,15.73044],[100.55423,15.73049],[100.55384,15.73027],[100.55395,15.72979],[100.55312,15.7298],[100.55248,15.73028],[100.55298,15.73071],[100.55251,15.73129],[100.55206,15.73087],[100.55148,15.73093],[100.55143,15.73139],[100.55081,15.7318],[100.55122,15.73193],[100.55128,15.73254],[100.55184,15.73265],[100.55205,15.73307],[100.55115,15.73421],[100.5507,15.73356],[100.55031,15.73399],[100.55022,15.73343],[100.54966,15.73347],[100.54941,15.73299],[100.54869,15.73343],[100.54827,15.73275],[100.54776,15.73288],[100.54805,15.7335],[100.5479,15.73374],[100.54745,15.73359],[100.54719,15.73323],[100.54673,15.73335],[100.54621,15.73217],[100.54558,15.73248],[100.54591,15.73304],[100.54522,15.73337],[100.54481,15.73333],[100.54413,15.73278],[100.54374,15.73324],[100.54367,15.73288],[100.54411,15.73232],[100.54413,15.73174],[100.54323,15.73172],[100.54286,15.73138],[100.54161,15.73157],[100.54163,15.73091],[100.54212,15.73064],[100.54103,15.73001],[100.54104,15.73052],[100.54072,15.73059],[100.54026,15.73],[100.53983,15.72981],[100.53977,15.73066],[100.53908,15.73017],[100.53872,15.73074],[100.53743,15.73017],[100.53729,15.73088],[100.53686,15.72983],[100.53654,15.73038],[100.53602,15.73013],[100.53565,15.73041],[100.53561,15.72984],[100.53515,15.73005],[100.53501,15.72988],[100.53324,15.72585],[100.53036,15.723],[100.52744,15.71934],[100.52644,15.71905],[100.52491,15.71911],[100.51942,15.71998],[100.51941,15.72029],[100.51638,15.72091],[100.51602,15.72406],[100.51622,15.72462],[100.51668,15.72467],[100.51672,15.72511],[100.51713,15.72549],[100.51678,15.72598],[100.51678,15.72653],[100.51793,15.72622],[100.51798,15.72709],[100.51857,15.72757],[100.51936,15.72765],[100.51979,15.72814],[100.51937,15.7285],[100.51653,15.72953],[100.51625,15.73248],[100.51394,15.73244],[100.51371,15.73341],[100.50889,15.73184],[100.50334,15.73058],[100.5018,15.72984],[100.50129,15.73064],[100.50137,15.73185],[100.50115,15.73251],[100.49926,15.73341],[100.49847,15.73433],[100.49703,15.73539],[100.49034,15.73936],[100.49048,15.7439],[100.48977,15.74385],[100.48347,15.74173],[100.46975,15.73615],[100.46517,15.73465],[100.46295,15.73323],[100.45699,15.73903],[100.45287,15.74405],[100.45045,15.74588],[100.44219,15.74585],[100.43793,15.74463],[100.43255,15.74252],[100.42887,15.74224],[100.42796,15.74303],[100.42739,15.74304],[100.42633,15.74455],[100.42322,15.74734],[100.42286,15.7479],[100.42156,15.75103],[100.41938,15.75741],[100.42157,15.75778],[100.42255,15.75824],[100.42279,15.7589],[100.42227,15.76095],[100.42303,15.76167],[100.42282,15.7649],[100.42079,15.76567],[100.42167,15.76726],[100.4211,15.76753],[100.4204,15.7712],[100.42291,15.77079],[100.42418,15.77519],[100.4253,15.77518],[100.42598,15.77687],[100.42793,15.77647],[100.42842,15.77779],[100.42953,15.7792],[100.42983,15.78006],[100.43181,15.78252],[100.43223,15.7827],[100.4336,15.78512],[100.43379,15.78576],[100.43354,15.78584],[100.43356,15.78612],[100.4342,15.78859],[100.43882,15.8036],[100.44039,15.83132],[100.44127,15.83172],[100.44371,15.83152],[100.44644,15.83103],[100.44965,15.82982],[100.4536,15.82893],[100.46693,15.82755],[100.4696,15.82703],[100.46874,15.82439],[100.46843,15.8222],[100.46719,15.81803],[100.47202,15.81726],[100.47435,15.81653],[100.47521,15.81582],[100.47623,15.81606],[100.47774,15.81607],[100.47876,15.81564]]]}},{"type":"Feature","properties":{"code":"TH600805","name":"วังมหากร","name_en":"Wang Mahakon","district":"ท่าตะโก","area_km2":101.5,"in_existing":false},"geometry":{"type":"Polygon","coordinates":[[[100.30057,15.69354],[100.30057,15.68764],[100.30123,15.68724],[100.30394,15.68692],[100.30571,15.68699],[100.30809,15.68796],[100.30981,15.68971],[100.31101,15.69041],[100.31437,15.68901],[100.31586,15.68783],[100.31804,15.68684],[100.31871,15.68604],[100.31902,15.68447],[100.31968,15.68381],[100.32059,15.68373],[100.32062,15.68322],[100.32088,15.68306],[100.32128,15.68306],[100.3216,15.68363],[100.323,15.6838],[100.3275,15.68497],[100.33394,15.68592],[100.33505,15.68062],[100.33535,15.68076],[100.33679,15.6795],[100.33723,15.67981],[100.33779,15.67988],[100.33997,15.67898],[100.34784,15.67829],[100.34973,15.67862],[100.34985,15.68088],[100.35003,15.68104],[100.35587,15.6809],[100.35895,15.68103],[100.36235,15.6816],[100.36303,15.68137],[100.3645,15.68181],[100.36585,15.68275],[100.3672,15.68213],[100.36808,15.68254],[100.37006,15.68581],[100.37172,15.68535],[100.37213,15.6844],[100.37305,15.68433],[100.37365,15.68578],[100.37409,15.68592],[100.37501,15.68574],[100.37597,15.68683],[100.37796,15.68732],[100.37813,15.68816],[100.37747,15.68952],[100.37766,15.68997],[100.37804,15.69012],[100.37967,15.68865],[100.38096,15.68705],[100.38186,15.68717],[100.38341,15.6868],[100.38335,15.68431],[100.38528,15.68429],[100.38554,15.68296],[100.38625,15.68276],[100.38632,15.68216],[100.38877,15.68184],[100.39225,15.6823],[100.40223,15.68147],[100.40193,15.67892],[100.40375,15.6784],[100.40482,15.67738],[100.40462,15.67567],[100.40797,15.67528],[100.40809,15.66733],[100.41036,15.66729],[100.41064,15.6678],[100.41234,15.66749],[100.41162,15.6659],[100.41171,15.66553],[100.41643,15.65806],[100.41866,15.65724],[100.41749,15.65397],[100.41689,15.64795],[100.4172,15.64492],[100.41662,15.64417],[100.41745,15.64338],[100.41783,15.64243],[100.42072,15.64167],[100.42479,15.63957],[100.43001,15.63533],[100.42331,15.63539],[100.41893,15.63486],[100.41318,15.63503],[100.4123,15.63327],[100.41164,15.63333],[100.41075,15.63197],[100.40988,15.62912],[100.4085,15.62992],[100.40774,15.63008],[100.40611,15.62197],[100.4054,15.60821],[100.40401,15.60828],[100.40253,15.60774],[100.40083,15.60792],[100.39847,15.60864],[100.3977,15.6089],[100.39765,15.60932],[100.39568,15.60996],[100.39547,15.61046],[100.39483,15.61083],[100.38859,15.61312],[100.38661,15.61441],[100.38607,15.61398],[100.38303,15.6145],[100.37971,15.61477],[100.37949,15.61389],[100.37872,15.6128],[100.37772,15.61251],[100.37611,15.61361],[100.3748,15.61384],[100.37384,15.61432],[100.37181,15.6158],[100.37055,15.61716],[100.36073,15.60562],[100.35518,15.59977],[100.35573,15.59862],[100.35149,15.59744],[100.35211,15.59566],[100.34305,15.59315],[100.30885,15.6329],[100.30746,15.63355],[100.29635,15.63418],[100.29637,15.63677],[100.29745,15.64258],[100.29644,15.64291],[100.29682,15.64498],[100.2947,15.64492],[100.29454,15.64553],[100.29496,15.65321],[100.29539,15.65534],[100.28688,15.65588],[100.28677,15.65605],[100.28702,15.65772],[100.28949,15.66503],[100.28979,15.67224],[100.28901,15.67673],[100.28822,15.67692],[100.2883,15.67838],[100.2895,15.68293],[100.28946,15.68716],[100.28896,15.69429],[100.2963,15.6929],[100.2982,15.69299],[100.30057,15.69354]]]}},{"type":"Feature","properties":{"code":"TH600806","name":"ดอนคา","name_en":"Don Kha","district":"ท่าตะโก","area_km2":111.3,"in_existing":false},"geometry":{"type":"Polygon","coordinates":[[[100.59693,15.74311],[100.59752,15.74272],[100.59808,15.74277],[100.5985,15.74151],[100.59874,15.74158],[100.5989,15.74196],[100.59962,15.74175],[100.60004,15.74139],[100.60001,15.7409],[100.60032,15.74069],[100.60115,15.74054],[100.60152,15.74022],[100.602,15.7404],[100.60309,15.74025],[100.60373,15.73937],[100.60427,15.73943],[100.60541,15.73894],[100.60595,15.73973],[100.60611,15.73908],[100.60635,15.73895],[100.60803,15.73954],[100.61008,15.73913],[100.61053,15.7403],[100.61113,15.74058],[100.61122,15.74084],[100.61158,15.74085],[100.61181,15.74146],[100.61237,15.74159],[100.61214,15.74182],[100.61224,15.74204],[100.61252,15.74213],[100.61284,15.74191],[100.61333,15.7423],[100.61526,15.74113],[100.61555,15.74064],[100.61636,15.741],[100.61642,15.74064],[100.61674,15.74078],[100.61792,15.7406],[100.61501,15.73762],[100.61152,15.73526],[100.60715,15.72953],[100.60098,15.72282],[100.59582,15.71623],[100.59231,15.71082],[100.58909,15.70653],[100.58164,15.69396],[100.57778,15.68856],[100.56815,15.67315],[100.5668,15.67034],[100.56444,15.66623],[100.55948,15.65568],[100.55639,15.64741],[100.55217,15.63088],[100.55087,15.6267],[100.55051,15.6247],[100.55034,15.61933],[100.54993,15.61663],[100.54907,15.61335],[100.54875,15.61322],[100.54861,15.61259],[100.54768,15.61291],[100.54731,15.61249],[100.54646,15.61268],[100.54571,15.61234],[100.54376,15.61434],[100.5417,15.61499],[100.54155,15.61535],[100.54182,15.61744],[100.54086,15.61817],[100.5405,15.61881],[100.53996,15.6189],[100.53966,15.61941],[100.53907,15.61953],[100.53816,15.61925],[100.53802,15.61995],[100.53754,15.62036],[100.53805,15.62098],[100.53789,15.62141],[100.53659,15.62199],[100.53652,15.62149],[100.53629,15.62143],[100.53584,15.62217],[100.53507,15.62182],[100.53461,15.62253],[100.53396,15.62239],[100.53406,15.62319],[100.53335,15.62327],[100.53344,15.62413],[100.53291,15.62455],[100.5334,15.62538],[100.53298,15.62567],[100.53286,15.62633],[100.5313,15.62683],[100.53072,15.62807],[100.52995,15.62802],[100.52991,15.6272],[100.52925,15.62703],[100.52895,15.62791],[100.52826,15.62807],[100.5268,15.62899],[100.52628,15.6289],[100.52591,15.62921],[100.5257,15.62901],[100.525,15.629],[100.52476,15.6283],[100.52435,15.62836],[100.52397,15.62814],[100.52291,15.6253],[100.51975,15.62024],[100.51947,15.61896],[100.51897,15.61897],[100.5188,15.61942],[100.51774,15.61919],[100.51657,15.61839],[100.51635,15.61782],[100.51596,15.61787],[100.51559,15.61834],[100.51502,15.61791],[100.51451,15.61797],[100.51426,15.61751],[100.51374,15.61844],[100.51334,15.618],[100.51295,15.61799],[100.51279,15.61862],[100.51213,15.6186],[100.51149,15.61927],[100.50994,15.6196],[100.50966,15.62099],[100.50869,15.62067],[100.50805,15.62102],[100.50645,15.62024],[100.50618,15.62049],[100.50592,15.62146],[100.50361,15.62136],[100.50422,15.62348],[100.50284,15.62398],[100.50172,15.62473],[100.50297,15.62942],[100.50316,15.63139],[100.50258,15.63174],[100.50072,15.6318],[100.50013,15.63218],[100.49973,15.63296],[100.49837,15.63335],[100.49831,15.63406],[100.49728,15.63513],[100.49695,15.63578],[100.49592,15.63622],[100.49539,15.6371],[100.49419,15.63803],[100.49407,15.63928],[100.49434,15.64032],[100.49369,15.64049],[100.49363,15.64142],[100.49391,15.64247],[100.4927,15.64985],[100.49204,15.65019],[100.49084,15.65014],[100.4896,15.65093],[100.48767,15.65034],[100.48726,15.65043],[100.48495,15.65327],[100.48083,15.6549],[100.47978,15.65667],[100.47933,15.65702],[100.47855,15.65687],[100.47666,15.65547],[100.47566,15.65539],[100.47401,15.66035],[100.46948,15.67713],[100.47701,15.6768],[100.47924,15.67685],[100.48147,15.67725],[100.48302,15.67692],[100.48498,15.67768],[100.48726,15.67822],[100.48686,15.68168],[100.48726,15.68468],[100.48687,15.69342],[100.48702,15.6975],[100.48659,15.69959],[100.48714,15.70108],[100.48717,15.70263],[100.48754,15.7041],[100.48744,15.70485],[100.48847,15.70524],[100.48841,15.70637],[100.48901,15.70673],[100.49045,15.70669],[100.49071,15.70638],[100.49118,15.70641],[100.49138,15.70602],[100.49235,15.70551],[100.49335,15.70537],[100.49374,15.70472],[100.49472,15.70523],[100.49503,15.7048],[100.49553,15.70486],[100.49586,15.70426],[100.49645,15.70404],[100.49745,15.70439],[100.49767,15.70493],[100.49849,15.70524],[100.49893,15.70573],[100.49887,15.7062],[100.49927,15.70632],[100.49937,15.70662],[100.50041,15.70692],[100.50086,15.70666],[100.50121,15.70673],[100.50236,15.70938],[100.50341,15.71019],[100.50362,15.7107],[100.50415,15.71079],[100.50393,15.7116],[100.50437,15.71183],[100.50433,15.71224],[100.50474,15.71238],[100.50477,15.71262],[100.50466,15.71284],[100.50425,15.71274],[100.50407,15.71374],[100.50465,15.71405],[100.50511,15.714],[100.50538,15.71455],[100.50599,15.71446],[100.50589,15.71584],[100.5063,15.71614],[100.50699,15.71598],[100.50682,15.71689],[100.5071,15.71686],[100.50748,15.71643],[100.50779,15.71648],[100.50713,15.71749],[100.50792,15.71736],[100.50808,15.71825],[100.50884,15.71855],[100.50833,15.71907],[100.50773,15.7193],[100.50789,15.71977],[100.50858,15.71938],[100.50892,15.7197],[100.50882,15.71992],[100.50814,15.71996],[100.50805,15.72066],[100.50833,15.72072],[100.50862,15.72018],[100.50907,15.72039],[100.50933,15.7208],[100.51003,15.72105],[100.50948,15.72147],[100.50957,15.72196],[100.51054,15.72185],[100.51042,15.72246],[100.51102,15.72275],[100.51113,15.7231],[100.51151,15.72275],[100.51178,15.72278],[100.51165,15.72344],[100.51204,15.72367],[100.51181,15.72434],[100.51202,15.72461],[100.51237,15.72456],[100.51265,15.72405],[100.51339,15.72413],[100.51367,15.72459],[100.51434,15.724],[100.5159,15.72376],[100.5161,15.72405],[100.5164,15.7209],[100.51818,15.72067],[100.51941,15.72029],[100.51942,15.71998],[100.52491,15.71911],[100.52644,15.71905],[100.52744,15.71934],[100.53036,15.723],[100.53324,15.72585],[100.53501,15.72988],[100.53515,15.73005],[100.53561,15.72984],[100.53565,15.73041],[100.53602,15.73013],[100.53654,15.73038],[100.53686,15.72983],[100.53729,15.73088],[100.53743,15.73017],[100.53872,15.73074],[100.53908,15.73017],[100.53977,15.73066],[100.53983,15.72981],[100.54026,15.73],[100.54072,15.73059],[100.54104,15.73052],[100.54103,15.73001],[100.54212,15.73064],[100.54163,15.73091],[100.54161,15.73157],[100.54286,15.73138],[100.54323,15.73172],[100.54413,15.73174],[100.54411,15.73232],[100.54367,15.73288],[100.54374,15.73324],[100.54413,15.73278],[100.54481,15.73333],[100.54522,15.73337],[100.54591,15.73304],[100.54558,15.73248],[100.54621,15.73217],[100.54673,15.73335],[100.54719,15.73323],[100.54745,15.73359],[100.5479,15.73374],[100.54805,15.7335],[100.54776,15.73288],[100.54827,15.73275],[100.54869,15.73343],[100.54941,15.73299],[100.54966,15.73347],[100.55022,15.73343],[100.55031,15.73399],[100.5507,15.73356],[100.55115,15.73421],[100.55205,15.73307],[100.55184,15.73265],[100.55128,15.73254],[100.55122,15.73193],[100.55081,15.7318],[100.55143,15.73139],[100.55148,15.73093],[100.55206,15.73087],[100.55251,15.73129],[100.55298,15.73071],[100.55248,15.73028],[100.55312,15.7298],[100.55395,15.72979],[100.55384,15.73027],[100.55423,15.73049],[100.55454,15.73044],[100.55465,15.73012],[100.55513,15.7301],[100.55517,15.72981],[100.55574,15.73001],[100.55604,15.72952],[100.55659,15.72966],[100.55632,15.73038],[100.55701,15.73102],[100.55758,15.73085],[100.55787,15.73227],[100.55964,15.73221],[100.55936,15.73268],[100.56017,15.73302],[100.5606,15.73367],[100.56046,15.73421],[100.56103,15.73475],[100.56081,15.73552],[100.5611,15.73592],[100.56103,15.73645],[100.56128,15.7365],[100.56179,15.73586],[100.56232,15.73662],[100.56284,15.73632],[100.56281,15.73676],[100.56313,15.73702],[100.56292,15.73768],[100.56305,15.73791],[100.56425,15.7376],[100.56456,15.73689],[100.5651,15.737],[100.56523,15.73649],[100.56563,15.7365],[100.56598,15.73709],[100.56686,15.73701],[100.56689,15.73773],[100.56719,15.73767],[100.56757,15.73712],[100.56782,15.73769],[100.56771,15.73815],[100.56813,15.73837],[100.5682,15.73891],[100.56846,15.73884],[100.56852,15.73818],[100.56907,15.7383],[100.56923,15.73846],[100.56896,15.73897],[100.56974,15.73953],[100.57023,15.73834],[100.57096,15.73918],[100.5712,15.73903],[100.57146,15.73917],[100.57138,15.74013],[100.57195,15.74024],[100.57232,15.73958],[100.57256,15.7396],[100.57281,15.74043],[100.57144,15.74103],[100.57151,15.74128],[100.57204,15.74134],[100.57187,15.74235],[100.57265,15.74273],[100.57264,15.7431],[100.57305,15.74347],[100.57292,15.74387],[100.57333,15.74443],[100.57426,15.74347],[100.5745,15.74347],[100.57453,15.74391],[100.57415,15.74459],[100.57457,15.74476],[100.57473,15.74527],[100.57606,15.74541],[100.57588,15.74568],[100.57615,15.74579],[100.5769,15.7473],[100.57724,15.74652],[100.57772,15.74639],[100.57795,15.74672],[100.5779,15.74746],[100.57832,15.74752],[100.57889,15.74724],[100.57933,15.74745],[100.57999,15.74656],[100.58092,15.74633],[100.58142,15.7469],[100.58183,15.74673],[100.58215,15.74692],[100.58215,15.74745],[100.58257,15.74755],[100.58286,15.7471],[100.58284,15.74753],[100.58334,15.74773],[100.58319,15.74806],[100.58342,15.74828],[100.58398,15.74808],[100.58446,15.74849],[100.58508,15.7481],[100.58582,15.74817],[100.5867,15.74854],[100.58686,15.74922],[100.58748,15.74921],[100.58746,15.7494],[100.58706,15.74948],[100.58705,15.7497],[100.58783,15.74963],[100.58785,15.74939],[100.58816,15.74935],[100.58836,15.74984],[100.59021,15.74997],[100.59059,15.75012],[100.59064,15.75043],[100.59105,15.75041],[100.59148,15.74988],[100.59195,15.75005],[100.59209,15.74947],[100.59247,15.74962],[100.59174,15.7486],[100.59228,15.7485],[100.59221,15.74791],[100.59283,15.7475],[100.59294,15.74688],[100.59321,15.74699],[100.59348,15.74673],[100.59364,15.74711],[100.59418,15.74675],[100.59418,15.74637],[100.59455,15.74604],[100.59411,15.74539],[100.59463,15.74542],[100.59504,15.74513],[100.59527,15.74489],[100.59522,15.74443],[100.59606,15.74453],[100.59601,15.74407],[100.59647,15.744],[100.59647,15.74343],[100.59693,15.74311]]]}},{"type":"Feature","properties":{"code":"TH600807","name":"ทำนบ","name_en":"Thamnop","district":"ท่าตะโก","area_km2":60.6,"in_existing":false},"geometry":{"type":"Polygon","coordinates":[[[100.54907,15.61335],[100.54945,15.61326],[100.54955,15.61251],[100.55027,15.61152],[100.55092,15.61123],[100.55172,15.61123],[100.5519,15.61097],[100.55175,15.61036],[100.55269,15.61029],[100.55266,15.60953],[100.55411,15.6086],[100.5543,15.60814],[100.55514,15.60836],[100.55601,15.60796],[100.55601,15.60727],[100.5565,15.60663],[100.55833,15.60669],[100.55947,15.60631],[100.56057,15.60671],[100.56151,15.60575],[100.56168,15.6051],[100.56282,15.60574],[100.56337,15.6063],[100.56598,15.60686],[100.5671,15.60683],[100.56903,15.60627],[100.57158,15.60618],[100.57685,15.60696],[100.57738,15.60019],[100.57862,15.59299],[100.57889,15.5787],[100.57885,15.56381],[100.57719,15.54397],[100.57468,15.53722],[100.57316,15.53415],[100.56772,15.5253],[100.56586,15.52394],[100.56215,15.52387],[100.56068,15.52345],[100.55784,15.52201],[100.5569,15.52134],[100.55604,15.52033],[100.5526,15.51902],[100.54605,15.51874],[100.54433,15.52048],[100.54112,15.51955],[100.53676,15.5187],[100.53367,15.51887],[100.53284,15.5172],[100.52992,15.51626],[100.53002,15.51781],[100.53124,15.51923],[100.53119,15.52031],[100.53133,15.52116],[100.53177,15.52179],[100.53172,15.52278],[100.53228,15.52292],[100.53199,15.52325],[100.53203,15.52381],[100.53238,15.52385],[100.53243,15.52425],[100.53298,15.52439],[100.53302,15.52481],[100.53348,15.52478],[100.53362,15.52496],[100.53315,15.52666],[100.53334,15.527],[100.53318,15.52728],[100.5334,15.52747],[100.53326,15.52782],[100.53298,15.52756],[100.53294,15.52788],[100.53254,15.52809],[100.5329,15.52814],[100.53289,15.52848],[100.53336,15.52847],[100.53347,15.52878],[100.53323,15.52887],[100.53329,15.5291],[100.53392,15.52893],[100.53384,15.52943],[100.53439,15.5294],[100.53451,15.53017],[100.53498,15.5302],[100.53472,15.53067],[100.53508,15.53078],[100.53548,15.5315],[100.53582,15.53131],[100.53664,15.53197],[100.53685,15.53265],[100.53611,15.53319],[100.53672,15.53498],[100.53649,15.53514],[100.53656,15.5354],[100.53703,15.53574],[100.53817,15.53581],[100.53821,15.5362],[100.53865,15.53639],[100.53867,15.5373],[100.53846,15.53748],[100.538,15.53737],[100.53793,15.53768],[100.53748,15.53788],[100.5371,15.53875],[100.53666,15.53909],[100.53653,15.53964],[100.53771,15.54334],[100.53747,15.5439],[100.53731,15.5466],[100.53707,15.54733],[100.53731,15.55379],[100.53935,15.55805],[100.53605,15.55929],[100.54009,15.57006],[100.53844,15.5705],[100.53798,15.56957],[100.53544,15.57037],[100.52945,15.5731],[100.52843,15.57368],[100.52827,15.5741],[100.52522,15.57543],[100.52452,15.5739],[100.52146,15.5735],[100.52011,15.5765],[100.51987,15.57751],[100.51977,15.58024],[100.52026,15.5812],[100.51943,15.58149],[100.52008,15.58523],[100.51684,15.58673],[100.51663,15.58695],[100.51679,15.58741],[100.51597,15.58793],[100.51408,15.58674],[100.51035,15.58593],[100.50837,15.58605],[100.50536,15.58732],[100.50575,15.58823],[100.50383,15.59032],[100.50122,15.59812],[100.50114,15.60028],[100.49962,15.60022],[100.50046,15.60166],[100.50043,15.60284],[100.49749,15.60343],[100.49726,15.60886],[100.49759,15.61101],[100.49855,15.61383],[100.50013,15.61585],[100.50361,15.62136],[100.50592,15.62146],[100.50618,15.62049],[100.50645,15.62024],[100.50805,15.62102],[100.50869,15.62067],[100.50966,15.62099],[100.50994,15.6196],[100.51149,15.61927],[100.51213,15.6186],[100.51279,15.61862],[100.51295,15.61799],[100.51334,15.618],[100.51374,15.61844],[100.51426,15.61751],[100.51451,15.61797],[100.51502,15.61791],[100.51559,15.61834],[100.51596,15.61787],[100.51635,15.61782],[100.51657,15.61839],[100.51774,15.61919],[100.5188,15.61942],[100.51897,15.61897],[100.51947,15.61896],[100.51975,15.62024],[100.52291,15.6253],[100.52397,15.62814],[100.52435,15.62836],[100.52476,15.6283],[100.52496,15.62896],[100.5257,15.62901],[100.52585,15.62922],[100.52628,15.6289],[100.5268,15.62899],[100.52826,15.62807],[100.52888,15.62796],[100.52925,15.62703],[100.52991,15.6272],[100.52995,15.62802],[100.53072,15.62807],[100.5313,15.62683],[100.53286,15.62633],[100.53298,15.62567],[100.5334,15.62538],[100.53291,15.62455],[100.53344,15.62413],[100.53335,15.62327],[100.53406,15.62319],[100.53396,15.62239],[100.53461,15.62253],[100.53507,15.62182],[100.53584,15.62217],[100.53629,15.62143],[100.53652,15.62149],[100.53659,15.62199],[100.53789,15.62141],[100.53805,15.62098],[100.53754,15.62036],[100.53802,15.61995],[100.53816,15.61925],[100.53907,15.61953],[100.53966,15.61941],[100.53996,15.6189],[100.5405,15.61881],[100.54086,15.61817],[100.54182,15.61744],[100.54155,15.61535],[100.54177,15.61494],[100.54376,15.61434],[100.54574,15.61233],[100.54646,15.61268],[100.54731,15.61249],[100.54768,15.61291],[100.54857,15.61257],[100.54875,15.61322],[100.54907,15.61335]]]}},{"type":"Feature","properties":{"code":"TH600808","name":"วังใหญ่","name_en":"Wang Yai","district":"ท่าตะโก","area_km2":58.7,"in_existing":false},"geometry":{"type":"Polygon","coordinates":[[[100.42739,15.74304],[100.42662,15.74213],[100.42605,15.7422],[100.42519,15.74171],[100.42421,15.74205],[100.4235,15.74091],[100.42182,15.7409],[100.4199,15.73979],[100.4198,15.73888],[100.41804,15.73869],[100.41713,15.73783],[100.41563,15.73714],[100.41379,15.73818],[100.41166,15.73839],[100.41196,15.73999],[100.41188,15.7418],[100.41099,15.74205],[100.41046,15.74261],[100.40799,15.74209],[100.40502,15.74204],[100.40489,15.74319],[100.40308,15.74327],[100.40287,15.74283],[100.40196,15.74281],[100.40183,15.7422],[100.40104,15.74227],[100.40075,15.74204],[100.39703,15.74221],[100.39671,15.74227],[100.39682,15.74276],[100.39463,15.74328],[100.3901,15.74386],[100.3896,15.74354],[100.38801,15.74365],[100.38635,15.74418],[100.38567,15.74225],[100.38213,15.74283],[100.38167,15.74252],[100.37814,15.74313],[100.37745,15.74106],[100.37471,15.74182],[100.37196,15.74188],[100.36329,15.74386],[100.36317,15.74909],[100.36269,15.75208],[100.36274,15.76596],[100.36356,15.78393],[100.36197,15.78556],[100.3618,15.78905],[100.36112,15.79353],[100.36168,15.79764],[100.36655,15.79929],[100.36936,15.79964],[100.37235,15.79962],[100.37389,15.7992],[100.37492,15.79927],[100.37713,15.80171],[100.38099,15.80496],[100.38201,15.80607],[100.39083,15.81296],[100.39779,15.81746],[100.40029,15.81763],[100.40086,15.81817],[100.40219,15.82032],[100.40362,15.82113],[100.4047,15.82132],[100.40626,15.82256],[100.40702,15.82271],[100.40706,15.82308],[100.41038,15.82322],[100.4125,15.82289],[100.41313,15.82253],[100.41401,15.82308],[100.41505,15.82324],[100.41591,15.82385],[100.41701,15.82411],[100.41797,15.82504],[100.41878,15.82515],[100.41935,15.82559],[100.4203,15.82503],[100.42305,15.82426],[100.42445,15.82411],[100.4256,15.82427],[100.42638,15.82472],[100.42754,15.82664],[100.42996,15.82753],[100.43077,15.8274],[100.43204,15.82678],[100.43337,15.82777],[100.43446,15.82763],[100.43582,15.82807],[100.43643,15.82862],[100.43726,15.82891],[100.43873,15.83058],[100.44039,15.83132],[100.43882,15.8036],[100.4342,15.78859],[100.43356,15.78612],[100.43354,15.78584],[100.43379,15.78576],[100.4336,15.78512],[100.43223,15.7827],[100.43181,15.78252],[100.42983,15.78006],[100.42953,15.7792],[100.42842,15.77779],[100.42793,15.77647],[100.42598,15.77687],[100.4253,15.77518],[100.42418,15.77519],[100.42291,15.77079],[100.4204,15.7712],[100.4211,15.76753],[100.42167,15.76726],[100.42079,15.76567],[100.42282,15.7649],[100.42303,15.76167],[100.42227,15.76095],[100.42279,15.7589],[100.42255,15.75824],[100.42157,15.75778],[100.41938,15.75741],[100.42156,15.75103],[100.42286,15.7479],[100.42322,15.74734],[100.42633,15.74455],[100.42739,15.74304]]]}},{"type":"Feature","properties":{"code":"TH600809","name":"พนมเศษ","name_en":"Phanom Set","district":"ท่าตะโก","area_km2":62.3,"in_existing":false},"geometry":{"type":"Polygon","coordinates":[[[100.36329,15.74386],[100.36754,15.73893],[100.37041,15.7336],[100.3736,15.72376],[100.37429,15.71978],[100.37607,15.71322],[100.37617,15.71177],[100.37551,15.70413],[100.37439,15.70417],[100.37345,15.68558],[100.37321,15.68443],[100.37213,15.6844],[100.37172,15.68535],[100.37017,15.68584],[100.36971,15.68549],[100.3684,15.68296],[100.36771,15.68229],[100.36686,15.68215],[100.36571,15.68273],[100.3645,15.68181],[100.36362,15.6815],[100.36303,15.68137],[100.36235,15.6816],[100.35868,15.68101],[100.35003,15.68104],[100.34985,15.68088],[100.34973,15.67862],[100.34712,15.67831],[100.33988,15.67899],[100.33779,15.67988],[100.33669,15.67955],[100.33535,15.68076],[100.33505,15.68062],[100.33394,15.68592],[100.3275,15.68497],[100.32151,15.6836],[100.3211,15.68303],[100.32065,15.68317],[100.32056,15.68375],[100.31968,15.68381],[100.31902,15.68447],[100.31871,15.68604],[100.31804,15.68684],[100.31586,15.68783],[100.31437,15.68901],[100.31101,15.69041],[100.30981,15.68971],[100.30809,15.68796],[100.30571,15.68699],[100.30268,15.68702],[100.30123,15.68724],[100.30057,15.68764],[100.30057,15.69354],[100.29957,15.69868],[100.3008,15.7002],[100.30244,15.70355],[100.31096,15.70723],[100.31075,15.70815],[100.3144,15.71702],[100.31573,15.72158],[100.31872,15.72373],[100.32005,15.72547],[100.3221,15.72919],[100.32839,15.74209],[100.3285,15.743],[100.32812,15.74804],[100.32759,15.75019],[100.32506,15.75356],[100.32389,15.75471],[100.32006,15.75723],[100.31801,15.75891],[100.31605,15.7609],[100.31525,15.76201],[100.31433,15.76371],[100.31344,15.76632],[100.31316,15.76915],[100.31354,15.77031],[100.31488,15.77143],[100.318,15.77223],[100.32732,15.7732],[100.3318,15.774],[100.33827,15.77679],[100.33971,15.77777],[100.34841,15.78617],[100.35467,15.79083],[100.36168,15.79764],[100.36112,15.79353],[100.3618,15.78905],[100.36197,15.78556],[100.36356,15.78393],[100.36274,15.76596],[100.36269,15.75208],[100.36317,15.74909],[100.36329,15.74386]]]}},{"type":"Feature","properties":{"code":"TH600810","name":"หนองหลวง","name_en":"Nong Luang","district":"ท่าตะโก","area_km2":105.8,"in_existing":false},"geometry":{"type":"Polygon","coordinates":[[[100.52992,15.51626],[100.53284,15.5172],[100.5337,15.51887],[100.53676,15.5187],[100.54112,15.51955],[100.54433,15.52048],[100.54605,15.51874],[100.54049,15.49906],[100.54199,15.49913],[100.54531,15.49985],[100.54703,15.49966],[100.54928,15.499],[100.54935,15.49764],[100.55394,15.49708],[100.55673,15.49608],[100.55742,15.4956],[100.55707,15.49498],[100.55632,15.49488],[100.5551,15.49191],[100.55533,15.49142],[100.55491,15.49066],[100.55448,15.48904],[100.55458,15.48738],[100.55422,15.48633],[100.55407,15.48466],[100.55318,15.48223],[100.55211,15.48032],[100.55201,15.47876],[100.55111,15.47808],[100.55125,15.47674],[100.5515,15.47667],[100.55174,15.4769],[100.55203,15.47654],[100.55203,15.47593],[100.55168,15.47585],[100.55158,15.47557],[100.55218,15.47512],[100.5526,15.4751],[100.55252,15.47439],[100.55307,15.47497],[100.55393,15.47467],[100.55365,15.47441],[100.5538,15.4739],[100.55347,15.47363],[100.55347,15.47254],[100.55314,15.47233],[100.55307,15.47124],[100.55431,15.47015],[100.55399,15.4695],[100.55406,15.46835],[100.55465,15.46799],[100.55489,15.46749],[100.55559,15.46735],[100.55593,15.46706],[100.55585,15.46615],[100.55658,15.46539],[100.55583,15.46454],[100.55636,15.46362],[100.54494,15.46102],[100.54157,15.46098],[100.53647,15.46005],[100.53166,15.45814],[100.52859,15.45636],[100.52752,15.45536],[100.52,15.4314],[100.52184,15.43075],[100.52397,15.42945],[100.52425,15.42907],[100.52472,15.42738],[100.52759,15.42514],[100.52766,15.42349],[100.52725,15.4217],[100.52645,15.42103],[100.52568,15.41997],[100.526,15.41958],[100.52636,15.41831],[100.52612,15.41715],[100.52494,15.41581],[100.52473,15.41429],[100.52383,15.41218],[100.5226,15.41087],[100.52101,15.40972],[100.51836,15.40836],[100.51597,15.40744],[100.51302,15.40668],[100.51062,15.40678],[100.51002,15.40708],[100.50829,15.40737],[100.50771,15.40802],[100.50734,15.40951],[100.50632,15.41038],[100.50514,15.41095],[100.50468,15.41233],[100.5039,15.41285],[100.50378,15.41366],[100.50428,15.41454],[100.50335,15.41615],[100.50396,15.41644],[100.50371,15.41806],[100.50462,15.41952],[100.50486,15.42094],[100.50443,15.422],[100.50372,15.42291],[100.50323,15.4233],[100.50255,15.42342],[100.50225,15.42386],[100.50246,15.42425],[100.50228,15.42457],[100.5025,15.42516],[100.50238,15.42652],[100.50297,15.4278],[100.50285,15.428],[100.50185,15.42804],[100.50158,15.42862],[100.50181,15.42937],[100.50141,15.42959],[100.50186,15.43018],[100.50142,15.43045],[100.50152,15.43087],[100.5013,15.43114],[100.50172,15.4319],[100.5012,15.43253],[100.50103,15.43368],[100.50125,15.43473],[100.50063,15.43553],[100.50073,15.43589],[100.50118,15.43621],[100.50122,15.4372],[100.50081,15.43782],[100.50118,15.43844],[100.50147,15.43989],[100.50091,15.44034],[100.50035,15.44146],[100.4996,15.44224],[100.49893,15.44181],[100.49818,15.44216],[100.49695,15.4421],[100.4968,15.44254],[100.49551,15.44326],[100.49405,15.44323],[100.49352,15.44416],[100.49265,15.44434],[100.49285,15.44471],[100.49266,15.44518],[100.49306,15.4452],[100.49285,15.44596],[100.49295,15.44649],[100.49273,15.44678],[100.49286,15.44737],[100.49245,15.4475],[100.49224,15.44829],[100.49158,15.44793],[100.49107,15.44837],[100.49053,15.44805],[100.48968,15.44817],[100.48937,15.44864],[100.48981,15.44912],[100.48951,15.44933],[100.48975,15.44989],[100.48939,15.45003],[100.48924,15.45057],[100.48886,15.45066],[100.48897,15.451],[100.48797,15.45157],[100.48761,15.45135],[100.48707,15.45161],[100.48723,15.45212],[100.48686,15.4522],[100.48697,15.45294],[100.48663,15.4533],[100.48704,15.45341],[100.48722,15.45403],[100.48661,15.45454],[100.48746,15.45454],[100.48705,15.45518],[100.48739,15.45527],[100.4877,15.45578],[100.48741,15.45589],[100.48696,15.45661],[100.48784,15.45698],[100.48826,15.45682],[100.48865,15.45754],[100.48828,15.45762],[100.48824,15.45797],[100.48792,15.45807],[100.48782,15.45939],[100.4868,15.4594],[100.48665,15.45968],[100.48599,15.45992],[100.48539,15.45982],[100.48446,15.46068],[100.48376,15.46067],[100.4827,15.46125],[100.48275,15.46219],[100.48242,15.46249],[100.48221,15.46317],[100.48257,15.46325],[100.48272,15.46355],[100.48317,15.46352],[100.48374,15.46427],[100.48363,15.46466],[100.48301,15.46465],[100.48285,15.465],[100.48252,15.46512],[100.48234,15.4659],[100.48265,15.46607],[100.48181,15.46704],[100.48214,15.46786],[100.48268,15.46832],[100.48222,15.46884],[100.48234,15.46941],[100.48205,15.47005],[100.48161,15.47013],[100.48157,15.4707],[100.48103,15.47091],[100.4817,15.47159],[100.48182,15.47464],[100.48173,15.47559],[100.48122,15.47597],[100.48086,15.47717],[100.48118,15.47737],[100.48121,15.47802],[100.48147,15.47839],[100.48071,15.47861],[100.4806,15.47893],[100.48086,15.47966],[100.48223,15.48085],[100.48309,15.48191],[100.48307,15.4823],[100.48241,15.48251],[100.48255,15.48349],[100.48302,15.48441],[100.48414,15.48526],[100.48406,15.48596],[100.48445,15.48659],[100.486,15.48776],[100.48646,15.48782],[100.48752,15.48738],[100.48841,15.4878],[100.48844,15.48909],[100.48903,15.48954],[100.48982,15.48957],[100.49037,15.49015],[100.49027,15.49044],[100.48978,15.49066],[100.48997,15.49179],[100.49076,15.49176],[100.49187,15.49131],[100.49328,15.49147],[100.49487,15.49271],[100.49507,15.49329],[100.49614,15.49435],[100.49699,15.49557],[100.49709,15.49633],[100.4967,15.49735],[100.49715,15.49762],[100.49743,15.49833],[100.49706,15.49926],[100.49718,15.50014],[100.49664,15.5003],[100.49671,15.50062],[100.49636,15.50094],[100.49623,15.5036],[100.4958,15.50563],[100.49486,15.50694],[100.49395,15.50775],[100.48695,15.51259],[100.48092,15.51451],[100.47948,15.51518],[100.47769,15.5162],[100.4753,15.51816],[100.47475,15.51884],[100.4745,15.51959],[100.47441,15.52797],[100.47232,15.53336],[100.47108,15.5351],[100.46922,15.5353],[100.46442,15.53411],[100.4571,15.53127],[100.45361,15.53029],[100.45394,15.53081],[100.45406,15.53184],[100.45447,15.53211],[100.45452,15.53267],[100.45727,15.53431],[100.45836,15.53435],[100.45888,15.53413],[100.45942,15.53439],[100.46043,15.53523],[100.46058,15.53594],[100.46149,15.5364],[100.462,15.53716],[100.4621,15.53953],[100.46306,15.54268],[100.46432,15.54458],[100.46491,15.54456],[100.46562,15.54503],[100.46643,15.54607],[100.46663,15.54782],[100.46619,15.5494],[100.46589,15.55274],[100.46656,15.55371],[100.46667,15.55476],[100.46722,15.55468],[100.46843,15.5552],[100.46871,15.5564],[100.46972,15.5572],[100.47021,15.55817],[100.47075,15.55816],[100.47134,15.55849],[100.47183,15.55921],[100.47287,15.55952],[100.47333,15.56021],[100.47418,15.56037],[100.47478,15.56005],[100.4754,15.56034],[100.47593,15.56184],[100.47714,15.56275],[100.47754,15.56399],[100.47865,15.56358],[100.48006,15.56593],[100.48719,15.56288],[100.488,15.56476],[100.48951,15.57005],[100.49004,15.57096],[100.49038,15.57379],[100.4915,15.57644],[100.49195,15.57683],[100.4924,15.57689],[100.49844,15.58273],[100.49925,15.58457],[100.49967,15.58658],[100.50112,15.58813],[100.50386,15.59027],[100.50575,15.58823],[100.50536,15.58732],[100.50831,15.58606],[100.51057,15.58594],[100.51408,15.58674],[100.51597,15.58793],[100.51679,15.58741],[100.51663,15.58695],[100.51684,15.58673],[100.52008,15.58523],[100.51943,15.58149],[100.52026,15.5812],[100.51977,15.58024],[100.51987,15.57751],[100.52011,15.5765],[100.52146,15.5735],[100.52452,15.5739],[100.52522,15.57543],[100.52827,15.5741],[100.52843,15.57368],[100.52945,15.5731],[100.53544,15.57037],[100.53798,15.56957],[100.53844,15.5705],[100.54009,15.57006],[100.53605,15.55929],[100.53935,15.55805],[100.53731,15.55379],[100.53707,15.54733],[100.53731,15.5466],[100.53747,15.5439],[100.53771,15.54334],[100.53653,15.53964],[100.53666,15.53909],[100.5371,15.53875],[100.53748,15.53788],[100.53793,15.53768],[100.538,15.53737],[100.53846,15.53748],[100.53867,15.5373],[100.53865,15.53639],[100.53821,15.5362],[100.53817,15.53581],[100.53703,15.53574],[100.53656,15.5354],[100.53649,15.53514],[100.53672,15.53498],[100.53611,15.53319],[100.53685,15.53265],[100.53664,15.53197],[100.53582,15.53131],[100.53548,15.5315],[100.53508,15.53078],[100.53472,15.53067],[100.53498,15.5302],[100.53451,15.53017],[100.53439,15.5294],[100.53384,15.52943],[100.53392,15.52893],[100.53329,15.5291],[100.53323,15.52887],[100.53347,15.52878],[100.53336,15.52847],[100.53289,15.52848],[100.5329,15.52814],[100.53254,15.52809],[100.53294,15.52788],[100.53298,15.52756],[100.53326,15.52782],[100.5334,15.52747],[100.53318,15.52728],[100.53334,15.527],[100.53315,15.52666],[100.53362,15.52496],[100.53348,15.52478],[100.53302,15.52481],[100.53298,15.52439],[100.53243,15.52425],[100.53238,15.52385],[100.53203,15.52381],[100.53199,15.52325],[100.53228,15.52292],[100.53172,15.52278],[100.53177,15.52179],[100.53133,15.52116],[100.53119,15.52031],[100.53124,15.51923],[100.53002,15.51781],[100.52992,15.51626]]]}}]}