{"type":"FeatureCollection","features":[{"type":"Feature","properties":{"name":"พื้นที่รับน้ำที่ไหลลงท่าตะโก+ตำบลข้างเคียง","area_km2":3741.0},"geometry":{"type":"Polygon","coordinates":[[[100.45162,15.40673],[100.45068,15.40685],[100.45162,15.40673],[100.45143,15.40455],[100.44967,15.40121],[100.44808,15.40092],[100.44753,15.39984],[100.44602,15.40018],[100.44587,15.39747],[100.44322,15.39605],[100.44486,15.39146],[100.443,15.39202],[100.43695,15.3892],[100.43439,15.3861],[100.4308,15.38605],[100.42517,15.38841],[100.42309,15.38669],[100.41639,15.38539],[100.41009,15.39217],[100.406,15.39282],[100.40356,15.39839],[100.40422,15.40199],[100.40298,15.40555],[100.40062,15.41019],[100.39466,15.41577],[100.39417,15.41719],[100.3959,15.41915],[100.39595,15.42105],[100.3943,15.42158],[100.39402,15.42433],[100.39235,15.42647],[100.39404,15.429],[100.39378,15.4317],[100.39202,15.43812],[100.38913,15.44135],[100.38854,15.44488],[100.38662,15.44714],[100.38553,15.4515],[100.37969,15.4564],[100.37773,15.45668],[100.3689,15.46457],[100.36342,15.46672],[100.36107,15.46893],[100.36104,15.47114],[100.36247,15.47451],[100.36213,15.47613],[100.35939,15.47845],[100.35092,15.47909],[100.34397,15.47813],[100.33964,15.48295],[100.33571,15.48513],[100.33433,15.49005],[100.33321,15.49003],[100.33115,15.49231],[100.33039,15.49634],[100.32913,15.49694],[100.33023,15.49795],[100.33017,15.5022],[100.33134,15.50332],[100.33138,15.50467],[100.33115,15.50835],[100.32889,15.50943],[100.32855,15.51151],[100.32555,15.51147],[100.32113,15.51289],[100.31644,15.50871],[100.31332,15.51063],[100.31037,15.516],[100.30854,15.51718],[100.30686,15.52301],[100.30405,15.52807],[100.30159,15.53036],[100.29987,15.5307],[100.29467,15.53799],[100.29463,15.54067],[100.29578,15.54212],[100.29672,15.54624],[100.29542,15.54909],[100.29669,15.55193],[100.29526,15.55574],[100.29234,15.5543],[100.28974,15.55427],[100.28804,15.55567],[100.27658,15.55573],[100.27768,15.5537],[100.2754,15.55142],[100.27157,15.55412],[100.25831,15.55113],[100.2492,15.54569],[100.2362,15.54104],[100.2348,15.53888],[100.23227,15.53726],[100.22469,15.5365],[100.22166,15.53516],[100.21935,15.53678],[100.21411,15.53547],[100.2124,15.53603],[100.21335,15.53326],[100.21286,15.53138],[100.21128,15.53061],[100.20923,15.53094],[100.20539,15.53389],[100.20272,15.53792],[100.20124,15.53824],[100.19986,15.54118],[100.19824,15.54157],[100.19763,15.54341],[100.19484,15.54458],[100.19689,15.55452],[100.1949,15.55673],[100.1935,15.55671],[100.19267,15.55861],[100.19325,15.56216],[100.18888,15.56628],[100.18461,15.56871],[100.18267,15.57087],[100.18269,15.57273],[100.17946,15.57612],[100.17734,15.5772],[100.17571,15.5769],[100.17327,15.5748],[100.16883,15.5763],[100.16844,15.57748],[100.16343,15.58103],[100.15764,15.58295],[100.15402,15.58301],[100.14878,15.58019],[100.14075,15.58308],[100.13883,15.58599],[100.1397,15.5901],[100.13904,15.59263],[100.14134,15.59603],[100.14309,15.59714],[100.15121,15.5979],[100.15879,15.6022],[100.15919,15.60592],[100.16359,15.60919],[100.16527,15.61191],[100.16484,15.61459],[100.16636,15.61939],[100.1684,15.62192],[100.1684,15.62384],[100.17123,15.62503],[100.16758,15.62553],[100.16692,15.62746],[100.16931,15.62953],[100.16923,15.63456],[100.17158,15.63711],[100.17299,15.64144],[100.17663,15.64141],[100.17586,15.64298],[100.1775,15.64556],[100.17612,15.64774],[100.17747,15.65024],[100.17757,15.65383],[100.17592,15.65637],[100.17245,15.67116],[100.17652,15.67359],[100.17575,15.68154],[100.17775,15.68779],[100.17692,15.69377],[100.17466,15.69939],[100.17593,15.70191],[100.18041,15.70513],[100.1829,15.70485],[100.19263,15.69938],[100.19557,15.70044],[100.19771,15.69941],[100.23266,15.69859],[100.23655,15.70238],[100.24005,15.69984],[100.24708,15.69758],[100.26639,15.69747],[100.26974,15.69446],[100.27449,15.69417],[100.27616,15.69253],[100.27615,15.69117],[100.27445,15.68766],[100.27079,15.6847],[100.26492,15.68554],[100.26323,15.68284],[100.2632,15.67877],[100.26151,15.67743],[100.26177,15.6739],[100.26539,15.67063],[100.26537,15.66683],[100.26424,15.66521],[100.26423,15.66331],[100.26812,15.65976],[100.26895,15.65759],[100.27007,15.65758],[100.2802,15.66674],[100.2872,15.6667],[100.28886,15.6648],[100.29026,15.66479],[100.29111,15.66587],[100.29391,15.66666],[100.29421,15.6691],[100.29644,15.66855],[100.29727,15.66599],[100.29867,15.66718],[100.29897,15.66935],[100.29981,15.66934],[100.30104,15.66573],[100.30372,15.66823],[100.30318,15.67176],[100.30458,15.6723],[100.30611,15.67004],[100.30963,15.67308],[100.31048,15.67497],[100.31215,15.67442],[100.31214,15.67198],[100.30933,15.6701],[100.31016,15.66819],[100.31127,15.66819],[100.31241,15.67035],[100.31464,15.66887],[100.31633,15.6706],[100.31773,15.67059],[100.31659,15.66843],[100.31827,15.66733],[100.32079,15.66786],[100.32287,15.66452],[100.32385,15.6654],[100.32387,15.66784],[100.32108,15.66921],[100.32109,15.67138],[100.32388,15.67001],[100.32446,15.67299],[100.32557,15.67217],[100.33229,15.67267],[100.33368,15.67076],[100.3348,15.67076],[100.33705,15.67264],[100.33735,15.67535],[100.33876,15.67697],[100.34293,15.67342],[100.35246,15.67417],[100.35384,15.672],[100.35215,15.67092],[100.35214,15.66902],[100.35606,15.669],[100.35466,15.66819],[100.35379,15.66495],[100.35603,15.66385],[100.35657,15.66168],[100.36048,15.65975],[100.36133,15.66165],[100.36301,15.66191],[100.36468,15.66135],[100.36495,15.65945],[100.36775,15.65971],[100.36859,15.65889],[100.3683,15.65726],[100.36997,15.65644],[100.36884,15.65428],[100.37079,15.65399],[100.37049,15.65074],[100.37133,15.64992],[100.37132,15.64911],[100.36992,15.64885],[100.36991,15.64722],[100.36895,15.64641],[100.36989,15.64424],[100.37324,15.64395],[100.37421,15.64197],[100.37464,15.64367],[100.37632,15.64338],[100.37716,15.64419],[100.37717,15.64582],[100.38053,15.64553],[100.38444,15.64442],[100.38415,15.64279],[100.38526,15.64197],[100.38525,15.63926],[100.38608,15.63844],[100.39223,15.63786],[100.39308,15.63948],[100.39531,15.63828],[100.39599,15.63892],[100.39561,15.64082],[100.39644,15.6399],[100.39896,15.63999],[100.40149,15.6416],[100.40204,15.64024],[100.404,15.64023],[100.40513,15.64185],[100.40989,15.64154],[100.41186,15.64316],[100.4155,15.64422],[100.41719,15.64611],[100.41802,15.6442],[100.42082,15.64473],[100.42418,15.64416],[100.42531,15.64605],[100.42949,15.6444],[100.43118,15.6452],[100.43341,15.64465],[100.43369,15.64356],[100.43248,15.64262],[100.43283,15.64085],[100.43086,15.63897],[100.42971,15.63518],[100.42996,15.63057],[100.43327,15.62431],[100.43522,15.62256],[100.43802,15.62319],[100.44052,15.62074],[100.4419,15.61775],[100.4447,15.61746],[100.44354,15.61204],[100.44605,15.6104],[100.44658,15.60633],[100.44741,15.60551],[100.44937,15.6055],[100.45103,15.60359],[100.45524,15.60491],[100.4604,15.60475],[100.45552,15.60529],[100.45104,15.60386],[100.44937,15.60577],[100.44741,15.60578],[100.44633,15.6104],[100.44382,15.61204],[100.44498,15.61746],[100.4419,15.61802],[100.4408,15.62074],[100.43802,15.62347],[100.43494,15.62294],[100.43355,15.62431],[100.43024,15.63057],[100.42999,15.63518],[100.43114,15.63897],[100.43351,15.64193],[100.43284,15.64248],[100.43408,15.64383],[100.43342,15.64492],[100.43146,15.64558],[100.4295,15.64467],[100.42531,15.64633],[100.42418,15.64443],[100.42082,15.645],[100.41802,15.64447],[100.41734,15.64645],[100.4155,15.64449],[100.41186,15.64343],[100.40989,15.64182],[100.40681,15.64248],[100.40485,15.64185],[100.404,15.6405],[100.40204,15.64051],[100.40121,15.64198],[100.39896,15.64026],[100.39617,15.64028],[100.39575,15.64117],[100.39505,15.64055],[100.3956,15.63865],[100.39308,15.63975],[100.39223,15.63813],[100.38608,15.63871],[100.38554,15.64197],[100.38443,15.64279],[100.38472,15.64442],[100.38053,15.6458],[100.37718,15.64609],[100.37717,15.64446],[100.37632,15.64366],[100.37464,15.64394],[100.37407,15.64231],[100.37352,15.64394],[100.36989,15.64451],[100.36934,15.64614],[100.3702,15.64885],[100.37132,15.64884],[100.37161,15.64992],[100.37077,15.65074],[100.37118,15.65372],[100.36912,15.65428],[100.37025,15.65644],[100.36858,15.65726],[100.36887,15.65889],[100.36775,15.65998],[100.36495,15.65973],[100.36469,15.66162],[100.36301,15.66218],[100.36133,15.66192],[100.36048,15.66002],[100.35657,15.66195],[100.35631,15.66385],[100.35407,15.66494],[100.35493,15.66819],[100.35645,15.66873],[100.35578,15.66954],[100.35242,15.66902],[100.35243,15.67092],[100.35423,15.67226],[100.35246,15.67445],[100.34294,15.67369],[100.33904,15.67735],[100.33707,15.67535],[100.33677,15.67264],[100.3348,15.67103],[100.33368,15.67104],[100.3323,15.67294],[100.32558,15.67244],[100.32474,15.67337],[100.32361,15.67218],[100.32388,15.67028],[100.32081,15.67138],[100.3208,15.66922],[100.32359,15.66784],[100.32357,15.6654],[100.32273,15.66487],[100.32079,15.66813],[100.31827,15.6676],[100.31687,15.66843],[100.31773,15.67086],[100.31633,15.67087],[100.31492,15.66925],[100.31241,15.67062],[100.31043,15.66819],[100.30961,15.6701],[100.31242,15.67198],[100.31243,15.67442],[100.31048,15.67524],[100.30935,15.67308],[100.30625,15.67039],[100.30459,15.67257],[100.3029,15.67176],[100.30344,15.66823],[100.30119,15.66608],[100.29981,15.66961],[100.29869,15.66935],[100.29755,15.66637],[100.29589,15.66936],[100.29421,15.66937],[100.29363,15.66667],[100.29111,15.66614],[100.29026,15.66506],[100.28886,15.66507],[100.2872,15.66697],[100.2802,15.66702],[100.27007,15.65786],[100.26867,15.65813],[100.2684,15.65976],[100.2645,15.66331],[100.26452,15.66521],[100.26565,15.66683],[100.26567,15.67063],[100.26178,15.67472],[100.26179,15.67743],[100.26348,15.67877],[100.26351,15.68284],[100.26492,15.68527],[100.27079,15.68443],[100.27248,15.6855],[100.27473,15.68766],[100.27644,15.69253],[100.27449,15.69444],[100.26974,15.69474],[100.2664,15.69774],[100.24708,15.69785],[100.24188,15.7093],[100.23605,15.71702],[100.22863,15.72051],[100.22277,15.7284],[100.22447,15.73215],[100.22336,15.73287],[100.224,15.73465],[100.22714,15.73975],[100.23071,15.74202],[100.24568,15.74551],[100.24624,15.74717],[100.24504,15.75252],[100.24758,15.75491],[100.25149,15.75517],[100.25354,15.75716],[100.25324,15.76392],[100.25692,15.77086],[100.25658,15.77713],[100.25391,15.78613],[100.25565,15.79094],[100.25421,15.79176],[100.25189,15.79066],[100.24929,15.79073],[100.24778,15.79153],[100.24782,15.79315],[100.24418,15.79535],[100.2391,15.79646],[100.23744,15.79564],[100.23519,15.79242],[100.23405,15.78945],[100.23486,15.7846],[100.23261,15.78373],[100.22574,15.78546],[100.21778,15.7841],[100.21441,15.78906],[100.21471,15.80056],[100.21722,15.80386],[100.21868,15.80444],[100.21901,15.80169],[100.21744,15.79821],[100.21802,15.7971],[100.21946,15.79712],[100.22182,15.80037],[100.22424,15.80112],[100.22653,15.80054],[100.22746,15.79749],[100.23168,15.79498],[100.23297,15.79269],[100.23654,15.79692],[100.23933,15.79734],[100.23973,15.80109],[100.23554,15.80216],[100.23357,15.80494],[100.23362,15.80685],[100.23501,15.80842],[100.23701,15.80705],[100.24092,15.80811],[100.24425,15.807],[100.24572,15.80957],[100.24538,15.81054],[100.24848,15.8127],[100.2479,15.81325],[100.24933,15.81553],[100.25159,15.81676],[100.25076,15.81839],[100.25331,15.82215],[100.25403,15.82611],[100.2497,15.8284],[100.24835,15.8312],[100.25058,15.83805],[100.2481,15.83909],[100.24604,15.84426],[100.2471,15.84737],[100.24645,15.85442],[100.24707,15.85499],[100.24391,15.85718],[100.24261,15.85939],[100.24358,15.86215],[100.2475,15.86422],[100.25275,15.86418],[100.25549,15.86587],[100.25593,15.86758],[100.25445,15.87178],[100.24956,15.87377],[100.24973,15.87866],[100.25142,15.88046],[100.25391,15.87946],[100.25703,15.88017],[100.25818,15.88205],[100.26099,15.88339],[100.25983,15.88846],[100.26207,15.89204],[100.26461,15.89335],[100.26346,15.89523],[100.26135,15.89605],[100.25933,15.89501],[100.25566,15.89592],[100.2507,15.90083],[100.2507,15.9027],[100.24903,15.90299],[100.24822,15.90839],[100.24931,15.9101],[100.24657,15.91302],[100.24745,15.91763],[100.24569,15.91809],[100.24156,15.92174],[100.23821,15.92239],[100.23797,15.92487],[100.23965,15.92526],[100.24143,15.9282],[100.24654,15.93102],[100.25498,15.92674],[100.26147,15.92708],[100.26373,15.9281],[100.26408,15.92557],[100.26711,15.92262],[100.27176,15.92266],[100.27302,15.92536],[100.27298,15.928],[100.276,15.93152],[100.27688,15.93182],[100.27756,15.93043],[100.28331,15.93051],[100.28785,15.92579],[100.2897,15.92646],[100.29409,15.92222],[100.29543,15.92276],[100.2972,15.92188],[100.29845,15.91755],[100.29728,15.90953],[100.29954,15.90808],[100.30139,15.90808],[100.30414,15.90094],[100.30616,15.89947],[100.30582,15.89472],[100.30249,15.89235],[100.30393,15.89039],[100.30568,15.89081],[100.3081,15.89286],[100.30952,15.89665],[100.31165,15.89697],[100.31122,15.89935],[100.30535,15.90293],[100.30488,15.90693],[100.30261,15.90998],[100.29897,15.91098],[100.30042,15.91952],[100.29808,15.92405],[100.29371,15.92841],[100.29747,15.93381],[100.30335,15.93603],[100.30408,15.93815],[100.30368,15.94769],[100.30203,15.95094],[100.30512,15.95335],[100.30672,15.9536],[100.30708,15.95252],[100.31097,15.95035],[100.31438,15.95004],[100.31634,15.95192],[100.31662,15.95652],[100.32058,15.96054],[100.32144,15.96331],[100.32056,15.96414],[100.32562,15.97018],[100.32768,15.96665],[100.33073,15.96537],[100.33257,15.96216],[100.33909,15.95874],[100.33906,15.95775],[100.34494,15.95527],[100.34754,15.96041],[100.3492,15.96037],[100.35183,15.9629],[100.35511,15.96158],[100.35814,15.96231],[100.35854,15.9603],[100.36216,15.96118],[100.3651,15.96053],[100.3693,15.96459],[100.37474,15.9648],[100.37833,15.96156],[100.38228,15.95992],[100.38534,15.96296],[100.40516,15.95625],[100.40546,15.95434],[100.40771,15.95222],[100.41135,15.9531],[100.41904,15.95006],[100.41831,15.94692],[100.41546,15.94423],[100.41548,15.9427],[100.41895,15.94232],[100.42077,15.93933],[100.42417,15.93828],[100.42667,15.93875],[100.42754,15.94446],[100.42923,15.94636],[100.42841,15.94914],[100.43122,15.95038],[100.4328,15.95086],[100.43471,15.94661],[100.43668,15.94498],[100.4423,15.94536],[100.44454,15.94422],[100.44518,15.94131],[100.44796,15.93969],[100.45279,15.94021],[100.45535,15.94146],[100.45634,15.94045],[100.45924,15.94018],[100.46178,15.94292],[100.46424,15.94337],[100.4662,15.94488],[100.46399,15.94665],[100.4659,15.94847],[100.46703,15.9522],[100.4683,15.95256],[100.47118,15.9491],[100.47285,15.94874],[100.47946,15.95197],[100.47846,15.95426],[100.48008,15.95609],[100.48397,15.95433],[100.48753,15.95437],[100.4916,15.95315],[100.49279,15.95194],[100.49742,15.95376],[100.50527,15.95449],[100.50525,15.95613],[100.50612,15.95693],[100.51188,15.95632],[100.51271,15.95422],[100.5201,15.95221],[100.52509,15.95416],[100.52652,15.94984],[100.52817,15.94905],[100.53298,15.94967],[100.53653,15.94881],[100.55238,15.95437],[100.55434,15.95131],[100.55754,15.95317],[100.55914,15.95774],[100.5619,15.95869],[100.56248,15.96169],[100.56699,15.96299],[100.56865,15.96433],[100.57149,15.96892],[100.57283,15.96954],[100.57185,15.97046],[100.57741,15.97349],[100.58103,15.97184],[100.58442,15.97479],[100.58815,15.97504],[100.59033,15.97719],[100.60102,15.97962],[100.62114,15.97738],[100.62283,15.97259],[100.62791,15.975],[100.63445,15.97216],[100.63567,15.9695],[100.63455,15.96844],[100.63974,15.9676],[100.64409,15.97082],[100.65372,15.97033],[100.65501,15.96938],[100.65837,15.96908],[100.66134,15.96647],[100.66924,15.96599],[100.67106,15.96704],[100.6777,15.9673],[100.68287,15.96984],[100.68394,15.97322],[100.69172,15.9693],[100.69729,15.96471],[100.711,15.96292],[100.72135,15.95837],[100.73148,15.96017],[100.7366,15.96003],[100.73786,15.95788],[100.74106,15.95839],[100.74301,15.95694],[100.74574,15.95754],[100.74962,15.95643],[100.75325,15.95149],[100.75927,15.95101],[100.76276,15.94789],[100.76776,15.94707],[100.76979,15.94564],[100.76559,15.93831],[100.76765,15.93437],[100.7676,15.93272],[100.76517,15.92975],[100.76241,15.92286],[100.76338,15.921],[100.76328,15.9148],[100.7646,15.91302],[100.76393,15.91116],[100.76714,15.90856],[100.76968,15.9027],[100.7713,15.90176],[100.7735,15.9031],[100.78203,15.89784],[100.78706,15.89053],[100.79244,15.88749],[100.79422,15.88721],[100.79617,15.89067],[100.79783,15.89097],[100.7989,15.88986],[100.80281,15.89225],[100.80755,15.89282],[100.81072,15.89223],[100.81291,15.89328],[100.8152,15.89133],[100.81877,15.89137],[100.82433,15.88012],[100.82553,15.87524],[100.82716,15.8548],[100.82513,15.85433],[100.82463,15.85329],[100.82518,15.85168],[100.82693,15.85085],[100.82253,15.82848],[100.8169,15.81526],[100.81697,15.80982],[100.81914,15.80246],[100.81701,15.79547],[100.81739,15.794],[100.82169,15.794],[100.83123,15.76226],[100.83232,15.7554],[100.83544,15.74697],[100.83574,15.74293],[100.83799,15.74013],[100.84278,15.72506],[100.84183,15.71987],[100.83877,15.7164],[100.83849,15.71296],[100.83662,15.71062],[100.83425,15.71065],[100.83325,15.70966],[100.83755,15.70548],[100.84006,15.70516],[100.84472,15.70018],[100.84697,15.69179],[100.84489,15.68989],[100.84525,15.68696],[100.8417,15.68489],[100.84309,15.68088],[100.84071,15.67997],[100.84017,15.6784],[100.83403,15.67815],[100.82752,15.67601],[100.82831,15.67393],[100.83,15.67338],[100.83028,15.67188],[100.82942,15.6684],[100.82691,15.66457],[100.82796,15.66299],[100.82935,15.66108],[100.83615,15.66197],[100.8366,15.65911],[100.8352,15.65759],[100.83643,15.65598],[100.84012,15.65494],[100.84412,15.65197],[100.84322,15.64712],[100.846,15.6444],[100.844,15.64316],[100.84255,15.63763],[100.84307,15.63113],[100.84121,15.62873],[100.84068,15.62531],[100.83536,15.6214],[100.83207,15.62175],[100.83168,15.61988],[100.82827,15.61841],[100.82269,15.60977],[100.81944,15.60753],[100.81708,15.60181],[100.81239,15.60239],[100.81021,15.59824],[100.80917,15.59373],[100.81089,15.59093],[100.81418,15.58936],[100.81358,15.58693],[100.81464,15.58183],[100.81034,15.57838],[100.80873,15.57585],[100.80875,15.57369],[100.8048,15.57345],[100.80216,15.572],[100.80309,15.57032],[100.80075,15.56551],[100.8008,15.56134],[100.80187,15.55829],[100.8032,15.55762],[100.80363,15.55445],[100.79875,15.55018],[100.79412,15.54821],[100.79348,15.54574],[100.79433,15.54366],[100.79277,15.54183],[100.7938,15.54007],[100.79183,15.53858],[100.78982,15.53745],[100.78441,15.53756],[100.7814,15.53893],[100.78015,15.53812],[100.77978,15.53595],[100.77675,15.53436],[100.76981,15.53467],[100.76582,15.52929],[100.75995,15.52529],[100.75915,15.52128],[100.75986,15.51953],[100.75423,15.51367],[100.74572,15.51341],[100.74641,15.51113],[100.75176,15.5071],[100.75055,15.50483],[100.75217,15.50175],[100.75564,15.50058],[100.75688,15.49696],[100.75603,15.49546],[100.76035,15.49551],[100.76818,15.49782],[100.77191,15.48806],[100.77351,15.48017],[100.776,15.47664],[100.77901,15.46478],[100.77945,15.45593],[100.77708,15.44154],[100.77226,15.4303],[100.76965,15.42812],[100.76607,15.42762],[100.76432,15.42169],[100.76685,15.42001],[100.75654,15.40684],[100.74378,15.39399],[100.72749,15.38188],[100.71269,15.36912],[100.70962,15.36908],[100.70672,15.36716],[100.69893,15.35919],[100.69398,15.35745],[100.68642,15.36269],[100.68336,15.36156],[100.67499,15.36192],[100.67104,15.36059],[100.66801,15.36197],[100.66577,15.36199],[100.66435,15.35846],[100.66203,15.35817],[100.6584,15.35441],[100.65619,15.35446],[100.65559,15.34606],[100.6523,15.34069],[100.64455,15.3398],[100.64066,15.3375],[100.63591,15.33856],[100.63239,15.34217],[100.62811,15.34003],[100.61897,15.34281],[100.61816,15.34242],[100.61782,15.33929],[100.61609,15.33571],[100.61453,15.33611],[100.61092,15.33381],[100.6052,15.33642],[100.60468,15.34041],[100.60241,15.34187],[100.59937,15.34242],[100.59947,15.34581],[100.59803,15.34757],[100.59498,15.34759],[100.59472,15.35168],[100.59614,15.35493],[100.59561,15.35667],[100.59756,15.35771],[100.59546,15.36111],[100.59341,15.36271],[100.59469,15.36553],[100.5971,15.36684],[100.59709,15.37214],[100.59538,15.37296],[100.59337,15.3765],[100.58606,15.37853],[100.58291,15.37585],[100.58088,15.3759],[100.57724,15.36927],[100.57655,15.36636],[100.57329,15.36379],[100.57163,15.36511],[100.56518,15.36488],[100.56372,15.36709],[100.56043,15.36652],[100.5574,15.36846],[100.55549,15.37286],[100.55605,15.37389],[100.55439,15.37635],[100.54909,15.37613],[100.54795,15.37476],[100.54622,15.3748],[100.54554,15.37551],[100.54628,15.37585],[100.54687,15.37883],[100.54389,15.38111],[100.542,15.3852],[100.54024,15.38604],[100.53966,15.3884],[100.53745,15.38837],[100.53461,15.38976],[100.52959,15.38763],[100.52873,15.38168],[100.52848,15.38683],[100.52232,15.39225],[100.52075,15.39257],[100.51841,15.39124],[100.51563,15.3926],[100.51075,15.39132],[100.51031,15.39402],[100.50811,15.394],[100.50783,15.39658],[100.50483,15.39717],[100.50426,15.39893],[100.50174,15.40057],[100.49612,15.39979],[100.48591,15.40031],[100.48338,15.4025],[100.48245,15.40204],[100.48081,15.39832],[100.47923,15.38845],[100.47329,15.38861],[100.46579,15.39111],[100.46254,15.39106],[100.46001,15.39271],[100.45827,15.39038],[100.45611,15.38978],[100.45773,15.39132],[100.45727,15.39601],[100.4583,15.3979],[100.45732,15.40198],[100.45816,15.40407],[100.45425,15.4044],[100.45162,15.40673]]]}}]}