{"type":"FeatureCollection","features":[{"type":"Feature","properties":{"shapeName":"บรรพตพิสัย"},"geometry":{"type":"Polygon","coordinates":[[[100.11345,16.07955],[100.11116,16.07919],[100.10858,16.07608],[100.10958,16.07417],[100.11243,16.07339],[100.11264,16.06671],[100.11421,16.06347],[100.11617,16.06346],[100.11625,16.06068],[100.11826,16.0589],[100.11879,16.054],[100.11531,16.04683],[100.12002,16.04274],[100.1218,16.03892],[100.12668,16.0388],[100.12773,16.03567],[100.13036,16.03547],[100.13134,16.03105],[100.12728,16.02843],[100.13107,16.01813],[100.13442,16.01573],[100.135,16.01311],[100.13775,16.01183],[100.13737,16.00868],[100.1476,15.98915],[100.15064,15.98826],[100.15563,15.98199],[100.15824,15.98189],[100.16195,15.97808],[100.16154,15.97547],[100.16339,15.9724],[100.15947,15.96809],[100.16067,15.95919],[100.15027,15.95321],[100.14848,15.9561],[100.14364,15.95899],[100.1403,15.9576],[100.136,15.95861],[100.1331,15.95453],[100.1303,15.95386],[100.13442,15.94952],[100.13318,15.94369],[100.13453,15.93779],[100.12066,15.9314],[100.11807,15.93158],[100.11649,15.93371],[100.11192,15.94546],[100.11044,15.94636],[100.1073,15.9454],[100.10178,15.94843],[100.097,15.94894],[100.0955,15.95011],[100.09629,15.95317],[100.09151,15.95449],[100.08975,15.95943],[100.08768,15.95849],[100.08817,15.95487],[100.08494,15.95183],[100.08385,15.94863],[100.08662,15.94484],[100.07586,15.93692],[100.07543,15.93498],[100.07705,15.93282],[100.07565,15.93005],[100.06463,15.92454],[100.06018,15.92717],[100.05856,15.92986],[100.05662,15.92895],[100.05382,15.92137],[100.04844,15.91899],[100.0493,15.91524],[100.04411,15.91308],[100.03887,15.8968],[100.03579,15.8972],[100.03373,15.89502],[100.0422,15.89145],[100.05273,15.87905],[100.04657,15.87562],[100.04325,15.87173],[100.04353,15.86917],[100.03948,15.87018],[100.03598,15.86826],[100.03499,15.86907],[100.03082,15.86539],[100.02602,15.86449],[100.02368,15.86595],[100.01977,15.86537],[100.01247,15.86178],[100.01432,15.8579],[100.00394,15.85511],[100.00464,15.85111],[99.99983,15.84714],[99.99321,15.84637],[99.98987,15.84752],[99.98587,15.84479],[99.98165,15.84819],[99.98027,15.84725],[99.97594,15.84878],[99.96836,15.84191],[99.96533,15.84337],[99.96296,15.84231],[99.95793,15.84324],[99.95688,15.84784],[99.95416,15.84581],[99.94775,15.84657],[99.93748,15.84418],[99.93025,15.83827],[99.88833,15.90954],[99.88802,15.90847],[99.88587,15.91044],[99.88274,15.91017],[99.88235,15.91271],[99.88061,15.91377],[99.87854,15.91355],[99.87792,15.91148],[99.87553,15.91126],[99.8749,15.90988],[99.87292,15.9114],[99.87164,15.90973],[99.86523,15.91007],[99.86381,15.90926],[99.86446,15.9077],[99.8659,15.90807],[99.86649,15.90436],[99.86461,15.90503],[99.86385,15.90324],[99.8603,15.90164],[99.85421,15.90921],[99.84684,15.9084],[99.84706,15.91146],[99.84242,15.91229],[99.83864,15.91518],[99.83669,15.91455],[99.83754,15.91263],[99.83553,15.91127],[99.83079,15.91379],[99.82654,15.91196],[99.82335,15.91557],[99.81899,15.91579],[99.81563,15.918],[99.80498,15.9206],[99.80696,15.92387],[99.8047,15.93011],[99.8072,15.9441],[99.81875,15.94718],[99.82519,15.95055],[99.82821,15.9581],[99.82826,15.96287],[99.83381,15.96507],[99.84745,15.98183],[99.84625,15.9975],[99.84734,15.99874],[99.84507,16.006],[99.84518,16.02348],[99.85809,16.03028],[99.87203,16.03228],[99.87554,16.03414],[99.87367,16.03694],[99.88392,16.03964],[99.88553,16.03854],[99.8878,16.03951],[99.88864,16.03813],[99.89143,16.03857],[99.89143,16.03963],[99.89504,16.03945],[99.89512,16.04308],[99.89916,16.04488],[99.90382,16.04493],[99.90444,16.04646],[99.90259,16.04777],[99.9102,16.05167],[99.91124,16.04901],[99.91621,16.04879],[99.9203,16.05018],[99.92272,16.05282],[99.92697,16.05153],[99.93136,16.0529],[99.93145,16.05477],[99.93506,16.05603],[99.93349,16.06036],[99.94145,16.06903],[99.94087,16.07192],[99.94809,16.07591],[99.95833,16.08633],[99.95817,16.09002],[99.96447,16.09685],[99.96332,16.09853],[99.9734,16.10869],[99.97289,16.11028],[99.97677,16.11156],[99.97933,16.1156],[99.98432,16.11813],[99.98795,16.11729],[99.98744,16.12054],[99.98896,16.12029],[99.98942,16.12225],[99.99448,16.12185],[99.99467,16.12367],[99.99647,16.12301],[99.99773,16.12769],[99.9968,16.13327],[100.00338,16.13965],[100.00477,16.13924],[100.00621,16.14279],[100.00982,16.14362],[100.01478,16.14912],[100.01672,16.14888],[100.01627,16.15453],[100.01824,16.15569],[100.02162,16.16247],[100.02418,16.17542],[100.02191,16.18814],[100.02485,16.19118],[100.02969,16.18739],[100.02992,16.18511],[100.03748,16.1827],[100.03733,16.17838],[100.03898,16.17659],[100.03819,16.17296],[100.04112,16.1722],[100.04422,16.16815],[100.05696,16.16651],[100.06111,16.16438],[100.0631,16.15929],[100.06525,16.16123],[100.07341,16.16147],[100.07527,16.1628],[100.07643,16.16166],[100.07749,16.15745],[100.07487,16.15292],[100.07739,16.1505],[100.07672,16.14726],[100.07835,16.1457],[100.08532,16.14609],[100.08629,16.14149],[100.08047,16.13293],[100.08025,16.12887],[100.07663,16.12638],[100.07688,16.12443],[100.08571,16.11471],[100.09051,16.11424],[100.09465,16.11075],[100.09512,16.10583],[100.09276,16.10206],[100.09598,16.09442],[100.09965,16.09455],[100.10099,16.08918],[100.11345,16.07955]]]}},{"type":"Feature","properties":{"shapeName":"ชุมแสง"},"geometry":{"type":"Polygon","coordinates":[[[100.3065,15.97346],[100.30931,15.97353],[100.31265,15.97714],[100.32346,15.97442],[100.32451,15.9816],[100.32113,15.98604],[100.32203,15.98786],[100.32632,15.98504],[100.33101,15.98464],[100.34618,15.97436],[100.33119,15.94065],[100.34728,15.93527],[100.3518,15.93522],[100.35913,15.94028],[100.37842,15.94091],[100.38769,15.93873],[100.39154,15.9347],[100.41269,15.92991],[100.42687,15.93465],[100.42666,15.93854],[100.4372,15.93691],[100.44482,15.93362],[100.44338,15.93066],[100.44542,15.93018],[100.44885,15.93089],[100.44851,15.93612],[100.46074,15.93839],[100.46082,15.92701],[100.44988,15.92229],[100.43941,15.90959],[100.43657,15.89686],[100.43139,15.88687],[100.41778,15.87774],[100.41354,15.87327],[100.41363,15.86919],[100.40854,15.86716],[100.40813,15.84978],[100.4033,15.84522],[100.40286,15.84155],[100.40706,15.82308],[100.40029,15.81763],[100.39779,15.81746],[100.39083,15.81296],[100.37492,15.79927],[100.36936,15.79964],[100.36168,15.79764],[100.33827,15.77679],[100.33053,15.77368],[100.31391,15.77077],[100.31344,15.76632],[100.31525,15.76201],[100.32759,15.75019],[100.32839,15.74209],[100.32005,15.72547],[100.31573,15.72158],[100.31096,15.70723],[100.30244,15.70355],[100.29957,15.69868],[100.30057,15.69354],[100.2963,15.6929],[100.27053,15.69704],[100.24742,15.69823],[100.23982,15.71227],[100.23588,15.71707],[100.22848,15.72141],[100.22213,15.73016],[100.21261,15.75103],[100.20697,15.75211],[100.20414,15.7558],[100.2078,15.76574],[100.2078,15.77029],[100.21739,15.78602],[100.21556,15.79211],[100.19848,15.78897],[100.19086,15.79035],[100.18656,15.78833],[100.18309,15.79116],[100.17624,15.78789],[100.17443,15.78291],[100.17067,15.78473],[100.16109,15.78378],[100.16091,15.79352],[100.16706,15.79367],[100.16532,15.79704],[100.16558,15.80312],[100.16645,15.80444],[100.17041,15.80478],[100.16982,15.81019],[100.17304,15.81919],[100.1769,15.82034],[100.17496,15.82212],[100.17786,15.83046],[100.18303,15.83186],[100.18078,15.83371],[100.18206,15.83545],[100.17951,15.83663],[100.18274,15.83947],[100.18344,15.83705],[100.18478,15.83727],[100.1843,15.84357],[100.18673,15.84651],[100.18447,15.84969],[100.18819,15.85339],[100.17777,15.85478],[100.1776,15.85911],[100.17442,15.85909],[100.17406,15.86369],[100.17704,15.86457],[100.18051,15.86331],[100.18375,15.86796],[100.18165,15.87025],[100.17672,15.87032],[100.17816,15.87259],[100.17504,15.87247],[100.17492,15.87668],[100.17239,15.8771],[100.16992,15.88032],[100.17048,15.88152],[100.17344,15.88095],[100.17189,15.88418],[100.17454,15.88628],[100.17116,15.89595],[100.17204,15.90173],[100.16889,15.91809],[100.17006,15.9226],[100.17286,15.92542],[100.16853,15.93158],[100.17512,15.93332],[100.1818,15.92897],[100.18442,15.93377],[100.19331,15.93404],[100.1989,15.9327],[100.20086,15.93493],[100.20306,15.93451],[100.20417,15.93143],[100.21081,15.93064],[100.21538,15.92813],[100.22897,15.92699],[100.23626,15.93367],[100.24298,15.93474],[100.24746,15.93838],[100.24141,15.94569],[100.24853,15.95904],[100.25483,15.9613],[100.26089,15.95914],[100.26474,15.95059],[100.26252,15.94199],[100.26864,15.93964],[100.27176,15.94328],[100.27604,15.94345],[100.28123,15.94619],[100.28411,15.95029],[100.29127,15.95184],[100.29218,15.95378],[100.29492,15.95456],[100.29549,15.95666],[100.29718,15.95581],[100.29931,15.95811],[100.30388,15.95812],[100.30989,15.96114],[100.31067,15.96703],[100.30661,15.97011],[100.3065,15.97346]]]}},{"type":"Feature","properties":{"shapeName":"ชุมตาบง"},"geometry":{"type":"Polygon","coordinates":[[[99.61916,15.71512],[99.62608,15.71036],[99.62844,15.71229],[99.63204,15.71064],[99.6327,15.71149],[99.63462,15.70933],[99.6373,15.70996],[99.6371,15.70785],[99.64001,15.70689],[99.64147,15.70741],[99.64063,15.70819],[99.64304,15.70737],[99.64333,15.70954],[99.64562,15.71078],[99.65568,15.70644],[99.66033,15.70139],[99.65827,15.69733],[99.6506,15.69193],[99.64778,15.68761],[99.64425,15.68825],[99.64197,15.68491],[99.63376,15.68509],[99.62892,15.68105],[99.63188,15.6791],[99.62706,15.66761],[99.62343,15.66433],[99.62512,15.66361],[99.62717,15.66489],[99.62901,15.66627],[99.62934,15.66914],[99.63871,15.67468],[99.64194,15.67464],[99.64689,15.67151],[99.651,15.67073],[99.65383,15.67342],[99.65578,15.67203],[99.66127,15.67242],[99.66347,15.66985],[99.66647,15.66975],[99.66563,15.66825],[99.66708,15.66777],[99.66917,15.66184],[99.66707,15.65988],[99.6655,15.66019],[99.66017,15.64901],[99.64971,15.64718],[99.64082,15.6421],[99.63234,15.64344],[99.63046,15.64161],[99.62687,15.64257],[99.62454,15.64139],[99.6233,15.63866],[99.61709,15.63737],[99.61788,15.63443],[99.61657,15.63367],[99.60804,15.63379],[99.60639,15.6316],[99.5964,15.62848],[99.59354,15.62581],[99.59316,15.62291],[99.59032,15.62177],[99.58924,15.61959],[99.58556,15.61913],[99.5812,15.61039],[99.57109,15.60419],[99.56833,15.59634],[99.56072,15.58888],[99.56049,15.58629],[99.55547,15.5798],[99.5506,15.57851],[99.54887,15.57575],[99.54092,15.57424],[99.53842,15.57496],[99.5256,15.57146],[99.52473,15.56807],[99.52061,15.56666],[99.51716,15.56274],[99.50431,15.56179],[99.49694,15.5693],[99.49888,15.58612],[99.50401,15.60241],[99.50325,15.60881],[99.50476,15.61731],[99.51264,15.6227],[99.51001,15.62641],[99.51107,15.6281],[99.50959,15.6407],[99.50571,15.64568],[99.50096,15.64613],[99.50063,15.64762],[99.49769,15.64823],[99.49718,15.65072],[99.49216,15.65212],[99.49059,15.65862],[99.4932,15.66009],[99.49326,15.66179],[99.49088,15.6651],[99.49172,15.6679],[99.48877,15.66933],[99.49165,15.6784],[99.48829,15.68109],[99.48925,15.68429],[99.48832,15.68555],[99.49021,15.68965],[99.48962,15.69169],[99.48756,15.69235],[99.48923,15.6934],[99.48777,15.69455],[99.48871,15.69561],[99.48664,15.6994],[99.48112,15.69981],[99.48196,15.70163],[99.47727,15.70267],[99.47621,15.70359],[99.47703,15.70522],[99.4726,15.70707],[99.47384,15.70801],[99.47276,15.71196],[99.47075,15.71351],[99.4709,15.71792],[99.46969,15.72117],[99.46768,15.72167],[99.46406,15.72717],[99.46389,15.73079],[99.46476,15.73384],[99.4616,15.73555],[99.4587,15.74023],[99.44961,15.74495],[99.44686,15.74812],[99.44723,15.75637],[99.44585,15.75941],[99.4486,15.76111],[99.44921,15.76334],[99.45778,15.76495],[99.46183,15.762],[99.46556,15.76152],[99.47926,15.76394],[99.48155,15.76633],[99.482,15.76531],[99.48397,15.76662],[99.48693,15.76551],[99.4994,15.76761],[99.50731,15.76393],[99.50425,15.74532],[99.50715,15.74121],[99.51084,15.74079],[99.51398,15.73828],[99.51333,15.73457],[99.51998,15.73534],[99.52115,15.73776],[99.52384,15.73808],[99.52764,15.73632],[99.53445,15.73693],[99.53947,15.73497],[99.5412,15.7368],[99.54923,15.73717],[99.55273,15.74003],[99.55603,15.73847],[99.56092,15.7391],[99.56127,15.74067],[99.56343,15.7413],[99.56616,15.73617],[99.56841,15.73544],[99.57452,15.73681],[99.57649,15.7343],[99.58786,15.73592],[99.59046,15.73388],[99.59572,15.73438],[99.60128,15.72928],[99.6025,15.72639],[99.607,15.72514],[99.60815,15.72247],[99.61261,15.72145],[99.6137,15.71665],[99.61916,15.71512]]]}},{"type":"Feature","properties":{"shapeName":"เก้าเลี้ยว"},"geometry":{"type":"Polygon","coordinates":[[[99.99321,15.84637],[99.99983,15.84714],[100.00286,15.84927],[100.00464,15.85111],[100.00394,15.85511],[100.01432,15.8579],[100.01247,15.86178],[100.01977,15.86537],[100.02368,15.86595],[100.02602,15.86449],[100.03082,15.86539],[100.03499,15.86907],[100.03598,15.86826],[100.03948,15.87018],[100.04353,15.86917],[100.04325,15.87173],[100.04657,15.87562],[100.05273,15.87905],[100.0422,15.89145],[100.03373,15.89502],[100.03579,15.8972],[100.03887,15.8968],[100.04411,15.91308],[100.0493,15.91524],[100.04844,15.91899],[100.05382,15.92137],[100.05662,15.92895],[100.05856,15.92986],[100.06018,15.92717],[100.06463,15.92454],[100.07565,15.93005],[100.07705,15.93282],[100.07543,15.93498],[100.07586,15.93692],[100.08662,15.94484],[100.08385,15.94863],[100.08494,15.95183],[100.08817,15.95487],[100.08768,15.95849],[100.08975,15.95943],[100.09151,15.95449],[100.09629,15.95317],[100.0955,15.95011],[100.097,15.94894],[100.10178,15.94843],[100.1073,15.9454],[100.11044,15.94636],[100.11192,15.94546],[100.11649,15.93371],[100.11807,15.93158],[100.12066,15.9314],[100.13453,15.93779],[100.13318,15.94369],[100.13442,15.94952],[100.1303,15.95386],[100.1331,15.95453],[100.136,15.95861],[100.1403,15.9576],[100.14364,15.95899],[100.14848,15.9561],[100.15027,15.95321],[100.16324,15.96016],[100.16812,15.9575],[100.16849,15.95318],[100.17084,15.95125],[100.17155,15.94619],[100.17444,15.94175],[100.17305,15.93727],[100.17512,15.93332],[100.16853,15.93158],[100.17286,15.92542],[100.17006,15.9226],[100.16889,15.91809],[100.17204,15.90173],[100.17116,15.89595],[100.17454,15.88628],[100.17189,15.88418],[100.17344,15.88095],[100.17048,15.88152],[100.16992,15.88032],[100.17239,15.8771],[100.17492,15.87668],[100.17504,15.87247],[100.17816,15.87259],[100.17672,15.87032],[100.18165,15.87025],[100.18375,15.86796],[100.18051,15.86331],[100.17704,15.86457],[100.17406,15.86369],[100.17442,15.85909],[100.1776,15.85911],[100.17777,15.85478],[100.18819,15.85339],[100.18447,15.84969],[100.18673,15.84651],[100.1843,15.84357],[100.18478,15.83727],[100.18344,15.83705],[100.18274,15.83947],[100.17951,15.83663],[100.18206,15.83545],[100.18078,15.83371],[100.18303,15.83186],[100.17786,15.83046],[100.17496,15.82212],[100.1769,15.82034],[100.17304,15.81919],[100.16982,15.81019],[100.16855,15.81229],[100.1653,15.81328],[100.16118,15.8134],[100.15966,15.81168],[100.15453,15.81248],[100.15071,15.81588],[100.14211,15.81606],[100.13578,15.81724],[100.13307,15.81913],[100.12595,15.81985],[100.12651,15.81408],[100.12384,15.81499],[100.12369,15.81675],[100.11778,15.81649],[100.10175,15.81331],[100.09901,15.81094],[100.08781,15.81029],[100.08095,15.8079],[100.07891,15.81557],[100.05554,15.81172],[100.05202,15.81618],[100.04736,15.81693],[100.02898,15.81536],[100.02852,15.81815],[100.02608,15.82033],[100.02117,15.81831],[100.01103,15.83041],[100.00802,15.8321],[100.00538,15.83087],[100.00223,15.83463],[100.00256,15.83742],[99.9979,15.83976],[99.99321,15.84637]]]}},{"type":"Feature","properties":{"shapeName":"โกรกพระ"},"geometry":{"type":"Polygon","coordinates":[[[100.14129,15.60954],[100.13661,15.60568],[100.13484,15.6013],[100.13948,15.59134],[100.13901,15.5855],[100.14094,15.58385],[100.13915,15.58179],[100.13936,15.57065],[100.11952,15.56677],[100.11616,15.55819],[100.10606,15.55049],[100.1041,15.54749],[100.09116,15.5386],[100.08587,15.54141],[100.08038,15.54125],[100.07937,15.5401],[100.07329,15.53971],[100.06974,15.53708],[100.05745,15.53303],[100.05626,15.53396],[100.05151,15.53278],[100.04537,15.52637],[100.04714,15.5233],[100.04394,15.5214],[100.04095,15.51444],[100.03458,15.5104],[100.00705,15.50139],[100.00914,15.49868],[100.00977,15.49195],[100.0066,15.48619],[100.00046,15.48373],[99.99948,15.48523],[99.99579,15.48598],[99.99323,15.49185],[99.9889,15.49013],[99.98697,15.49216],[99.98389,15.4918],[99.98562,15.49517],[99.98487,15.4963],[99.97959,15.49614],[99.97725,15.49939],[99.97378,15.4988],[99.97107,15.50137],[99.96773,15.4994],[99.96678,15.50319],[99.96209,15.50373],[99.95957,15.50698],[99.94818,15.50112],[99.94539,15.50419],[99.94702,15.51386],[99.94383,15.52024],[99.94388,15.52691],[99.9403,15.53326],[99.94029,15.55878],[99.94247,15.57236],[99.9409,15.581],[99.93819,15.58517],[99.93733,15.5976],[99.93779,15.6009],[99.94081,15.60442],[99.93997,15.60926],[99.94203,15.61898],[99.94101,15.6272],[99.93448,15.64786],[99.93411,15.66622],[99.93248,15.67232],[99.93824,15.67635],[99.94763,15.6756],[99.95004,15.67353],[99.95944,15.67551],[99.96898,15.67512],[99.97218,15.68203],[99.97824,15.68015],[99.97865,15.6784],[99.9855,15.67518],[100.00449,15.67993],[100.02266,15.67347],[100.02276,15.6756],[100.02613,15.67488],[100.02694,15.67615],[100.03063,15.67604],[100.03131,15.67788],[100.03951,15.67799],[100.04043,15.6809],[100.04202,15.68128],[100.04583,15.67876],[100.04435,15.67533],[100.04513,15.67421],[100.04692,15.67414],[100.04839,15.67596],[100.05426,15.66807],[100.05856,15.66908],[100.06054,15.66665],[100.05829,15.65915],[100.06258,15.63717],[100.05786,15.63327],[100.0504,15.63514],[100.04633,15.64145],[100.04373,15.6542],[100.04203,15.65628],[100.04016,15.65625],[100.03703,15.64641],[100.03215,15.63742],[100.0333,15.62799],[100.03918,15.6191],[100.04679,15.61615],[100.05439,15.61648],[100.06425,15.6205],[100.0662,15.623],[100.07328,15.62449],[100.07897,15.62004],[100.08162,15.61043],[100.08453,15.60873],[100.08802,15.61027],[100.09232,15.60847],[100.09136,15.61296],[100.09705,15.61452],[100.09981,15.61749],[100.10441,15.61909],[100.11941,15.61541],[100.12924,15.6168],[100.12867,15.61971],[100.13656,15.61956],[100.1394,15.61757],[100.14129,15.60954]]]}},{"type":"Feature","properties":{"shapeName":"ลาดยาว"},"geometry":{"type":"Polygon","coordinates":[[[99.80498,15.9206],[99.81563,15.918],[99.81899,15.91579],[99.82335,15.91557],[99.82654,15.91196],[99.83079,15.91379],[99.83553,15.91127],[99.83754,15.91263],[99.83669,15.91455],[99.83864,15.91518],[99.84242,15.91229],[99.84706,15.91146],[99.84684,15.9084],[99.85421,15.90921],[99.8603,15.90164],[99.86385,15.90324],[99.86461,15.90503],[99.86649,15.90436],[99.8659,15.90807],[99.86446,15.9077],[99.86381,15.90926],[99.86523,15.91007],[99.87164,15.90973],[99.87292,15.9114],[99.8749,15.90988],[99.87553,15.91126],[99.87792,15.91148],[99.87854,15.91355],[99.88061,15.91377],[99.88235,15.91271],[99.88274,15.91017],[99.88587,15.91044],[99.88802,15.90847],[99.88833,15.90954],[99.93025,15.83827],[99.92766,15.83691],[99.9193,15.83648],[99.9061,15.83085],[99.90156,15.8258],[99.89892,15.8251],[99.89146,15.81302],[99.89884,15.81156],[99.9008,15.80566],[99.90001,15.79851],[99.9071,15.799],[99.90385,15.79318],[99.90547,15.78426],[99.90406,15.77761],[99.92253,15.78272],[99.92939,15.77838],[99.93417,15.77725],[99.93349,15.76859],[99.93721,15.7684],[99.93785,15.76672],[99.93795,15.76178],[99.93525,15.75863],[99.93326,15.74773],[99.94165,15.73467],[99.94584,15.7212],[99.94397,15.71759],[99.93695,15.71625],[99.93182,15.7132],[99.92966,15.70687],[99.93209,15.6947],[99.92717,15.68549],[99.93143,15.68096],[99.93248,15.67232],[99.92486,15.67375],[99.91851,15.67008],[99.90917,15.66964],[99.89868,15.66584],[99.89683,15.66248],[99.87433,15.65831],[99.86384,15.65397],[99.86432,15.64522],[99.86124,15.64271],[99.86412,15.63945],[99.86406,15.63506],[99.86253,15.63353],[99.8642,15.63227],[99.86272,15.6301],[99.86539,15.62918],[99.86515,15.62746],[99.86348,15.62692],[99.86466,15.62236],[99.86336,15.62262],[99.86232,15.6202],[99.86422,15.62058],[99.86585,15.61869],[99.86138,15.61715],[99.85532,15.61791],[99.85138,15.62073],[99.84803,15.62038],[99.82231,15.63154],[99.81332,15.63696],[99.79472,15.64246],[99.79203,15.64897],[99.78666,15.6525],[99.78602,15.65461],[99.78204,15.65563],[99.78318,15.65981],[99.77456,15.65953],[99.77041,15.6614],[99.76476,15.66128],[99.76349,15.66208],[99.764,15.66402],[99.76,15.6663],[99.75836,15.67001],[99.75315,15.6727],[99.75219,15.67538],[99.74948,15.67506],[99.74799,15.67717],[99.74319,15.67775],[99.73676,15.68639],[99.7338,15.68802],[99.72797,15.6875],[99.7258,15.68638],[99.72603,15.68452],[99.722,15.68407],[99.72108,15.68171],[99.71739,15.68126],[99.71229,15.68468],[99.70709,15.68405],[99.706,15.68591],[99.70302,15.68507],[99.69869,15.68176],[99.69426,15.68162],[99.69263,15.67977],[99.69134,15.68052],[99.69147,15.67894],[99.6872,15.67961],[99.67779,15.67272],[99.67285,15.67255],[99.67066,15.66899],[99.6696,15.67007],[99.66708,15.66777],[99.66563,15.66825],[99.66647,15.66975],[99.66347,15.66985],[99.66127,15.67242],[99.65578,15.67203],[99.65383,15.67342],[99.651,15.67073],[99.64689,15.67151],[99.64194,15.67464],[99.63871,15.67468],[99.62934,15.66914],[99.62901,15.66627],[99.62717,15.66489],[99.62512,15.66361],[99.62343,15.66433],[99.62706,15.66761],[99.63188,15.6791],[99.62892,15.68105],[99.63376,15.68509],[99.64197,15.68491],[99.64425,15.68825],[99.64778,15.68761],[99.6506,15.69193],[99.65827,15.69733],[99.66033,15.70139],[99.65568,15.70644],[99.64562,15.71078],[99.64333,15.70954],[99.64304,15.70737],[99.64063,15.70819],[99.64147,15.70741],[99.64001,15.70689],[99.6371,15.70785],[99.6373,15.70996],[99.63462,15.70933],[99.6327,15.71149],[99.63204,15.71064],[99.62844,15.71229],[99.62608,15.71036],[99.61916,15.71512],[99.62186,15.72151],[99.64047,15.73334],[99.64205,15.73807],[99.64198,15.74895],[99.63386,15.75473],[99.63549,15.76348],[99.63395,15.76297],[99.62984,15.77249],[99.63212,15.77352],[99.6312,15.77668],[99.63978,15.79962],[99.64121,15.80771],[99.64592,15.80972],[99.65275,15.81003],[99.66346,15.81824],[99.67322,15.81543],[99.6761,15.81191],[99.68222,15.8133],[99.69173,15.82238],[99.6947,15.82347],[99.69732,15.82764],[99.69741,15.83477],[99.69246,15.84525],[99.68561,15.85472],[99.68657,15.86049],[99.68291,15.86317],[99.68556,15.869],[99.69782,15.87736],[99.70195,15.87524],[99.72345,15.87306],[99.73271,15.86539],[99.73674,15.85857],[99.73974,15.85744],[99.74383,15.85834],[99.74331,15.86164],[99.74675,15.86643],[99.7475,15.87549],[99.75101,15.8813],[99.76354,15.89485],[99.76954,15.89703],[99.77353,15.90311],[99.76799,15.91598],[99.76918,15.92185],[99.78254,15.92481],[99.78587,15.92741],[99.78823,15.9271],[99.7923,15.92283],[99.79536,15.92163],[99.80498,15.9206]]]}},{"type":"Feature","properties":{"shapeName":"แม่เปิน"},"geometry":{"type":"Polygon","coordinates":[[[99.46389,15.73079],[99.46406,15.72717],[99.46768,15.72167],[99.46969,15.72117],[99.4709,15.71792],[99.47075,15.71351],[99.47276,15.71196],[99.47384,15.70801],[99.4726,15.70707],[99.47703,15.70522],[99.47621,15.70359],[99.47727,15.70267],[99.48196,15.70163],[99.48112,15.69981],[99.48664,15.6994],[99.48871,15.69561],[99.48777,15.69455],[99.48923,15.6934],[99.48756,15.69235],[99.48962,15.69169],[99.49021,15.68965],[99.48832,15.68555],[99.48925,15.68429],[99.48829,15.68109],[99.49165,15.6784],[99.48877,15.66933],[99.49172,15.6679],[99.49088,15.6651],[99.49326,15.66179],[99.4932,15.66009],[99.49059,15.65862],[99.49216,15.65212],[99.49718,15.65072],[99.49769,15.64823],[99.50063,15.64762],[99.50096,15.64613],[99.50571,15.64568],[99.50959,15.6407],[99.51107,15.6281],[99.51001,15.62641],[99.51264,15.6227],[99.50476,15.61731],[99.50325,15.60881],[99.50401,15.60241],[99.49888,15.58612],[99.49694,15.5693],[99.48989,15.57004],[99.48957,15.56855],[99.48705,15.56882],[99.48134,15.564],[99.47799,15.56494],[99.47646,15.56395],[99.47436,15.56536],[99.47162,15.56396],[99.46964,15.56455],[99.46632,15.57495],[99.46227,15.5794],[99.46164,15.58228],[99.45698,15.58299],[99.45478,15.5815],[99.45006,15.59126],[99.44445,15.59198],[99.44134,15.59477],[99.44061,15.59811],[99.43546,15.59889],[99.42965,15.60543],[99.42878,15.60439],[99.42625,15.60501],[99.42624,15.60617],[99.42884,15.60612],[99.42886,15.60832],[99.42281,15.61428],[99.41773,15.614],[99.41594,15.61604],[99.39249,15.62442],[99.37932,15.6255],[99.37417,15.63288],[99.37625,15.63619],[99.368,15.64989],[99.36724,15.65494],[99.37001,15.6569],[99.36974,15.65992],[99.37192,15.66014],[99.37201,15.66357],[99.36782,15.66465],[99.36403,15.6688],[99.3604,15.67646],[99.3565,15.67842],[99.35454,15.68211],[99.34941,15.68227],[99.34494,15.68596],[99.33992,15.68497],[99.33309,15.69152],[99.32694,15.69117],[99.32108,15.68892],[99.31334,15.69393],[99.29682,15.6929],[99.29034,15.69784],[99.28855,15.7038],[99.28336,15.70731],[99.27683,15.71654],[99.27045,15.71681],[99.26716,15.71941],[99.26177,15.718],[99.24553,15.72232],[99.24349,15.72783],[99.23927,15.7322],[99.24031,15.73742],[99.2386,15.74225],[99.23457,15.74776],[99.23189,15.74689],[99.22759,15.7482],[99.22795,15.75293],[99.22566,15.75696],[99.2233,15.75882],[99.22041,15.76482],[99.21659,15.76658],[99.21349,15.77977],[99.21938,15.77994],[99.22385,15.79374],[99.22803,15.79732],[99.25044,15.78418],[99.25542,15.78432],[99.2569,15.78067],[99.26329,15.78104],[99.26605,15.77807],[99.26563,15.77422],[99.268,15.774],[99.26951,15.7718],[99.27829,15.76959],[99.28053,15.76581],[99.28426,15.76447],[99.28702,15.76096],[99.28861,15.76266],[99.29365,15.78326],[99.30328,15.78533],[99.30864,15.78483],[99.32389,15.78163],[99.34159,15.77543],[99.34253,15.7735],[99.34611,15.77325],[99.34742,15.76957],[99.35044,15.76683],[99.35889,15.76465],[99.36202,15.76154],[99.36044,15.75217],[99.3666,15.74967],[99.36591,15.74254],[99.36772,15.73803],[99.38148,15.73411],[99.38218,15.73287],[99.39352,15.73252],[99.39633,15.73038],[99.39712,15.73339],[99.40285,15.73549],[99.39985,15.73763],[99.40052,15.74202],[99.40452,15.744],[99.4076,15.74127],[99.40979,15.74132],[99.41493,15.74797],[99.42077,15.74565],[99.42801,15.75411],[99.43316,15.74968],[99.43421,15.74683],[99.43673,15.74658],[99.44456,15.73324],[99.44894,15.73442],[99.44979,15.7328],[99.4557,15.73214],[99.45649,15.73444],[99.46389,15.73079]]]}},{"type":"Feature","properties":{"shapeName":"แม่วงก์"},"geometry":{"type":"Polygon","coordinates":[[[99.19078,15.77943],[99.18699,15.78356],[99.17819,15.78125],[99.17411,15.78256],[99.16621,15.77802],[99.16388,15.7805],[99.16393,15.78897],[99.15895,15.79307],[99.1496,15.79303],[99.14727,15.79698],[99.13918,15.79652],[99.1337,15.79826],[99.1308,15.80707],[99.12372,15.81443],[99.11393,15.81717],[99.11325,15.81893],[99.10816,15.81909],[99.10328,15.82119],[99.1037,15.82727],[99.09681,15.83144],[99.09721,15.83478],[99.0956,15.83674],[99.09747,15.84381],[99.0964,15.84758],[99.09889,15.85365],[99.09479,15.85809],[99.09396,15.86119],[99.09749,15.87123],[99.09494,15.87555],[99.08818,15.87957],[99.08774,15.88312],[99.08612,15.8845],[99.08944,15.88554],[99.09249,15.8829],[99.09549,15.88263],[99.09992,15.8892],[99.10488,15.89092],[99.10712,15.89534],[99.11518,15.89992],[99.1285,15.91206],[99.13028,15.91171],[99.13043,15.90905],[99.13568,15.90758],[99.13759,15.90559],[99.14584,15.90778],[99.15311,15.91387],[99.15441,15.91661],[99.15337,15.91994],[99.15655,15.91985],[99.16166,15.92459],[99.16374,15.92394],[99.16417,15.92615],[99.17372,15.92825],[99.17242,15.93725],[99.17425,15.93685],[99.17577,15.93395],[99.17961,15.93335],[99.18617,15.92831],[99.19164,15.932],[99.19195,15.93759],[99.19452,15.93774],[99.19553,15.93961],[99.1946,15.94234],[99.19255,15.94287],[99.19428,15.94541],[99.20428,15.93628],[99.20467,15.9431],[99.20877,15.94838],[99.2104,15.94822],[99.21256,15.9441],[99.21748,15.94371],[99.21707,15.94166],[99.21353,15.93915],[99.21925,15.9367],[99.22065,15.93764],[99.22081,15.94477],[99.22275,15.94454],[99.22552,15.93675],[99.23126,15.93327],[99.23428,15.92824],[99.25195,15.917],[99.25839,15.91512],[99.26614,15.90756],[99.26795,15.90723],[99.26819,15.91214],[99.27114,15.91206],[99.27347,15.90843],[99.27388,15.90379],[99.27861,15.90309],[99.28121,15.89809],[99.28657,15.8969],[99.28958,15.8916],[99.29231,15.8937],[99.29212,15.9002],[99.2889,15.90175],[99.28997,15.90506],[99.29443,15.90292],[99.29511,15.90719],[99.29734,15.90893],[99.30197,15.90784],[99.30433,15.90369],[99.31,15.90439],[99.3118,15.90733],[99.31058,15.91788],[99.31298,15.91904],[99.3186,15.91676],[99.32011,15.91777],[99.31952,15.92739],[99.32761,15.92066],[99.32575,15.91611],[99.32957,15.91155],[99.33425,15.91175],[99.33597,15.91442],[99.3488,15.92276],[99.35818,15.92596],[99.37355,15.91542],[99.39175,15.91722],[99.39459,15.91461],[99.40172,15.91396],[99.4042,15.91061],[99.40855,15.91124],[99.41086,15.91015],[99.4153,15.91063],[99.41778,15.91501],[99.42056,15.91467],[99.42158,15.91736],[99.42561,15.92032],[99.42999,15.91492],[99.4311,15.90945],[99.43651,15.9111],[99.43945,15.90645],[99.44742,15.90242],[99.44927,15.9051],[99.45563,15.90417],[99.46054,15.90538],[99.46631,15.90068],[99.47696,15.90238],[99.47576,15.90623],[99.48155,15.9107],[99.47775,15.91982],[99.47917,15.92226],[99.49311,15.92428],[99.50201,15.92836],[99.51277,15.92338],[99.52377,15.92554],[99.5263,15.92178],[99.5312,15.92034],[99.53257,15.92451],[99.53845,15.92485],[99.54472,15.92069],[99.5463,15.92094],[99.54674,15.91895],[99.5498,15.91878],[99.54905,15.9165],[99.55418,15.91579],[99.55343,15.91184],[99.55593,15.90874],[99.55523,15.90702],[99.55909,15.90612],[99.56222,15.90715],[99.56462,15.9054],[99.56912,15.90593],[99.57058,15.90441],[99.57102,15.90576],[99.57267,15.90427],[99.57345,15.90586],[99.57588,15.90597],[99.57632,15.90462],[99.578,15.90552],[99.5812,15.90333],[99.58565,15.90676],[99.59424,15.90571],[99.59745,15.90358],[99.59882,15.89757],[99.60618,15.89864],[99.61021,15.89594],[99.60989,15.89398],[99.61196,15.89262],[99.61272,15.89358],[99.61659,15.89246],[99.62039,15.88793],[99.62239,15.88665],[99.62412,15.8873],[99.62523,15.88187],[99.62673,15.88129],[99.62905,15.8761],[99.6304,15.88107],[99.63379,15.88496],[99.63591,15.88542],[99.63778,15.88338],[99.64619,15.8859],[99.65817,15.87893],[99.66172,15.87515],[99.66176,15.87037],[99.65788,15.86215],[99.66243,15.85984],[99.66361,15.85531],[99.67521,15.86134],[99.68291,15.86317],[99.68657,15.86049],[99.68561,15.85472],[99.69246,15.84525],[99.69741,15.83477],[99.69732,15.82764],[99.6947,15.82347],[99.69173,15.82238],[99.68222,15.8133],[99.6761,15.81191],[99.67322,15.81543],[99.66346,15.81824],[99.65275,15.81003],[99.64592,15.80972],[99.64121,15.80771],[99.63978,15.79962],[99.6312,15.77668],[99.63212,15.77352],[99.62984,15.77249],[99.63395,15.76297],[99.63549,15.76348],[99.63386,15.75473],[99.64198,15.74895],[99.64205,15.73807],[99.64047,15.73334],[99.62186,15.72151],[99.61916,15.71512],[99.6137,15.71665],[99.61261,15.72145],[99.60815,15.72247],[99.607,15.72514],[99.6025,15.72639],[99.60128,15.72928],[99.59572,15.73438],[99.59046,15.73388],[99.58786,15.73592],[99.57649,15.7343],[99.57452,15.73681],[99.56841,15.73544],[99.56616,15.73617],[99.56343,15.7413],[99.56127,15.74067],[99.56092,15.7391],[99.55603,15.73847],[99.55273,15.74003],[99.54923,15.73717],[99.5412,15.7368],[99.53947,15.73497],[99.53445,15.73693],[99.52764,15.73632],[99.52384,15.73808],[99.52115,15.73776],[99.51998,15.73534],[99.51333,15.73457],[99.51398,15.73828],[99.51084,15.74079],[99.50715,15.74121],[99.50425,15.74532],[99.50731,15.76393],[99.4994,15.76761],[99.48693,15.76551],[99.48397,15.76662],[99.482,15.76531],[99.48155,15.76633],[99.47926,15.76394],[99.46556,15.76152],[99.46183,15.762],[99.45778,15.76495],[99.44921,15.76334],[99.4486,15.76111],[99.44585,15.75941],[99.44723,15.75637],[99.44686,15.74812],[99.44961,15.74495],[99.4587,15.74023],[99.4616,15.73555],[99.46476,15.73384],[99.46389,15.73079],[99.45649,15.73444],[99.4557,15.73214],[99.44979,15.7328],[99.44894,15.73442],[99.44456,15.73324],[99.43673,15.74658],[99.43421,15.74683],[99.43316,15.74968],[99.42801,15.75411],[99.42077,15.74565],[99.41493,15.74797],[99.40979,15.74132],[99.4076,15.74127],[99.40452,15.744],[99.40052,15.74202],[99.39985,15.73763],[99.40285,15.73549],[99.39712,15.73339],[99.39633,15.73038],[99.39352,15.73252],[99.38218,15.73287],[99.38148,15.73411],[99.36772,15.73803],[99.36591,15.74254],[99.3666,15.74967],[99.36044,15.75217],[99.36202,15.76154],[99.35889,15.76465],[99.35044,15.76683],[99.34742,15.76957],[99.34611,15.77325],[99.34253,15.7735],[99.34159,15.77543],[99.32389,15.78163],[99.30328,15.78533],[99.29365,15.78326],[99.28861,15.76266],[99.28702,15.76096],[99.28426,15.76447],[99.28053,15.76581],[99.27829,15.76959],[99.26951,15.7718],[99.268,15.774],[99.26563,15.77422],[99.26605,15.77807],[99.26329,15.78104],[99.2569,15.78067],[99.25542,15.78432],[99.25044,15.78418],[99.22803,15.79732],[99.22385,15.79374],[99.21938,15.77994],[99.21349,15.77977],[99.20345,15.78129],[99.19078,15.77943]]]}},{"type":"Feature","properties":{"shapeName":"เมืองนครสวรรค์"},"geometry":{"type":"Polygon","coordinates":[[[99.93025,15.83827],[99.93748,15.84418],[99.94775,15.84657],[99.95416,15.84581],[99.95688,15.84784],[99.95793,15.84324],[99.96296,15.84231],[99.96533,15.84337],[99.96836,15.84191],[99.97594,15.84878],[99.98027,15.84725],[99.98165,15.84819],[99.98587,15.84479],[99.98987,15.84752],[99.99321,15.84637],[99.9979,15.83976],[100.00256,15.83742],[100.00223,15.83463],[100.00538,15.83087],[100.00802,15.8321],[100.01103,15.83041],[100.02117,15.81831],[100.02608,15.82033],[100.02852,15.81815],[100.02898,15.81536],[100.04736,15.81693],[100.05202,15.81618],[100.05554,15.81172],[100.07891,15.81557],[100.08095,15.8079],[100.08781,15.81029],[100.09901,15.81094],[100.10175,15.81331],[100.11778,15.81649],[100.12369,15.81675],[100.12384,15.81499],[100.12651,15.81408],[100.12595,15.81985],[100.13307,15.81913],[100.13578,15.81724],[100.14211,15.81606],[100.15071,15.81588],[100.15453,15.81248],[100.15966,15.81168],[100.16118,15.8134],[100.16855,15.81229],[100.16982,15.81019],[100.17041,15.80478],[100.16645,15.80444],[100.16558,15.80312],[100.16532,15.79704],[100.16706,15.79367],[100.16091,15.79352],[100.16109,15.78378],[100.17067,15.78473],[100.17443,15.78291],[100.17624,15.78789],[100.18309,15.79116],[100.18656,15.78833],[100.19086,15.79035],[100.19848,15.78897],[100.21556,15.79211],[100.21739,15.78602],[100.2078,15.77029],[100.2078,15.76574],[100.20414,15.7558],[100.20697,15.75211],[100.21261,15.75103],[100.22213,15.73016],[100.22848,15.72141],[100.23588,15.71707],[100.23982,15.71227],[100.24742,15.69823],[100.27053,15.69704],[100.28896,15.69429],[100.2895,15.68293],[100.28822,15.67692],[100.28979,15.67224],[100.28949,15.66503],[100.28677,15.65605],[100.29539,15.65534],[100.29454,15.64553],[100.29682,15.64498],[100.29745,15.64258],[100.29635,15.63418],[100.30885,15.6329],[100.33849,15.59839],[100.33417,15.59526],[100.32871,15.58627],[100.32426,15.58188],[100.32011,15.58074],[100.31589,15.57472],[100.3121,15.57286],[100.30936,15.57359],[100.31051,15.56726],[100.30308,15.5648],[100.29628,15.56044],[100.29075,15.56513],[100.29018,15.57543],[100.27512,15.5747],[100.27465,15.58133],[100.27111,15.59143],[100.27278,15.60008],[100.27204,15.61347],[100.27007,15.61681],[100.26839,15.6265],[100.25708,15.62914],[100.25042,15.63327],[100.25222,15.63593],[100.24491,15.63531],[100.23989,15.6371],[100.23339,15.63598],[100.23206,15.63327],[100.22811,15.6331],[100.22615,15.63153],[100.21912,15.63185],[100.21567,15.62892],[100.21395,15.62485],[100.20992,15.62284],[100.20929,15.61998],[100.20245,15.61913],[100.20084,15.61509],[100.19408,15.60938],[100.19358,15.60552],[100.19548,15.6001],[100.19451,15.59581],[100.18894,15.59106],[100.18306,15.59432],[100.17933,15.59372],[100.17462,15.59684],[100.17109,15.59528],[100.16089,15.59869],[100.15853,15.59822],[100.15074,15.60406],[100.14318,15.60341],[100.14097,15.60534],[100.14129,15.60954],[100.1394,15.61757],[100.13656,15.61956],[100.12867,15.61971],[100.12924,15.6168],[100.11941,15.61541],[100.10441,15.61909],[100.09981,15.61749],[100.09705,15.61452],[100.09136,15.61296],[100.09232,15.60847],[100.08802,15.61027],[100.08453,15.60873],[100.08162,15.61043],[100.07897,15.62004],[100.07328,15.62449],[100.0662,15.623],[100.06425,15.6205],[100.05439,15.61648],[100.04679,15.61615],[100.03918,15.6191],[100.0333,15.62799],[100.03215,15.63742],[100.03703,15.64641],[100.04016,15.65625],[100.04203,15.65628],[100.04373,15.6542],[100.04633,15.64145],[100.0504,15.63514],[100.05786,15.63327],[100.06258,15.63717],[100.05829,15.65915],[100.06054,15.66665],[100.05856,15.66908],[100.05426,15.66807],[100.04839,15.67596],[100.04692,15.67414],[100.04513,15.67421],[100.04435,15.67533],[100.04583,15.67876],[100.04202,15.68128],[100.04043,15.6809],[100.03951,15.67799],[100.03131,15.67788],[100.03063,15.67604],[100.02694,15.67615],[100.02613,15.67488],[100.02276,15.6756],[100.02266,15.67347],[100.00449,15.67993],[99.9855,15.67518],[99.97865,15.6784],[99.97824,15.68015],[99.97218,15.68203],[99.96898,15.67512],[99.95944,15.67551],[99.95004,15.67353],[99.94763,15.6756],[99.93824,15.67635],[99.93248,15.67232],[99.93143,15.68096],[99.92717,15.68549],[99.93209,15.6947],[99.92966,15.70687],[99.93182,15.7132],[99.93695,15.71625],[99.94397,15.71759],[99.94584,15.7212],[99.94165,15.73467],[99.93326,15.74773],[99.93525,15.75863],[99.93795,15.76178],[99.93785,15.76672],[99.93721,15.7684],[99.93349,15.76859],[99.93417,15.77725],[99.92939,15.77838],[99.92253,15.78272],[99.90406,15.77761],[99.90547,15.78426],[99.90385,15.79318],[99.9071,15.799],[99.90001,15.79851],[99.9008,15.80566],[99.89884,15.81156],[99.89146,15.81302],[99.89892,15.8251],[99.90156,15.8258],[99.9061,15.83085],[99.9193,15.83648],[99.92766,15.83691],[99.93025,15.83827]]]}},{"type":"Feature","properties":{"shapeName":"หนองบัว"},"geometry":{"type":"Polygon","coordinates":[[[100.46074,15.93839],[100.47887,15.93452],[100.48791,15.93504],[100.49464,15.93783],[100.51502,15.93782],[100.51923,15.9402],[100.53007,15.93734],[100.5277,15.93271],[100.52168,15.93175],[100.52101,15.92795],[100.52215,15.92663],[100.51959,15.92548],[100.51961,15.92325],[100.52277,15.91898],[100.52445,15.91948],[100.52537,15.92209],[100.53075,15.92192],[100.53444,15.92569],[100.5369,15.92397],[100.54016,15.92758],[100.54311,15.92743],[100.5433,15.92538],[100.54528,15.9253],[100.55017,15.92981],[100.55044,15.93381],[100.55464,15.93186],[100.55741,15.9339],[100.56319,15.94429],[100.56653,15.94321],[100.56882,15.94454],[100.56989,15.94336],[100.57132,15.9463],[100.57583,15.94443],[100.57918,15.94598],[100.58049,15.94519],[100.57999,15.94953],[100.58155,15.94923],[100.58396,15.95242],[100.58331,15.95347],[100.58542,15.95401],[100.58569,15.95911],[100.58843,15.96041],[100.58839,15.96338],[100.59132,15.9644],[100.59393,15.96826],[100.59664,15.96803],[100.59773,15.97008],[100.60148,15.97004],[100.60896,15.97917],[100.61162,15.9792],[100.61139,15.98217],[100.61688,15.98336],[100.62128,15.99241],[100.62516,15.99498],[100.62417,15.99819],[100.62552,16.00254],[100.62832,16.00434],[100.63732,16.00598],[100.63709,16.01017],[100.63931,16.01391],[100.65415,16.02688],[100.66377,16.013],[100.69003,15.99344],[100.70271,15.98976],[100.71871,15.98883],[100.73025,15.99091],[100.73799,15.98987],[100.73895,15.98636],[100.74251,15.9858],[100.74375,15.98119],[100.74625,15.98012],[100.74557,15.97417],[100.7504,15.96914],[100.75006,15.95682],[100.7541,15.95087],[100.75494,15.94308],[100.76312,15.93724],[100.7658,15.93766],[100.76787,15.93461],[100.76257,15.92306],[100.76411,15.91088],[100.76963,15.90243],[100.77663,15.8974],[100.78183,15.8976],[100.7838,15.8953],[100.7961,15.8927],[100.80002,15.88952],[100.80979,15.88536],[100.80451,15.86844],[100.8081,15.86648],[100.80975,15.86001],[100.81155,15.85814],[100.81118,15.85564],[100.80857,15.85337],[100.809,15.84586],[100.80661,15.84321],[100.80665,15.84071],[100.80919,15.83866],[100.80738,15.83675],[100.80805,15.8348],[100.8034,15.83478],[100.80375,15.83127],[100.79873,15.83011],[100.79841,15.82594],[100.81262,15.78097],[100.80075,15.78023],[100.79313,15.78271],[100.78595,15.7826],[100.78317,15.78053],[100.77993,15.78065],[100.77538,15.77522],[100.7703,15.77197],[100.76842,15.76768],[100.76498,15.76786],[100.76335,15.76495],[100.75239,15.76738],[100.74732,15.76537],[100.73924,15.76669],[100.73756,15.76569],[100.7337,15.76877],[100.73102,15.76674],[100.72818,15.7666],[100.7266,15.76835],[100.72004,15.76806],[100.7154,15.7709],[100.70946,15.76869],[100.70857,15.76944],[100.7058,15.7672],[100.70125,15.76823],[100.70102,15.76977],[100.69554,15.7692],[100.69388,15.77057],[100.68993,15.76914],[100.68818,15.76687],[100.67789,15.76774],[100.67013,15.76546],[100.66121,15.76712],[100.65585,15.76956],[100.65446,15.77158],[100.65142,15.77025],[100.64351,15.7724],[100.64268,15.76805],[100.63817,15.76406],[100.63823,15.76174],[100.62905,15.75313],[100.6256,15.75177],[100.62277,15.74444],[100.62085,15.74495],[100.61792,15.7406],[100.61333,15.7423],[100.61008,15.73913],[100.60541,15.73894],[100.5985,15.74151],[100.59294,15.74688],[100.59247,15.74962],[100.58914,15.74999],[100.59065,15.75636],[100.59292,15.75644],[100.59356,15.75863],[100.58832,15.76048],[100.58622,15.75802],[100.58117,15.75635],[100.57553,15.75784],[100.56991,15.75676],[100.56402,15.74988],[100.55772,15.75195],[100.55541,15.7509],[100.55402,15.75223],[100.54549,15.74858],[100.54411,15.74965],[100.54023,15.74666],[100.53152,15.74925],[100.52853,15.75311],[100.52347,15.75621],[100.51824,15.76367],[100.51701,15.76817],[100.51158,15.77382],[100.50472,15.78573],[100.49655,15.78608],[100.48798,15.79335],[100.4846,15.81425],[100.46719,15.81803],[100.4696,15.82703],[100.44127,15.83172],[100.43582,15.82807],[100.42754,15.82664],[100.4256,15.82427],[100.41935,15.82559],[100.41313,15.82253],[100.40706,15.82308],[100.40286,15.84155],[100.4033,15.84522],[100.40813,15.84978],[100.40854,15.86716],[100.41363,15.86919],[100.41354,15.87327],[100.41778,15.87774],[100.43139,15.88687],[100.43657,15.89686],[100.43941,15.90959],[100.44988,15.92229],[100.46082,15.92701],[100.46074,15.93839]]]}},{"type":"Feature","properties":{"shapeName":"ไพศาลี"},"geometry":{"type":"Polygon","coordinates":[[[100.81262,15.78097],[100.82484,15.75018],[100.81919,15.73549],[100.81952,15.72578],[100.82087,15.7228],[100.81744,15.70752],[100.82312,15.69868],[100.82554,15.68481],[100.83347,15.68072],[100.83215,15.67778],[100.82581,15.67568],[100.82815,15.6666],[100.82727,15.66404],[100.8231,15.66198],[100.82741,15.64466],[100.81946,15.6276],[100.82274,15.62193],[100.82296,15.6172],[100.82562,15.61506],[100.81732,15.60407],[100.81689,15.60142],[100.81112,15.60183],[100.80783,15.5928],[100.81833,15.58581],[100.81344,15.57801],[100.82117,15.57494],[100.82482,15.57137],[100.82574,15.56712],[100.82808,15.56662],[100.83097,15.56263],[100.81524,15.55252],[100.8063,15.54881],[100.79064,15.53772],[100.78149,15.53763],[100.77607,15.534],[100.76943,15.53402],[100.76544,15.52901],[100.75829,15.52562],[100.75985,15.52282],[100.75918,15.51893],[100.75538,15.51591],[100.74599,15.51329],[100.75146,15.50724],[100.75081,15.50479],[100.75292,15.50158],[100.76602,15.49927],[100.76881,15.49635],[100.77064,15.49111],[100.7662,15.48452],[100.76903,15.47435],[100.76856,15.47167],[100.77168,15.46639],[100.76974,15.46303],[100.76224,15.46075],[100.76165,15.46191],[100.7579,15.45789],[100.74892,15.45858],[100.74263,15.4517],[100.74073,15.45193],[100.73992,15.4505],[100.73923,15.45134],[100.73872,15.44986],[100.73512,15.45],[100.73372,15.4471],[100.7285,15.44735],[100.7256,15.4499],[100.72355,15.4488],[100.7237,15.44635],[100.72147,15.44647],[100.72148,15.44837],[100.71721,15.44758],[100.71671,15.44581],[100.71565,15.44664],[100.7147,15.44561],[100.71492,15.44351],[100.70968,15.44008],[100.70782,15.44119],[100.70529,15.43942],[100.70194,15.44007],[100.69689,15.44472],[100.6935,15.44414],[100.69048,15.44634],[100.68795,15.44683],[100.68724,15.45012],[100.67923,15.45262],[100.67619,15.45142],[100.66677,15.43308],[100.65889,15.43538],[100.65859,15.43208],[100.66016,15.43076],[100.65863,15.42746],[100.65639,15.4253],[100.65301,15.42523],[100.64928,15.42155],[100.64889,15.41937],[100.64381,15.41754],[100.64378,15.41405],[100.64597,15.41211],[100.64363,15.40767],[100.64619,15.40335],[100.64573,15.40057],[100.64366,15.39913],[100.64458,15.39667],[100.64288,15.39552],[100.64528,15.38933],[100.64262,15.38132],[100.64221,15.37263],[100.64082,15.37283],[100.63948,15.3695],[100.63209,15.36159],[100.63425,15.35638],[100.63525,15.34579],[100.63349,15.34054],[100.63157,15.3417],[100.62988,15.34039],[100.62053,15.34212],[100.61762,15.33813],[100.6109,15.33434],[100.60547,15.3362],[100.60416,15.34084],[100.59913,15.34257],[100.59958,15.34545],[100.59803,15.3476],[100.59475,15.34797],[100.59552,15.35657],[100.59773,15.35802],[100.59344,15.36299],[100.59702,15.36757],[100.5967,15.37211],[100.59838,15.37666],[100.59024,15.38246],[100.58942,15.38932],[100.59222,15.39081],[100.59347,15.39482],[100.60201,15.39822],[100.6041,15.4031],[100.59952,15.4029],[100.59784,15.40433],[100.59508,15.40203],[100.58985,15.40347],[100.58722,15.40005],[100.58251,15.39751],[100.57648,15.39966],[100.56236,15.39984],[100.55322,15.404],[100.54809,15.39488],[100.54838,15.38695],[100.54613,15.38197],[100.54157,15.38199],[100.53963,15.37866],[100.53503,15.38254],[100.52996,15.39031],[100.52354,15.39124],[100.51891,15.39668],[100.51155,15.40106],[100.51302,15.40668],[100.5226,15.41087],[100.52612,15.41715],[100.52568,15.41997],[100.52759,15.42514],[100.52397,15.42945],[100.52,15.4314],[100.52752,15.45536],[100.53647,15.46005],[100.55636,15.46362],[100.55593,15.46706],[100.55307,15.47124],[100.55393,15.47467],[100.55252,15.47439],[100.55111,15.47808],[100.55742,15.4956],[100.54935,15.49764],[100.54928,15.499],[100.54703,15.49966],[100.54049,15.49906],[100.54605,15.51874],[100.55338,15.51922],[100.56068,15.52345],[100.56657,15.52436],[100.57316,15.53415],[100.57719,15.54397],[100.57889,15.5787],[100.57685,15.60696],[100.56598,15.60686],[100.56168,15.6051],[100.56057,15.60671],[100.5565,15.60663],[100.54907,15.61335],[100.55087,15.6267],[100.55639,15.64741],[100.56815,15.67315],[100.58909,15.70653],[100.61152,15.73526],[100.61792,15.7406],[100.62085,15.74495],[100.62277,15.74444],[100.6256,15.75177],[100.62905,15.75313],[100.63823,15.76174],[100.63817,15.76406],[100.64268,15.76805],[100.64351,15.7724],[100.65142,15.77025],[100.65446,15.77158],[100.65585,15.76956],[100.66121,15.76712],[100.67013,15.76546],[100.67789,15.76774],[100.68818,15.76687],[100.68993,15.76914],[100.69388,15.77057],[100.69554,15.7692],[100.70102,15.76977],[100.70125,15.76823],[100.7058,15.7672],[100.70857,15.76944],[100.70946,15.76869],[100.7154,15.7709],[100.72004,15.76806],[100.7266,15.76835],[100.72818,15.7666],[100.73102,15.76674],[100.7337,15.76877],[100.73756,15.76569],[100.73924,15.76669],[100.74732,15.76537],[100.75239,15.76738],[100.76335,15.76495],[100.76498,15.76786],[100.76842,15.76768],[100.7703,15.77197],[100.77538,15.77522],[100.77993,15.78065],[100.78317,15.78053],[100.78595,15.7826],[100.79313,15.78271],[100.80075,15.78023],[100.81262,15.78097]]]}},{"type":"Feature","properties":{"shapeName":"พยุหะคีรี"},"geometry":{"type":"Polygon","coordinates":[[[100.03458,15.5104],[100.04095,15.51444],[100.04394,15.5214],[100.04714,15.5233],[100.04537,15.52637],[100.05151,15.53278],[100.05626,15.53396],[100.05745,15.53303],[100.06974,15.53708],[100.07329,15.53971],[100.07937,15.5401],[100.08038,15.54125],[100.08587,15.54141],[100.09116,15.5386],[100.1041,15.54749],[100.10606,15.55049],[100.11616,15.55819],[100.11952,15.56677],[100.13936,15.57065],[100.13915,15.58179],[100.14094,15.58385],[100.13901,15.5855],[100.13948,15.59134],[100.13484,15.6013],[100.13661,15.60568],[100.14129,15.60954],[100.14097,15.60534],[100.14318,15.60341],[100.15074,15.60406],[100.15853,15.59822],[100.16089,15.59869],[100.17109,15.59528],[100.17462,15.59684],[100.17933,15.59372],[100.18306,15.59432],[100.18894,15.59106],[100.19451,15.59581],[100.19548,15.6001],[100.19358,15.60552],[100.19408,15.60938],[100.20084,15.61509],[100.20245,15.61913],[100.20929,15.61998],[100.20992,15.62284],[100.21395,15.62485],[100.21567,15.62892],[100.21912,15.63185],[100.22615,15.63153],[100.22811,15.6331],[100.23206,15.63327],[100.23339,15.63598],[100.23989,15.6371],[100.24491,15.63531],[100.25222,15.63593],[100.25042,15.63327],[100.25708,15.62914],[100.26839,15.6265],[100.27007,15.61681],[100.27204,15.61347],[100.27278,15.60008],[100.27111,15.59143],[100.27465,15.58133],[100.27512,15.5747],[100.29018,15.57543],[100.29075,15.56513],[100.29628,15.56044],[100.30308,15.5648],[100.31051,15.56726],[100.30936,15.57359],[100.3121,15.57286],[100.31589,15.57472],[100.32011,15.58074],[100.32426,15.58188],[100.32871,15.58627],[100.33417,15.59526],[100.33849,15.59839],[100.34908,15.58739],[100.38366,15.59382],[100.38146,15.58479],[100.38439,15.57295],[100.40129,15.54839],[100.41001,15.5383],[100.40524,15.5314],[100.40061,15.52059],[100.39879,15.52041],[100.39139,15.51372],[100.38282,15.51034],[100.38001,15.50435],[100.3762,15.50274],[100.37675,15.49759],[100.37063,15.49698],[100.35737,15.48395],[100.34713,15.4684],[100.34519,15.46967],[100.34359,15.46508],[100.34192,15.46535],[100.34128,15.46355],[100.33671,15.46466],[100.33415,15.45993],[100.3317,15.46024],[100.32772,15.45823],[100.32741,15.4542],[100.31828,15.45261],[100.29193,15.45413],[100.28843,15.45034],[100.27863,15.44891],[100.27604,15.44483],[100.24592,15.42984],[100.24454,15.41641],[100.24542,15.41339],[100.24283,15.41212],[100.24411,15.4107],[100.2293,15.39893],[100.22533,15.39695],[100.22059,15.39815],[100.21917,15.39269],[100.21805,15.39297],[100.21547,15.38599],[100.21627,15.38446],[100.21436,15.37553],[100.22224,15.36805],[100.21785,15.36338],[100.20498,15.36669],[100.20372,15.36941],[100.19658,15.37178],[100.19296,15.37472],[100.18268,15.37646],[100.18322,15.37965],[100.18056,15.38076],[100.17823,15.3792],[100.16192,15.38093],[100.15812,15.38655],[100.15015,15.38864],[100.14933,15.39026],[100.14393,15.39042],[100.14614,15.39376],[100.14273,15.39463],[100.14004,15.40434],[100.1304,15.40463],[100.12482,15.41241],[100.11433,15.41333],[100.10187,15.41736],[100.09349,15.4234],[100.07743,15.42694],[100.05972,15.4255],[100.05439,15.42382],[100.05758,15.42945],[100.05701,15.43126],[100.06033,15.43333],[100.06266,15.43848],[100.05584,15.44205],[100.04925,15.44298],[100.04768,15.44702],[100.04887,15.45438],[100.04686,15.457],[100.04486,15.45685],[100.03879,15.4618],[100.03502,15.46086],[100.02777,15.46561],[100.0267,15.46875],[100.02493,15.46945],[100.02321,15.46804],[100.02171,15.47103],[100.01828,15.47129],[100.01691,15.47339],[100.01565,15.47174],[100.01303,15.4732],[100.02129,15.47866],[100.02408,15.48234],[100.02483,15.4872],[100.02876,15.49178],[100.02853,15.49673],[100.03458,15.5104]]]}},{"type":"Feature","properties":{"shapeName":"ตากฟ้า"},"geometry":{"type":"Polygon","coordinates":[[[100.62988,15.34039],[100.63032,15.33285],[100.63443,15.32856],[100.6335,15.32362],[100.6279,15.32245],[100.622,15.31903],[100.62306,15.31363],[100.61463,15.30856],[100.61322,15.29771],[100.61249,15.29599],[100.61105,15.2963],[100.61121,15.29474],[100.60899,15.2951],[100.60888,15.29338],[100.60718,15.29285],[100.60494,15.29327],[100.60472,15.29169],[100.60293,15.29216],[100.60051,15.2889],[100.59814,15.29014],[100.59329,15.28773],[100.59725,15.27938],[100.59011,15.26886],[100.58686,15.26829],[100.58598,15.26971],[100.58255,15.26557],[100.58082,15.26679],[100.57939,15.26609],[100.57724,15.26271],[100.58009,15.27656],[100.57101,15.27861],[100.56864,15.28255],[100.55704,15.28079],[100.54573,15.28239],[100.54193,15.28428],[100.53141,15.2807],[100.52972,15.27703],[100.52793,15.27677],[100.52487,15.27303],[100.52393,15.26805],[100.52091,15.27122],[100.51812,15.26861],[100.51563,15.26935],[100.5099,15.26612],[100.49528,15.26588],[100.49116,15.25913],[100.48337,15.25845],[100.48028,15.25948],[100.46931,15.25723],[100.46758,15.26123],[100.46353,15.25639],[100.45658,15.25488],[100.45654,15.25036],[100.45439,15.24694],[100.44966,15.24627],[100.44934,15.24171],[100.44726,15.23858],[100.4402,15.24103],[100.42935,15.23983],[100.42914,15.23856],[100.42643,15.23804],[100.42338,15.23861],[100.42102,15.25202],[100.41578,15.25739],[100.4203,15.26263],[100.42257,15.28989],[100.42813,15.29403],[100.42606,15.30064],[100.41876,15.30759],[100.41616,15.30827],[100.40967,15.3067],[100.4049,15.31285],[100.39684,15.31597],[100.39933,15.3192],[100.40209,15.31997],[100.40092,15.32285],[100.409,15.32669],[100.4118,15.33034],[100.41371,15.33013],[100.415,15.33282],[100.41455,15.33481],[100.40594,15.34375],[100.40722,15.34828],[100.40684,15.35979],[100.40912,15.37003],[100.41344,15.37582],[100.41337,15.37952],[100.42076,15.38273],[100.42276,15.39079],[100.42208,15.39467],[100.41862,15.3997],[100.41728,15.41517],[100.41522,15.41741],[100.41571,15.42119],[100.40837,15.42136],[100.40089,15.42379],[100.39401,15.42286],[100.39041,15.42432],[100.38218,15.42241],[100.36743,15.42926],[100.36552,15.43172],[100.35666,15.43419],[100.34963,15.43382],[100.35172,15.43852],[100.34975,15.4449],[100.33746,15.44688],[100.33626,15.44933],[100.33442,15.44791],[100.32741,15.4542],[100.32772,15.45823],[100.3317,15.46024],[100.33415,15.45993],[100.33671,15.46466],[100.34128,15.46355],[100.34192,15.46535],[100.34359,15.46508],[100.34519,15.46967],[100.34713,15.4684],[100.35737,15.48395],[100.37063,15.49698],[100.37675,15.49759],[100.3762,15.50274],[100.38001,15.50435],[100.38282,15.51034],[100.39139,15.51372],[100.39879,15.52041],[100.40061,15.52059],[100.40524,15.5314],[100.41001,15.5383],[100.42133,15.53636],[100.42641,15.52919],[100.4372,15.52756],[100.43873,15.52971],[100.45361,15.53029],[100.47108,15.5351],[100.47441,15.52797],[100.4753,15.51816],[100.47948,15.51518],[100.48651,15.51286],[100.49486,15.50694],[100.49718,15.50014],[100.49699,15.49557],[100.49328,15.49147],[100.48997,15.49179],[100.49037,15.49015],[100.48841,15.4878],[100.4846,15.48676],[100.48069,15.4793],[100.48182,15.47464],[100.48103,15.47091],[100.48268,15.46828],[100.48181,15.46692],[100.48374,15.46427],[100.4822,15.46309],[100.48273,15.46122],[100.48787,15.45934],[100.48865,15.4575],[100.48696,15.45661],[100.48685,15.45222],[100.48972,15.44996],[100.48968,15.44817],[100.49224,15.44829],[100.49265,15.44434],[100.4996,15.44224],[100.50145,15.43992],[100.50063,15.43553],[100.50158,15.42862],[100.50297,15.4278],[100.50225,15.42386],[100.50486,15.42094],[100.50335,15.41615],[100.5039,15.41285],[100.50836,15.4073],[100.51302,15.40668],[100.51155,15.40106],[100.51891,15.39668],[100.52354,15.39124],[100.52996,15.39031],[100.53503,15.38254],[100.53963,15.37866],[100.54157,15.38199],[100.54613,15.38197],[100.54838,15.38695],[100.54809,15.39488],[100.55322,15.404],[100.56236,15.39984],[100.57648,15.39966],[100.58251,15.39751],[100.58722,15.40005],[100.58985,15.40347],[100.59508,15.40203],[100.59784,15.40433],[100.59952,15.4029],[100.6041,15.4031],[100.60201,15.39822],[100.59347,15.39482],[100.59222,15.39081],[100.58942,15.38932],[100.59024,15.38246],[100.59838,15.37666],[100.5967,15.37211],[100.59702,15.36757],[100.59344,15.36299],[100.59773,15.35802],[100.59552,15.35657],[100.59475,15.34797],[100.59803,15.3476],[100.59958,15.34545],[100.59913,15.34257],[100.60416,15.34084],[100.60547,15.3362],[100.6109,15.33434],[100.61762,15.33813],[100.62053,15.34212],[100.62988,15.34039]]]}},{"type":"Feature","properties":{"shapeName":"ตาคลี"},"geometry":{"type":"Polygon","coordinates":[[[100.62022,15.24271],[100.61512,15.24131],[100.61072,15.24468],[100.6055,15.24404],[100.59122,15.24742],[100.58398,15.24263],[100.58227,15.23868],[100.59051,15.23227],[100.59022,15.22965],[100.58751,15.22722],[100.58395,15.22643],[100.57319,15.21159],[100.54904,15.18914],[100.54002,15.18515],[100.5319,15.18363],[100.52977,15.17808],[100.52501,15.17228],[100.52178,15.16153],[100.51815,15.15501],[100.51847,15.14743],[100.5167,15.14511],[100.51448,15.1451],[100.5147,15.14144],[100.50696,15.13039],[100.49917,15.12811],[100.49389,15.12368],[100.49329,15.12058],[100.49154,15.12105],[100.48365,15.11729],[100.48152,15.11256],[100.47497,15.10676],[100.46668,15.11526],[100.45913,15.11635],[100.45783,15.10409],[100.45275,15.10368],[100.44362,15.08922],[100.44341,15.08378],[100.43609,15.07379],[100.43216,15.07149],[100.42749,15.06109],[100.42443,15.05163],[100.37491,15.08666],[100.35464,15.09672],[100.35312,15.10132],[100.35598,15.11764],[100.35462,15.12052],[100.35152,15.11841],[100.35069,15.1234],[100.34925,15.12344],[100.3455,15.12906],[100.33983,15.15062],[100.31966,15.15818],[100.31156,15.16844],[100.30245,15.17328],[100.2979,15.18071],[100.29369,15.19427],[100.29541,15.19448],[100.29225,15.21822],[100.27432,15.22431],[100.27448,15.23966],[100.27667,15.246],[100.27815,15.24605],[100.27851,15.24978],[100.2688,15.25377],[100.26886,15.26763],[100.26503,15.26841],[100.26704,15.27612],[100.26607,15.27876],[100.26231,15.27953],[100.26298,15.28728],[100.25788,15.29121],[100.25365,15.29131],[100.25512,15.29734],[100.25078,15.30269],[100.2515,15.30579],[100.25468,15.30894],[100.2628,15.31324],[100.2631,15.31657],[100.26499,15.31864],[100.26505,15.32328],[100.26092,15.33183],[100.26203,15.3344],[100.26,15.33689],[100.26078,15.33983],[100.25256,15.34882],[100.25046,15.34921],[100.25045,15.35505],[100.24139,15.35919],[100.22978,15.36166],[100.22466,15.36546],[100.22251,15.35875],[100.21546,15.35904],[100.21785,15.36338],[100.22224,15.36805],[100.21436,15.37553],[100.21627,15.38446],[100.21547,15.38599],[100.21805,15.39297],[100.21917,15.39269],[100.22059,15.39815],[100.22533,15.39695],[100.2293,15.39893],[100.24411,15.4107],[100.24283,15.41212],[100.24542,15.41339],[100.24454,15.41641],[100.24592,15.42984],[100.27604,15.44483],[100.27863,15.44891],[100.28843,15.45034],[100.29193,15.45413],[100.31828,15.45261],[100.32741,15.4542],[100.33442,15.44791],[100.33626,15.44933],[100.33746,15.44688],[100.34975,15.4449],[100.35172,15.43852],[100.34963,15.43382],[100.35666,15.43419],[100.36552,15.43172],[100.36743,15.42926],[100.38218,15.42241],[100.39041,15.42432],[100.39401,15.42286],[100.40089,15.42379],[100.40837,15.42136],[100.41571,15.42119],[100.41522,15.41741],[100.41728,15.41517],[100.41862,15.3997],[100.42208,15.39467],[100.42276,15.39079],[100.42076,15.38273],[100.41337,15.37952],[100.41344,15.37582],[100.40912,15.37003],[100.40684,15.35979],[100.40722,15.34828],[100.40594,15.34375],[100.41455,15.33481],[100.415,15.33282],[100.41371,15.33013],[100.4118,15.33034],[100.409,15.32669],[100.40092,15.32285],[100.40209,15.31997],[100.39933,15.3192],[100.39684,15.31597],[100.4049,15.31285],[100.40967,15.3067],[100.41616,15.30827],[100.41876,15.30759],[100.42606,15.30064],[100.42813,15.29403],[100.42257,15.28989],[100.4203,15.26263],[100.41578,15.25739],[100.42102,15.25202],[100.42338,15.23861],[100.42643,15.23804],[100.42914,15.23856],[100.42935,15.23983],[100.4402,15.24103],[100.44726,15.23858],[100.44934,15.24171],[100.44966,15.24627],[100.45439,15.24694],[100.45654,15.25036],[100.45658,15.25488],[100.46353,15.25639],[100.46758,15.26123],[100.46931,15.25723],[100.48028,15.25948],[100.48337,15.25845],[100.49116,15.25913],[100.49528,15.26588],[100.5099,15.26612],[100.51563,15.26935],[100.51812,15.26861],[100.52091,15.27122],[100.52393,15.26805],[100.52487,15.27303],[100.52793,15.27677],[100.52972,15.27703],[100.53141,15.2807],[100.54193,15.28428],[100.54573,15.28239],[100.55704,15.28079],[100.56864,15.28255],[100.57101,15.27861],[100.58009,15.27656],[100.57724,15.26271],[100.57939,15.26609],[100.58082,15.26679],[100.58255,15.26557],[100.58598,15.26971],[100.58686,15.26829],[100.59011,15.26886],[100.59055,15.26772],[100.59561,15.26699],[100.5974,15.26392],[100.60125,15.26154],[100.60208,15.257],[100.60408,15.25659],[100.60902,15.25107],[100.6176,15.24649],[100.62022,15.24271]]]}},{"type":"Feature","properties":{"shapeName":"ท่าตะโก"},"geometry":{"type":"Polygon","coordinates":[[[100.28896,15.69429],[100.2963,15.6929],[100.30057,15.69354],[100.29957,15.69868],[100.30244,15.70355],[100.31096,15.70723],[100.31573,15.72158],[100.32005,15.72547],[100.32839,15.74209],[100.32759,15.75019],[100.31525,15.76201],[100.31344,15.76632],[100.31391,15.77077],[100.33053,15.77368],[100.33827,15.77679],[100.36168,15.79764],[100.36936,15.79964],[100.37492,15.79927],[100.39083,15.81296],[100.39779,15.81746],[100.40029,15.81763],[100.40706,15.82308],[100.41313,15.82253],[100.41935,15.82559],[100.4256,15.82427],[100.42754,15.82664],[100.43582,15.82807],[100.44127,15.83172],[100.4696,15.82703],[100.46719,15.81803],[100.4846,15.81425],[100.48798,15.79335],[100.49655,15.78608],[100.50472,15.78573],[100.51158,15.77382],[100.51701,15.76817],[100.51824,15.76367],[100.52347,15.75621],[100.52853,15.75311],[100.53152,15.74925],[100.54023,15.74666],[100.54411,15.74965],[100.54549,15.74858],[100.55402,15.75223],[100.55541,15.7509],[100.55772,15.75195],[100.56402,15.74988],[100.56991,15.75676],[100.57553,15.75784],[100.58117,15.75635],[100.58622,15.75802],[100.58832,15.76048],[100.59356,15.75863],[100.59292,15.75644],[100.59065,15.75636],[100.58914,15.74999],[100.59247,15.74962],[100.59294,15.74688],[100.5985,15.74151],[100.60541,15.73894],[100.61008,15.73913],[100.61333,15.7423],[100.61792,15.7406],[100.61152,15.73526],[100.58909,15.70653],[100.56815,15.67315],[100.55639,15.64741],[100.55087,15.6267],[100.54907,15.61335],[100.5565,15.60663],[100.56057,15.60671],[100.56168,15.6051],[100.56598,15.60686],[100.57685,15.60696],[100.57889,15.5787],[100.57719,15.54397],[100.57316,15.53415],[100.56657,15.52436],[100.56068,15.52345],[100.55338,15.51922],[100.54605,15.51874],[100.54049,15.49906],[100.54703,15.49966],[100.54928,15.499],[100.54935,15.49764],[100.55742,15.4956],[100.55111,15.47808],[100.55252,15.47439],[100.55393,15.47467],[100.55307,15.47124],[100.55593,15.46706],[100.55636,15.46362],[100.53647,15.46005],[100.52752,15.45536],[100.52,15.4314],[100.52397,15.42945],[100.52759,15.42514],[100.52568,15.41997],[100.52612,15.41715],[100.5226,15.41087],[100.51302,15.40668],[100.50836,15.4073],[100.5039,15.41285],[100.50335,15.41615],[100.50486,15.42094],[100.50225,15.42386],[100.50297,15.4278],[100.50158,15.42862],[100.50063,15.43553],[100.50145,15.43992],[100.4996,15.44224],[100.49265,15.44434],[100.49224,15.44829],[100.48968,15.44817],[100.48972,15.44996],[100.48685,15.45222],[100.48696,15.45661],[100.48865,15.4575],[100.48787,15.45934],[100.48273,15.46122],[100.4822,15.46309],[100.48374,15.46427],[100.48181,15.46692],[100.48268,15.46828],[100.48103,15.47091],[100.48182,15.47464],[100.48069,15.4793],[100.4846,15.48676],[100.48841,15.4878],[100.49037,15.49015],[100.48997,15.49179],[100.49328,15.49147],[100.49699,15.49557],[100.49718,15.50014],[100.49486,15.50694],[100.48651,15.51286],[100.47948,15.51518],[100.4753,15.51816],[100.47441,15.52797],[100.47108,15.5351],[100.45361,15.53029],[100.43873,15.52971],[100.4372,15.52756],[100.42641,15.52919],[100.42133,15.53636],[100.41001,15.5383],[100.40129,15.54839],[100.38439,15.57295],[100.38146,15.58479],[100.38366,15.59382],[100.34908,15.58739],[100.33849,15.59839],[100.30885,15.6329],[100.29635,15.63418],[100.29745,15.64258],[100.29682,15.64498],[100.29454,15.64553],[100.29539,15.65534],[100.28677,15.65605],[100.28949,15.66503],[100.28979,15.67224],[100.28822,15.67692],[100.2895,15.68293],[100.28896,15.69429]]]}}]}