{"type":"FeatureCollection","features":[{"type":"Feature","properties":{"shapeName":"Nakhon Sawan Province"},"geometry":{"type":"Polygon","coordinates":[[[99.08899,15.88747],[99.09609,15.88458],[99.10016,15.89061],[99.1072,15.89399],[99.10753,15.89727],[99.11359,15.8996],[99.1236,15.90916],[99.12578,15.9125],[99.12908,15.9143],[99.13326,15.91031],[99.13968,15.90752],[99.14852,15.91071],[99.15349,15.91526],[99.1534,15.92125],[99.15752,15.92177],[99.16415,15.92716],[99.17378,15.9301],[99.17226,15.93717],[99.1736,15.93715],[99.17576,15.9344],[99.17905,15.93358],[99.18459,15.92873],[99.18607,15.92845],[99.19094,15.93165],[99.19202,15.93335],[99.19168,15.93721],[99.19442,15.93786],[99.1956,15.93957],[99.19488,15.94204],[99.19253,15.94286],[99.19312,15.94484],[99.19406,15.94541],[99.19729,15.94313],[99.19883,15.94014],[99.20165,15.93884],[99.20316,15.9366],[99.20447,15.93631],[99.20484,15.94283],[99.20636,15.94629],[99.20861,15.94843],[99.21068,15.94759],[99.21188,15.94441],[99.21704,15.94387],[99.21716,15.94154],[99.21379,15.94022],[99.21347,15.93905],[99.21886,15.93682],[99.22065,15.93811],[99.2206,15.94417],[99.22097,15.9449],[99.22229,15.94477],[99.2239,15.94271],[99.22538,15.93706],[99.23165,15.93273],[99.23353,15.92892],[99.23847,15.92639],[99.24239,15.92233],[99.25193,15.91728],[99.25836,15.91515],[99.26617,15.90743],[99.26768,15.9071],[99.26848,15.91228],[99.27006,15.91259],[99.27126,15.91191],[99.27357,15.90803],[99.2742,15.90373],[99.27823,15.90329],[99.28126,15.89807],[99.28686,15.89663],[99.2897,15.89174],[99.29221,15.89377],[99.29206,15.90027],[99.28891,15.90151],[99.28961,15.90459],[99.2906,15.90508],[99.293,15.90306],[99.29475,15.90327],[99.29509,15.90723],[99.29711,15.90888],[99.30195,15.90787],[99.30436,15.9038],[99.30771,15.90354],[99.31037,15.90487],[99.31165,15.90758],[99.31054,15.91219],[99.31069,15.91829],[99.31241,15.91924],[99.31749,15.91697],[99.31976,15.91748],[99.32022,15.91981],[99.31882,15.92607],[99.31997,15.92752],[99.32754,15.92046],[99.32603,15.91641],[99.32859,15.91215],[99.33021,15.91153],[99.33349,15.91161],[99.33459,15.91412],[99.33655,15.91464],[99.34325,15.91979],[99.35767,15.92689],[99.36208,15.92269],[99.374,15.9154],[99.37621,15.91526],[99.3789,15.91673],[99.3827,15.91709],[99.38889,15.91595],[99.39229,15.91631],[99.39514,15.91449],[99.40003,15.9136],[99.40242,15.91424],[99.40256,15.91262],[99.4051,15.91001],[99.4058,15.91205],[99.40985,15.91047],[99.41601,15.91055],[99.41589,15.91181],[99.41688,15.91326],[99.42132,15.91533],[99.42289,15.91794],[99.42454,15.91773],[99.42365,15.91873],[99.42561,15.92085],[99.42715,15.91916],[99.42711,15.91651],[99.42958,15.91385],[99.43091,15.90945],[99.43591,15.91072],[99.44072,15.90581],[99.44646,15.90265],[99.44786,15.90294],[99.44915,15.90513],[99.45678,15.90424],[99.45855,15.90537],[99.46095,15.90521],[99.46628,15.90077],[99.47227,15.90224],[99.47725,15.90234],[99.47635,15.90667],[99.47955,15.90803],[99.4814,15.91046],[99.48121,15.91251],[99.47902,15.91602],[99.47792,15.91963],[99.478,15.92121],[99.47931,15.92224],[99.48791,15.92298],[99.49403,15.9247],[99.5016,15.92826],[99.5086,15.9263],[99.5109,15.92349],[99.51832,15.92462],[99.52087,15.92366],[99.52328,15.9252],[99.52446,15.92473],[99.52547,15.92182],[99.52872,15.92092],[99.53282,15.92448],[99.53742,15.92494],[99.54308,15.92227],[99.5468,15.91916],[99.5505,15.91796],[99.55221,15.91524],[99.55439,15.91558],[99.55363,15.91207],[99.55571,15.91008],[99.55515,15.90899],[99.55651,15.90643],[99.55853,15.90615],[99.56254,15.90712],[99.56443,15.90634],[99.56494,15.90532],[99.56912,15.90568],[99.57053,15.90446],[99.57116,15.90543],[99.5725,15.90514],[99.57385,15.90593],[99.57697,15.90444],[99.57725,15.9056],[99.57813,15.90541],[99.57877,15.90408],[99.5797,15.90419],[99.59943,15.89],[99.60555,15.88722],[99.61388,15.88111],[99.6236,15.86805],[99.62886,15.85472],[99.63081,15.84694],[99.63136,15.83944],[99.63582,15.82055],[99.63971,15.81139],[99.64526,15.80222],[99.6561,15.78944],[99.66776,15.7825],[99.67192,15.7825],[99.67776,15.79055],[99.68082,15.79694],[99.68332,15.79917],[99.69582,15.80528],[99.70749,15.81639],[99.71666,15.82166],[99.72581,15.82139],[99.73055,15.82639],[99.73471,15.84055],[99.73888,15.85083],[99.74387,15.86],[99.74887,15.87305],[99.75472,15.88139],[99.76166,15.88889],[99.76305,15.89167],[99.76389,15.905],[99.76138,15.91639],[99.76138,15.92055],[99.76277,15.92361],[99.77026,15.93028],[99.7786,15.94028],[99.78499,15.95278],[99.79276,15.96361],[99.79582,15.97055],[99.79665,15.97916],[99.7986,15.98555],[99.81137,16.00583],[99.82805,16.0225],[99.85721,16.04416],[99.86415,16.05139],[99.86943,16.05528],[99.87415,16.06],[99.88499,16.0675],[99.89415,16.07722],[99.89583,16.08055],[99.89444,16.10611],[99.8961,16.11805],[99.89972,16.12888],[99.90665,16.14472],[99.91026,16.15527],[99.91249,16.15833],[99.91666,16.17111],[99.92554,16.18722],[99.92804,16.19361],[99.93193,16.2],[99.9361,16.20499],[99.94081,16.20889],[99.9447,16.21472],[99.94693,16.22166],[99.94693,16.22666],[99.94136,16.24777],[99.94054,16.26111],[99.94304,16.2775],[99.94498,16.28472],[99.94803,16.29111],[99.95166,16.29611],[99.95694,16.30111],[99.95972,16.30222],[99.96555,16.30639],[99.97054,16.31083],[99.97609,16.31944],[99.98637,16.33278],[99.99443,16.33778],[99.99803,16.33805],[100.00166,16.33666],[100.00916,16.33055],[100.01389,16.32528],[100.02193,16.31083],[100.0247,16.3],[100.02443,16.29111],[100.02222,16.28361],[100.02638,16.27389],[100.03249,16.26555],[100.03415,16.25805],[100.03249,16.25444],[100.02415,16.24361],[100.02304,16.24083],[100.02332,16.23277],[100.02693,16.2175],[100.0336,16.20139],[100.03526,16.19389],[100.03888,16.18388],[100.04248,16.17777],[100.04942,16.17111],[100.08554,16.15111],[100.09248,16.14416],[100.09444,16.14083],[100.09583,16.13805],[100.09583,16.13388],[100.09332,16.13166],[100.08832,16.12222],[100.08832,16.11805],[100.09055,16.11472],[100.09749,16.10861],[100.10193,16.09888],[100.10277,16.09528],[100.1111,16.085],[100.11638,16.08083],[100.11804,16.07861],[100.11943,16.07528],[100.12109,16.0675],[100.12109,16.06333],[100.12498,16.04889],[100.12526,16.04028],[100.12747,16.0325],[100.13582,16.02277],[100.13971,16.01305],[100.1411,16.00555],[100.1436,15.99778],[100.14749,15.99305],[100.15443,15.98666],[100.16081,15.97861],[100.16443,15.9725],[100.16582,15.96972],[100.16582,15.96555],[100.1647,15.96194],[100.16554,15.95778],[100.16776,15.95555],[100.18193,15.95028],[100.1947,15.94444],[100.20027,15.94055],[100.20166,15.93778],[100.20638,15.9325],[100.20999,15.93167],[100.21416,15.92694],[100.22083,15.92305],[100.22804,15.92528],[100.23581,15.93139],[100.23997,15.93194],[100.24387,15.93028],[100.25082,15.92389],[100.26054,15.91028],[100.26361,15.90889],[100.27193,15.91],[100.27609,15.90889],[100.28526,15.90972],[100.29193,15.91139],[100.29332,15.91444],[100.29221,15.91861],[100.29248,15.93055],[100.29582,15.93639],[100.29776,15.93861],[100.30359,15.9425],[100.31081,15.94472],[100.31526,15.945],[100.32832,15.94333],[100.34526,15.93611],[100.35248,15.93416],[100.35664,15.93389],[100.37164,15.93778],[100.37637,15.93722],[100.39388,15.93139],[100.40359,15.92639],[100.41443,15.92305],[100.42499,15.92305],[100.43942,15.92555],[100.44275,15.92722],[100.45665,15.92916],[100.46582,15.93222],[100.46944,15.93111],[100.47415,15.92639],[100.47804,15.92555],[100.48943,15.9275],[100.50221,15.92611],[100.5061,15.92472],[100.51277,15.92722],[100.52054,15.93361],[100.52388,15.93528],[100.52777,15.93611],[100.53194,15.93556],[100.53526,15.93444],[100.54054,15.93028],[100.54471,15.93167],[100.55832,15.94083],[100.56499,15.94305],[100.57416,15.94305],[100.57887,15.94389],[100.58804,15.94778],[100.59137,15.95],[100.5986,15.95111],[100.60248,15.9525],[100.61914,15.95028],[100.62943,15.94583],[100.64221,15.94694],[100.65555,15.94555],[100.66805,15.94722],[100.67137,15.94833],[100.67499,15.9475],[100.67804,15.945],[100.6797,15.94222],[100.68498,15.93833],[100.69247,15.93583],[100.69637,15.93722],[100.7,15.9375],[100.70387,15.93666],[100.71332,15.93167],[100.71693,15.93083],[100.72137,15.93055],[100.73276,15.93305],[100.74026,15.93111],[100.74693,15.92805],[100.75139,15.92889],[100.75499,15.93055],[100.75583,15.92361],[100.75499,15.91055],[100.75388,15.90694],[100.75526,15.89889],[100.75694,15.89583],[100.76193,15.89111],[100.77666,15.8875],[100.78693,15.88361],[100.79498,15.87694],[100.79776,15.87139],[100.79915,15.85444],[100.79526,15.83472],[100.79054,15.82472],[100.78859,15.81805],[100.78915,15.80528],[100.80386,15.75639],[100.80498,15.74889],[100.81387,15.725],[100.8186,15.70722],[100.82416,15.69944],[100.83083,15.68722],[100.83167,15.68361],[100.8311,15.68],[100.82111,15.66639],[100.81888,15.66444],[100.81721,15.66111],[100.8186,15.6575],[100.83028,15.64972],[100.83221,15.6475],[100.83415,15.64111],[100.83499,15.63277],[100.83276,15.625],[100.83083,15.62222],[100.82361,15.61555],[100.80775,15.59833],[100.79999,15.58833],[100.79887,15.58333],[100.80054,15.58111],[100.80138,15.57778],[100.80081,15.57333],[100.79887,15.57],[100.79665,15.56278],[100.7961,15.55472],[100.78915,15.54333],[100.77971,15.53361],[100.77443,15.52944],[100.76471,15.52528],[100.75055,15.52111],[100.74471,15.5175],[100.73859,15.50944],[100.74054,15.50167],[100.73943,15.4975],[100.74136,15.49],[100.74887,15.47028],[100.75166,15.45916],[100.74971,15.44722],[100.74332,15.43472],[100.73526,15.42444],[100.72609,15.415],[100.70999,15.40305],[100.69193,15.3875],[100.68275,15.37805],[100.67776,15.37472],[100.6736,15.36972],[100.65582,15.35333],[100.65443,15.35083],[100.64749,15.34389],[100.62221,15.32305],[100.60609,15.30611],[100.59694,15.2925],[100.59248,15.28722],[100.58693,15.28305],[100.57361,15.27861],[100.56749,15.275],[100.56303,15.27055],[100.55803,15.26111],[100.55276,15.24778],[100.54887,15.24194],[100.54414,15.23805],[100.5372,15.235],[100.53387,15.22916],[100.53194,15.21694],[100.53276,15.21278],[100.53221,15.20389],[100.52998,15.19666],[100.52805,15.19416],[100.52026,15.18778],[100.51416,15.18444],[100.50082,15.17972],[100.49776,15.17805],[100.49304,15.17333],[100.48888,15.16361],[100.48859,15.15889],[100.49054,15.13833],[100.48997,15.13416],[100.4836,15.12194],[100.48082,15.11028],[100.47777,15.10416],[100.47249,15.10028],[100.46332,15.09555],[100.45776,15.08639],[100.44775,15.07805],[100.44664,15.07444],[100.44693,15.07028],[100.44582,15.06611],[100.44275,15.06028],[100.43776,15.065],[100.42415,15.06444],[100.41971,15.06555],[100.41081,15.07028],[100.40248,15.07639],[100.39638,15.07917],[100.38416,15.08139],[100.37608,15.08389],[100.37053,15.08778],[100.36638,15.09194],[100.35027,15.12222],[100.34943,15.12527],[100.35193,15.13222],[100.35443,15.13444],[100.35526,15.13833],[100.3522,15.145],[100.35193,15.14805],[100.34915,15.155],[100.34415,15.15944],[100.33693,15.16139],[100.32332,15.16167],[100.30914,15.1675],[100.30637,15.16944],[100.30138,15.17833],[100.29887,15.18917],[100.29582,15.21305],[100.29221,15.22333],[100.28804,15.22944],[100.2811,15.23555],[100.26854,15.25465],[100.2695,15.29726],[100.25537,15.29751],[100.25207,15.30063],[100.23665,15.32805],[100.23027,15.33611],[100.22276,15.34278],[100.21638,15.35028],[100.21082,15.35389],[100.20555,15.35861],[100.19664,15.36333],[100.19304,15.365],[100.17747,15.36805],[100.16859,15.37333],[100.16165,15.38028],[100.15305,15.38611],[100.14777,15.39444],[100.14526,15.39667],[100.14249,15.39861],[100.13554,15.40111],[100.13361,15.40333],[100.1297,15.41361],[100.12442,15.41833],[100.12109,15.41916],[100.09943,15.41805],[100.05942,15.42028],[100.05794,15.41964],[100.05138,15.42833],[100.04803,15.44555],[100.04553,15.45111],[100.04248,15.45222],[100.03442,15.45166],[100.03194,15.45305],[100.02582,15.45944],[100.0186,15.46861],[100.00888,15.47111],[100.00388,15.47417],[100.00166,15.47611],[99.99832,15.48139],[99.99304,15.4925],[99.99081,15.49444],[99.98166,15.49722],[99.97665,15.50444],[99.97221,15.50889],[99.96944,15.51],[99.9622,15.50861],[99.95638,15.51472],[99.95305,15.51472],[99.94693,15.51222],[99.94054,15.50639],[99.93719,15.50555],[99.93332,15.50583],[99.9297,15.51028],[99.9272,15.51167],[99.91582,15.51194],[99.91277,15.51305],[99.9061,15.5225],[99.8936,15.53472],[99.88832,15.54583],[99.88026,15.55444],[99.87747,15.55583],[99.87331,15.55972],[99.87025,15.565],[99.86693,15.58222],[99.8606,15.63451],[99.85832,15.63583],[99.84444,15.63611],[99.83388,15.63277],[99.82666,15.62611],[99.81999,15.62305],[99.80859,15.625],[99.80109,15.62805],[99.79721,15.62861],[99.79027,15.63139],[99.78249,15.63333],[99.77026,15.64],[99.76639,15.64528],[99.76138,15.65778],[99.75472,15.66611],[99.75055,15.67028],[99.73804,15.6775],[99.73137,15.68],[99.72665,15.68],[99.71555,15.67666],[99.70387,15.67916],[99.69525,15.67889],[99.68553,15.675],[99.67638,15.66972],[99.67276,15.66889],[99.66914,15.66694],[99.6622,15.66555],[99.65915,15.66361],[99.65138,15.6575],[99.63721,15.64361],[99.62387,15.63333],[99.6147,15.62944],[99.61192,15.6275],[99.59221,15.62333],[99.58554,15.62027],[99.5811,15.61639],[99.57222,15.60611],[99.56303,15.59194],[99.55664,15.58389],[99.55138,15.58028],[99.53554,15.57305],[99.522,15.56377],[99.51552,15.56239],[99.50876,15.56271],[99.49549,15.56781],[99.48891,15.56557],[99.4789,15.56562],[99.47352,15.56848],[99.47103,15.57555],[99.46756,15.57794],[99.4625,15.57685],[99.46045,15.57813],[99.45745,15.58525],[99.4493,15.5911],[99.4401,15.5996],[99.43402,15.6002],[99.43036,15.60249],[99.43007,15.6068],[99.42837,15.61052],[99.41486,15.61116],[99.40916,15.61593],[99.40112,15.61697],[99.39474,15.62022],[99.38428,15.62076],[99.37829,15.62843],[99.3803,15.63072],[99.37404,15.64161],[99.37153,15.65061],[99.37013,15.66315],[99.36745,15.66384],[99.36346,15.66694],[99.35888,15.67732],[99.35606,15.67759],[99.35493,15.68084],[99.34465,15.68498],[99.33947,15.68478],[99.33247,15.69166],[99.32629,15.69143],[99.32074,15.68883],[99.31514,15.6932],[99.29734,15.69285],[99.291,15.69591],[99.28987,15.7028],[99.28009,15.71269],[99.27683,15.71726],[99.25496,15.71957],[99.24731,15.72236],[99.24161,15.7309],[99.24177,15.73976],[99.23436,15.74743],[99.22761,15.74696],[99.22922,15.75166],[99.22747,15.75646],[99.21715,15.76637],[99.20305,15.7658],[99.19238,15.77845],[99.18407,15.78235],[99.17255,15.78148],[99.16551,15.77641],[99.16161,15.7758],[99.1444,15.77601],[99.13638,15.77783],[99.13301,15.78277],[99.13254,15.78533],[99.13666,15.78804],[99.1358,15.79639],[99.1333,15.80361],[99.12801,15.81219],[99.12244,15.81737],[99.1037,15.82255],[99.1054,15.8285],[99.09749,15.83299],[99.09589,15.83816],[99.09923,15.84717],[99.09876,15.8551],[99.09518,15.86213],[99.09759,15.87518],[99.09116,15.87954],[99.08799,15.88586],[99.08899,15.88747]]]}}]}