{"type":"FeatureCollection","features":[{"type":"Feature","properties":{"pcode":62,"pname":"กำแพงเพชร","contrib_km2":7184},"geometry":{"type":"MultiPolygon","coordinates":[[[[99.4236,15.9183],[99.4247,15.918],[99.4239,15.9173],[99.4236,15.9183]]],[[[99.4236,15.9183],[99.4156,15.9105],[99.4038,15.9106],[99.3718,15.9164],[99.3574,15.9269],[99.3298,15.9115],[99.3276,15.9203],[99.3183,15.927],[99.3193,15.9164],[99.3116,15.9195],[99.3103,15.9045],[99.2957,15.9091],[99.2944,15.9027],[99.2897,15.905],[99.29,15.8913],[99.2744,15.9043],[99.2726,15.911],[99.2688,15.9132],[99.2675,15.9069],[99.2334,15.9291],[99.2216,15.945],[99.2196,15.9366],[99.213,15.9398],[99.2172,15.9442],[99.2096,15.9488],[99.2046,15.9364],[99.1939,15.9458],[99.1962,15.9393],[99.1853,15.9282],[99.1722,15.9377],[99.1741,15.9306],[99.1542,15.9207],[99.1495,15.9112],[99.14,15.9076],[99.1289,15.9142],[99.0959,15.8847],[99.0893,15.8869],[99.0869,15.914],[99.0978,15.9256],[99.0995,15.936],[99.0759,15.9559],[99.0889,15.9785],[99.0885,15.9956],[99.0825,16.0084],[99.0886,16.042],[99.1063,16.0493],[99.1177,16.0721],[99.108,16.0875],[99.1071,16.103],[99.0936,16.104],[99.0785,16.1274],[99.0507,16.1372],[99.0515,16.1616],[99.0685,16.1648],[99.0744,16.1959],[99.0811,16.2014],[99.0836,16.2118],[99.0492,16.2579],[99.042,16.2904],[99.0551,16.3088],[99.0508,16.3145],[99.0525,16.3334],[99.0419,16.3416],[99.0416,16.3732],[99.0567,16.3765],[99.0661,16.3845],[99.0841,16.3827],[99.0906,16.3674],[99.117,16.373],[99.1242,16.3804],[99.1312,16.374],[99.142,16.378],[99.1493,16.3843],[99.152,16.4057],[99.1593,16.4088],[99.1666,16.406],[99.175,16.412],[99.1646,16.4439],[99.1663,16.4722],[99.17,16.4792],[99.1817,16.4837],[99.1897,16.5056],[99.1956,16.4991],[99.2087,16.5056],[99.2271,16.5016],[99.2303,16.4965],[99.2465,16.5049],[99.2465,16.5178],[99.2619,16.5194],[99.264,16.5259],[99.2862,16.5324],[99.2992,16.5435],[99.3031,16.5519],[99.2971,16.5649],[99.3014,16.5689],[99.2947,16.5894],[99.2855,16.5991],[99.2872,16.6114],[99.2796,16.6325],[99.2889,16.6389],[99.2902,16.6514],[99.2763,16.6864],[99.2782,16.697],[99.2981,16.7223],[99.3023,16.7421],[99.3057,16.765],[99.2967,16.7732],[99.2958,16.7845],[99.3145,16.7943],[99.3289,16.8137],[99.3289,16.8338],[99.3348,16.8361],[99.3281,16.8521],[99.3433,16.8715],[99.3465,16.887],[99.3632,16.8769],[99.3644,16.8731],[99.3596,16.8731],[99.363,16.8689],[99.4112,16.8597],[99.4204,16.8648],[99.4233,16.8751],[99.4477,16.8811],[99.4507,16.8746],[99.4672,16.8705],[99.4692,16.8656],[99.4885,16.8664],[99.499,16.8406],[99.5165,16.8378],[99.5309,16.8288],[99.529,16.8207],[99.5113,16.8151],[99.4977,16.8037],[99.4936,16.7688],[99.4875,16.758],[99.4976,16.7435],[99.5033,16.7456],[99.5077,16.7391],[99.5009,16.7353],[99.5068,16.7239],[99.4917,16.7102],[99.4941,16.6947],[99.489,16.6881],[99.5008,16.6678],[99.4906,16.6406],[99.5092,16.5899],[99.5049,16.5749],[99.5082,16.5629],[99.5044,16.5597],[99.511,16.5431],[99.508,16.5352],[99.5129,16.5281],[99.5165,16.5299],[99.5116,16.5253],[99.5147,16.5086],[99.4978,16.5018],[99.5097,16.4904],[99.5273,16.4855],[99.5366,16.4912],[99.5428,16.5012],[99.5485,16.5018],[99.5525,16.5121],[99.551,16.5343],[99.5722,16.5424],[99.5994,16.5366],[99.6085,16.5447],[99.629,16.5499],[99.6352,16.5479],[99.6363,16.5357],[99.6541,16.543],[99.6642,16.5405],[99.673,16.5445],[99.6745,16.5532],[99.6844,16.5575],[99.6946,16.5591],[99.6996,16.555],[99.7057,16.5609],[99.7245,16.5625],[99.73,16.5598],[99.7316,16.5496],[99.7497,16.5688],[99.7739,16.574],[99.7723,16.5931],[99.7782,16.6076],[99.7968,16.6059],[99.8078,16.6247],[99.8063,16.6344],[99.8119,16.6343],[99.8121,16.618],[99.8187,16.6181],[99.8171,16.6376],[99.8234,16.64],[99.8392,16.6261],[99.8539,16.6313],[99.8619,16.6287],[99.8728,16.6161],[99.8804,16.6162],[99.8918,16.6336],[99.9198,16.5819],[99.9375,16.5832],[99.9683,16.5668],[100.0057,16.5561],[100.0118,16.5429],[100.0232,16.5331],[100.0244,16.516],[100.0331,16.5011],[100.0078,16.4401],[100.0025,16.4125],[99.9771,16.3715],[99.9765,16.3626],[99.991,16.3474],[99.9941,16.3378],[99.9693,16.3092],[99.9549,16.2995],[99.9441,16.2826],[99.9402,16.2582],[99.9476,16.2239],[99.9169,16.1716],[99.8986,16.1261],[99.8958,16.0802],[99.8107,16.005],[99.7982,15.9847],[99.7917,15.9624],[99.7621,15.9228],[99.7627,15.8902],[99.7487,15.8724],[99.7303,15.8255],[99.7087,15.8171],[99.6816,15.7983],[99.6715,15.7822],[99.6665,15.7832],[99.6559,15.7896],[99.6389,15.8128],[99.6234,15.8685],[99.6133,15.8817],[99.5779,15.9053],[99.5577,15.906],[99.5544,15.9152],[99.5377,15.9249],[99.5258,15.9217],[99.5019,15.9285],[99.4779,15.9217],[99.4819,15.9109],[99.477,15.9023],[99.4468,15.9024],[99.4357,15.9108],[99.4309,15.9092],[99.4262,15.9211],[99.4236,15.9183]]]]}},{"type":"Feature","properties":{"pcode":65,"pname":"พิษณุโลก","contrib_km2":9722},"geometry":{"type":"MultiPolygon","coordinates":[[[[100.032,16.4963],[100.0232,16.5331],[100.0118,16.5429],[100.0057,16.5561],[99.9683,16.5668],[99.9375,16.5832],[99.9198,16.5819],[99.9011,16.6118],[99.8918,16.6336],[99.9114,16.6554],[99.9076,16.6648],[99.9119,16.6762],[99.906,16.6853],[99.9237,16.6949],[99.9391,16.6973],[99.9431,16.7162],[99.9153,16.7318],[99.898,16.7313],[99.8852,16.7371],[99.8887,16.7554],[99.8955,16.7642],[99.9217,16.7758],[99.9327,16.7875],[99.9482,16.8433],[99.9556,16.8452],[99.9566,16.8502],[99.9619,16.8468],[99.9633,16.86],[99.968,16.8634],[99.9897,16.8573],[99.9923,16.863],[99.9988,16.863],[100.0029,16.8609],[100.0021,16.8521],[100.0145,16.8482],[100.0273,16.8591],[100.0225,16.8743],[100.0287,16.8889],[100.0368,16.8876],[100.039,16.8798],[100.0445,16.8826],[100.0632,16.8723],[100.0709,16.8739],[100.0817,16.8576],[100.1103,16.848],[100.1069,16.8374],[100.1163,16.8306],[100.1205,16.8338],[100.1186,16.8273],[100.1318,16.8183],[100.133,16.8232],[100.1432,16.8207],[100.1492,16.8131],[100.1483,16.8346],[100.168,16.854],[100.1848,16.8497],[100.1822,16.8612],[100.1933,16.8637],[100.1899,16.8726],[100.1933,16.8757],[100.2065,16.8805],[100.2085,16.8662],[100.2194,16.8535],[100.2282,16.8541],[100.2306,16.8599],[100.2431,16.8643],[100.2347,16.8882],[100.2254,16.8962],[100.217,16.8935],[100.2077,16.9068],[100.219,16.9289],[100.2069,16.9277],[100.1985,16.9363],[100.1974,16.9541],[100.2092,16.9537],[100.2049,16.9659],[100.1986,16.9668],[100.1991,16.9766],[100.2063,16.9828],[100.2046,16.9894],[100.1929,16.9871],[100.1911,16.9991],[100.1755,17.0142],[100.1757,17.0178],[100.1932,17.0181],[100.2019,17.0311],[100.1959,17.0383],[100.1849,17.0279],[100.1834,17.0435],[100.1868,17.0467],[100.1748,17.0658],[100.1777,17.0822],[100.1653,17.0773],[100.1574,17.0842],[100.1639,17.0906],[100.1557,17.1029],[100.1449,17.0972],[100.1175,17.1251],[100.1016,17.126],[100.0974,17.1426],[100.0866,17.1523],[100.0797,17.1689],[100.0715,17.1705],[100.0718,17.1767],[100.0936,17.1677],[100.0902,17.1617],[100.0996,17.1608],[100.0936,17.1495],[100.1056,17.1436],[100.1157,17.1513],[100.1309,17.1465],[100.1357,17.1623],[100.1474,17.1623],[100.1534,17.1679],[100.1628,17.1655],[100.1648,17.1833],[100.1788,17.19],[100.1851,17.1856],[100.2039,17.192],[100.2068,17.1991],[100.223,17.2052],[100.2381,17.2213],[100.2747,17.2405],[100.2787,17.2682],[100.2729,17.2789],[100.2814,17.299],[100.2851,17.3386],[100.2978,17.3464],[100.3022,17.3361],[100.3153,17.3301],[100.314,17.3471],[100.3245,17.3694],[100.365,17.3618],[100.3821,17.378],[100.3897,17.3777],[100.3998,17.3542],[100.397,17.3387],[100.4004,17.3338],[100.4145,17.3418],[100.4273,17.334],[100.4343,17.3476],[100.4419,17.3504],[100.4362,17.3582],[100.4518,17.3646],[100.449,17.3782],[100.4596,17.3869],[100.4618,17.3994],[100.4534,17.4067],[100.451,17.4174],[100.469,17.4207],[100.4818,17.4171],[100.4985,17.4281],[100.5203,17.397],[100.539,17.402],[100.5454,17.3813],[100.5617,17.3782],[100.5741,17.3618],[100.5867,17.3716],[100.6026,17.3952],[100.6019,17.4414],[100.616,17.4676],[100.6333,17.4637],[100.6503,17.4686],[100.6539,17.4572],[100.6623,17.4531],[100.6654,17.4628],[100.6564,17.4985],[100.6726,17.5013],[100.6925,17.5242],[100.7271,17.5328],[100.7405,17.5421],[100.7465,17.5578],[100.7743,17.5823],[100.7755,17.6003],[100.7898,17.6097],[100.7975,17.6258],[100.824,17.635],[100.8446,17.6556],[100.8683,17.7036],[100.8839,17.7081],[100.9076,17.6853],[100.9332,17.6898],[100.9595,17.6821],[100.9644,17.6783],[100.9591,17.6743],[100.9599,17.6556],[100.9523,17.6537],[100.9172,17.6166],[100.9091,17.6167],[100.899,17.5938],[100.8728,17.5766],[100.8615,17.5511],[100.873,17.5357],[100.8712,17.5278],[100.8625,17.5115],[100.8463,17.5033],[100.8439,17.4897],[100.8337,17.4824],[100.8327,17.475],[100.8355,17.4668],[100.8553,17.4514],[100.8635,17.4537],[100.8743,17.4492],[100.8826,17.4545],[100.8988,17.4434],[100.8973,17.4291],[100.9104,17.4119],[100.9019,17.3659],[100.9052,17.3269],[100.9348,17.3323],[100.9531,17.326],[100.9807,17.3298],[100.9896,17.3265],[100.9891,17.3055],[101.0195,17.2993],[101.0272,17.2805],[101.0406,17.2709],[101.0663,17.2696],[101.0743,17.2507],[101.0912,17.2301],[101.0958,17.2169],[101.0889,17.2024],[101.0769,17.1955],[101.0791,17.1861],[101.0638,17.1591],[101.0649,17.1028],[101.0572,17.0952],[101.0587,17.0823],[101.0511,17.0785],[101.0587,17.0622],[101.0552,17.054],[101.0582,17.03],[101.0522,17.0289],[101.0487,17.0176],[101.0315,17.0111],[101.0301,17.0054],[101.0486,16.9748],[101.0442,16.9661],[101.0522,16.9565],[101.0278,16.9446],[101.0268,16.938],[101.0438,16.9273],[101.0662,16.9273],[101.0722,16.9159],[101.0674,16.9],[101.0398,16.908],[101.035,16.9057],[101.0022,16.8595],[100.9781,16.852],[100.9685,16.8316],[100.949,16.8238],[100.9448,16.8072],[100.9346,16.7961],[100.9136,16.8011],[100.8937,16.792],[100.8918,16.7685],[100.9067,16.7525],[100.9074,16.7398],[100.9148,16.7283],[100.9153,16.7038],[100.928,16.6873],[100.9161,16.6776],[100.9124,16.6664],[100.8792,16.6645],[100.8542,16.6429],[100.8378,16.601],[100.8437,16.546],[100.8346,16.5251],[100.815,16.4989],[100.7949,16.4811],[100.795,16.4528],[100.7722,16.4501],[100.756,16.433],[100.7332,16.4196],[100.7023,16.4144],[100.6948,16.4065],[100.6972,16.3815],[100.6789,16.3552],[100.6681,16.3474],[100.5826,16.4233],[100.5788,16.4667],[100.5629,16.4886],[100.559,16.5234],[100.5527,16.5318],[100.5154,16.5387],[100.4563,16.5283],[100.4237,16.5384],[100.3418,16.521],[100.3264,16.5277],[100.3141,16.5406],[100.2866,16.5262],[100.2489,16.5332],[100.2421,16.5456],[100.2435,16.5904],[100.2334,16.5989],[100.2157,16.5978],[100.198,16.5818],[100.1684,16.5656],[100.1147,16.5129],[100.032,16.4963]]]]}},{"type":"Feature","properties":{"pcode":66,"pname":"พิจิตร","contrib_km2":4246},"geometry":{"type":"MultiPolygon","coordinates":[[[[100.7478,15.9279],[100.7459,15.9282],[100.7474,15.9289],[100.7478,15.9279]]],[[[99.9941,16.3378],[99.991,16.3474],[99.9765,16.3626],[99.9771,16.3715],[100.0025,16.4125],[100.0078,16.4401],[100.032,16.4963],[100.1147,16.5129],[100.1597,16.5592],[100.198,16.5818],[100.2157,16.5978],[100.2408,16.5959],[100.2447,16.5816],[100.2421,16.5456],[100.2489,16.5332],[100.2866,16.5262],[100.3141,16.5406],[100.3264,16.5277],[100.3418,16.521],[100.4237,16.5384],[100.4563,16.5283],[100.5154,16.5387],[100.5527,16.5318],[100.559,16.5234],[100.5629,16.4886],[100.5788,16.4667],[100.5826,16.4233],[100.6681,16.3474],[100.6991,16.2549],[100.6988,16.2451],[100.687,16.2219],[100.6374,16.1583],[100.633,16.1396],[100.6387,16.0989],[100.6342,16.0673],[100.6272,16.0516],[100.6285,16.048],[100.6488,16.0468],[100.7069,16.03],[100.7642,15.9932],[100.7707,15.9865],[100.7722,15.9742],[100.7572,15.9368],[100.7406,15.939],[100.7382,15.9332],[100.7194,15.9302],[100.683,15.9393],[100.6733,15.9484],[100.6288,15.9462],[100.603,15.9524],[100.5624,15.9426],[100.5429,15.9307],[100.5258,15.9358],[100.5061,15.925],[100.4769,15.9255],[100.4658,15.932],[100.4214,15.9226],[100.375,15.9375],[100.3552,15.9336],[100.3124,15.9452],[100.2955,15.936],[100.2897,15.9106],[100.2616,15.9096],[100.2394,15.9319],[100.2197,15.923],[100.1938,15.945],[100.1662,15.9563],[100.1653,15.971],[100.1429,15.9993],[100.1378,16.0182],[100.1273,16.0328],[100.1186,16.078],[100.0877,16.1197],[100.0962,16.1343],[100.0951,16.1401],[100.084,16.1519],[100.0419,16.1783],[100.0227,16.2359],[100.0344,16.2587],[100.0225,16.2836],[100.0217,16.3115],[100.0083,16.3314],[99.9941,16.3378]]]]}},{"type":"Feature","properties":{"pcode":67,"pname":"เพชรบูรณ์","contrib_km2":2921},"geometry":{"type":"MultiPolygon","coordinates":[[[[100.8105,15.6012],[100.8105,15.6021],[100.8113,15.602],[100.8105,15.6012]]],[[[100.8113,15.602],[100.8331,15.6253],[100.8319,15.6483],[100.8171,15.6614],[100.8317,15.681],[100.8184,15.7079],[100.7884,15.8076],[100.7992,15.8546],[100.7976,15.8721],[100.7865,15.884],[100.7618,15.8913],[100.7548,15.901],[100.7556,15.9303],[100.7628,15.9274],[100.7659,15.9306],[100.7572,15.9368],[100.7579,15.9461],[100.7722,15.9742],[100.7707,15.9865],[100.751,16.0039],[100.7069,16.03],[100.6488,16.0468],[100.6285,16.048],[100.6272,16.0516],[100.6342,16.0673],[100.6387,16.0989],[100.633,16.1396],[100.6374,16.1583],[100.687,16.2219],[100.6988,16.2451],[100.69,16.2907],[100.6681,16.3474],[100.6789,16.3552],[100.6972,16.3815],[100.6948,16.4065],[100.7023,16.4144],[100.7332,16.4196],[100.756,16.433],[100.7722,16.4501],[100.795,16.4528],[100.7949,16.4811],[100.815,16.4989],[100.8346,16.5251],[100.8437,16.546],[100.8378,16.601],[100.8542,16.6429],[100.8721,16.6614],[100.893,16.6671],[100.9124,16.6664],[100.9161,16.6776],[100.9264,16.6824],[100.928,16.6895],[100.9133,16.7103],[100.9158,16.7226],[100.9074,16.7398],[100.9067,16.7525],[100.8918,16.7685],[100.8937,16.792],[100.9136,16.8011],[100.9254,16.7959],[100.9405,16.8004],[100.949,16.8238],[100.9685,16.8316],[100.9781,16.852],[101.0022,16.8595],[101.0297,16.9011],[101.0398,16.908],[101.076,16.9006],[101.0855,16.8941],[101.0608,16.8826],[101.0578,16.8268],[101.0333,16.8028],[101.0503,16.7912],[101.0578,16.7558],[101.054,16.7398],[101.0584,16.7355],[101.0623,16.7014],[101.0508,16.6777],[101.0426,16.6714],[101.0273,16.6691],[101.0211,16.6598],[101.0216,16.6497],[101.0112,16.6479],[101.0172,16.6337],[101.015,16.6237],[101.0218,16.6236],[101.0267,16.6147],[101.025,16.6006],[101.0374,16.5934],[101.0399,16.5803],[101.0343,16.574],[101.0379,16.568],[101.0251,16.5557],[101.0278,16.5505],[101.024,16.5423],[100.9924,16.5457],[100.9923,16.5399],[100.9814,16.5312],[100.9896,16.5231],[101.0043,16.4887],[101.0108,16.4555],[101.0023,16.4462],[101.0105,16.427],[101.0084,16.4145],[100.9957,16.4079],[100.9891,16.3969],[100.992,16.3914],[100.9875,16.3769],[100.994,16.3541],[100.9725,16.3279],[100.9707,16.3192],[100.9427,16.3089],[100.9477,16.2966],[100.9568,16.2933],[100.9644,16.2806],[100.9585,16.2784],[100.9662,16.2629],[100.9826,16.2532],[100.9824,16.2263],[100.9933,16.2263],[100.9948,16.2117],[100.982,16.1878],[100.9864,16.1831],[100.9824,16.155],[100.9856,16.1361],[100.9623,16.1411],[100.9546,16.1347],[100.9453,16.1373],[100.9399,16.1253],[100.9253,16.1328],[100.9071,16.1067],[100.9155,16.091],[100.9317,16.0755],[100.932,16.0641],[100.9412,16.064],[100.9462,16.0722],[100.9525,16.0657],[100.963,16.0663],[100.974,16.0605],[100.9841,16.0654],[100.9797,16.0487],[100.9891,16.0424],[100.9869,16.0064],[100.9858,16.0019],[100.9785,16.0044],[100.9769,15.9964],[100.9674,15.998],[100.9651,15.9913],[100.9403,15.9795],[100.9404,15.9746],[100.9172,15.9691],[100.9151,15.9588],[100.9065,15.9538],[100.8981,15.9539],[100.893,15.9466],[100.887,15.9482],[100.888,15.9428],[100.8963,15.9405],[100.8928,15.9272],[100.8993,15.9042],[100.9028,15.8978],[100.9087,15.899],[100.9109,15.881],[100.905,15.879],[100.9058,15.8749],[100.9115,15.8721],[100.9279,15.8218],[100.9379,15.8096],[100.9434,15.7715],[100.934,15.7536],[100.9543,15.7145],[100.9447,15.7051],[100.9284,15.6998],[100.9188,15.7019],[100.909,15.694],[100.8995,15.6472],[100.8773,15.6475],[100.8696,15.6295],[100.8447,15.6165],[100.8434,15.6041],[100.8249,15.6128],[100.8168,15.6024],[100.8113,15.602]]],[[[100.8105,15.6012],[100.8098,15.592],[100.8175,15.5861],[100.809,15.574],[100.8032,15.573],[100.7997,15.5637],[100.8038,15.5544],[100.7936,15.5396],[100.7844,15.5376],[100.7958,15.5545],[100.8006,15.5893],[100.8105,15.6012]]],[[[100.767,15.5251],[100.7651,15.5255],[100.7666,15.5262],[100.767,15.5251]]],[[[100.7418,15.5131],[100.7415,15.5121],[100.7408,15.5129],[100.7418,15.5131]]],[[[100.7418,15.5131],[100.7607,15.5238],[100.7597,15.5142],[100.7418,15.5131]]]]}}]}